,borough,geographical,admin_district,ats_code,location_name,grade_level,building_code,building_name,address,building_ownership,room_no,area,function,is_school_co_located,inside_v_outside,is_the_space_shared,space_used_for_any
0,K,22,22,22K312,P.S. 312 Bergen Beach,Elementary,K312,P.S. 312 - Brooklyn,7103 Avenue T,DOE Owned,345,676.0,Dance Room,false,Inside,false,False
1,Q,25,25,25Q120,P.S. 120 Queens,Elementary,Q120,P.S. 120 - Queens,58-01 136 Street,DOE Owned,GYM,3850.0,Gymnasium,false,Inside,false,False
2,M,1,1,01M063,The STAR Academy - P.S.63,Elementary,M063,P.S. 63 - Manhattan,121 East 3 Street,DOE Owned,417,1500.0,Gymnasium,true,Inside,true,False
3,M,1,1,01M015,P.S. 015 Roberto Clemente,Elementary,M015,P.S. 15 - Manhattan,333 East 4 Street,DOE Owned,GYM.,3243.0,Gymnasium,true,Inside,true,False
4,M,1,1,01M015,P.S. 015 Roberto Clemente,Elementary,M015,P.S. 15 - Manhattan,333 East 4 Street,DOE Owned,Outdoor Yard 1,14953.0,Outdoor Yard,true,Outdoor,true,False
5,M,1,1,01M019,P.S. 019 Asher Levy,Elementary,M019,P.S. 19 - Manhattan,185 1 Avenue,DOE Owned,GYM,3942.0,Gymnasium,true,Inside,true,False
6,M,1,1,01M019,P.S. 019 Asher Levy,Elementary,M019,P.S. 19 - Manhattan,185 1 Avenue,DOE Owned,Outdoor Yard 1,28121.0,Outdoor Yard,true,Outdoor,true,False
7,M,1,1,01M020,P.S. 020 Anna Silver,Elementary,M020,P.S. 20 - Manhattan,166 Essex Street,DOE Owned,GYM,4000.0,Gymnasium,false,Inside,false,False
8,M,1,1,01M020,P.S. 020 Anna Silver,Elementary,M020,P.S. 20 - Manhattan,166 Essex Street,DOE Owned,Outdoor Yard 1,3191.0,Outdoor Yard,false,Outdoor,false,False
9,M,1,1,01M034,P.S. 034 Franklin D. Roosevelt,K-8,M034,P.S. 34 - Manhattan,730 East 12 Street,DOE Owned,124,3450.0,Gymnasium,false,Inside,false,False
10,M,1,1,01M034,P.S. 034 Franklin D. Roosevelt,K-8,M034,P.S. 34 - Manhattan,730 East 12 Street,DOE Owned,Outdoor Yard 1,27457.0,Outdoor Yard,false,Outdoor,false,False
11,M,1,1,01M063,The STAR Academy - P.S.63,Elementary,M063,P.S. 63 - Manhattan,121 East 3 Street,DOE Owned,114,728.0,Dance Room,true,Inside,true,False
12,M,3,3,03M452,P.S. 452,Elementary,M044,I.S. 44 - Manhattan,100 West 77 Street,DOE Owned,237,960.0,Dance Room,true,Inside,true,False
13,M,2,75,75M094,P.S. M094,K-8,M276,P.S./I.S. 276 - Manhattan,55 Battery Place,Tax Levy Lease,108,5040.0,Gymnasium,true,Inside,true,False
14,K,19,19,19K174,P.S. 174 Dumont,K-8,K174,P.S. 174 - Brooklyn,574 Dumont Avenue,DOE Owned,BGYM,2891.0,Gymnasium,true,Inside,true,False
15,K,13,13,13K595,Bedford Academy High School,High school,,Bedford Ymca,1121 Bedford Ave,,,,Bedford YMCA,false,Offsite,false,False
16,M,1,1,01M063,The STAR Academy - P.S.63,Elementary,M063,P.S. 63 - Manhattan,121 East 3 Street,DOE Owned,GYMB,1740.0,Gymnasium,true,Inside,true,False
17,M,1,1,01M064,P.S. 064 Robert Simon,Elementary,M064,P.S. 64 (Old 71) - Manhattan,600 East 6 Street,DOE Owned,B43,1344.0,Dance Room,true,Inside,true,False
18,M,1,1,01M064,P.S. 064 Robert Simon,Elementary,M064,P.S. 64 (Old 71) - Manhattan,600 East 6 Street,DOE Owned,B53,6336.0,Gymnasium,true,Inside,true,False
19,M,1,1,01M064,P.S. 064 Robert Simon,Elementary,M064,P.S. 64 (Old 71) - Manhattan,600 East 6 Street,DOE Owned,Outdoor Yard 1,13310.0,Outdoor Yard,true,Outdoor,true,False
20,M,1,1,01M064,P.S. 064 Robert Simon,Elementary,M064,P.S. 64 (Old 71) - Manhattan,600 East 6 Street,DOE Owned,Outdoor Yard 2,14159.0,Outdoor Yard,true,Outdoor,true,False
21,M,1,1,01M110,P.S. 110 Florence Nightingale,Elementary,M110,P.S. 110 - Manhattan,285 Delancy Street,DOE Owned,GYM,3367.0,Gymnasium,false,Inside,false,False
22,M,1,1,01M110,P.S. 110 Florence Nightingale,Elementary,M110,P.S. 110 - Manhattan,285 Delancy Street,DOE Owned,Outdoor Yard 1,4089.0,Outdoor Yard,false,Outdoor,false,False
23,M,1,1,01M134,P.S. 134 Henrietta Szold,Elementary,M134,P.S. 134 - Manhattan,293 East Broadway,DOE Owned,140,920.0,Dance Room,true,Inside,true,False
24,M,1,1,01M134,P.S. 134 Henrietta Szold,Elementary,M134,P.S. 134 - Manhattan,293 East Broadway,DOE Owned,140A,528.0,Dance Room,true,Inside,true,False
25,M,1,1,01M134,P.S. 134 Henrietta Szold,Elementary,M134,P.S. 134 - Manhattan,293 East Broadway,DOE Owned,GYM,3850.0,Gymnasium,true,Inside,true,False
26,M,1,1,01M140,P.S. 140 Nathan Straus,K-8,M140,P.S. 140 - Manhattan,123 Ridge Street,DOE Owned,GYM,3850.0,Gymnasium,false,Inside,false,False
27,M,1,1,01M140,P.S. 140 Nathan Straus,K-8,M140,P.S. 140 - Manhattan,123 Ridge Street,DOE Owned,Outdoor Yard 1,2890.0,Outdoor Yard,false,Outdoor,false,False
28,M,1,1,01M142,P.S. 142 Amalia Castro,Elementary,M142,P.S. 142 - Manhattan,100 Attorney Street,DOE Owned,118,550.0,Dance Room,true,Inside,true,False
29,M,1,1,01M142,P.S. 142 Amalia Castro,Elementary,M142,P.S. 142 - Manhattan,100 Attorney Street,DOE Owned,140,3000.0,Gymnasium,true,Inside,true,False
30,M,1,1,01M142,P.S. 142 Amalia Castro,Elementary,M142,P.S. 142 - Manhattan,100 Attorney Street,DOE Owned,Outdoor Yard 1,26472.0,Outdoor Yard,true,Outdoor,true,False
31,M,1,1,01M142,P.S. 142 Amalia Castro,Elementary,M142,P.S. 142 - Manhattan,100 Attorney Street,DOE Owned,Outdoor Yard 2,7098.0,Outdoor Yard,true,Outdoor,true,False
32,M,1,1,01M184,P.S. 184m Shuang Wen,K-8,M137,P.S. 137 - Manhattan,327 Cherry Street,DOE Owned,209/211,1350.0,Dance Room,false,Inside,false,False
33,M,1,1,01M184,P.S. 184m Shuang Wen,K-8,M137,P.S. 137 - Manhattan,327 Cherry Street,DOE Owned,Outdoor Yard 1,48593.0,Outdoor Yard,false,Outdoor,false,False
34,M,1,1,01M188,P.S. 188 The Island School,K-8,M188,P.S. 188 - Manhattan,442 East Houston Street,DOE Owned,GYM,9720.0,Gymnasium,true,Inside,true,False
35,M,1,1,01M292,Orchard Collegiate Academy,Secondary School,M056,J.H.S. 56 - Manhattan,220 Henry Street,DOE Owned,300,816.0,Dance Room,true,Inside,true,False
36,M,1,1,01M292,Orchard Collegiate Academy,Secondary School,M056,J.H.S. 56 - Manhattan,220 Henry Street,DOE Owned,GYM,6500.0,Gymnasium,true,Inside,true,False
37,M,1,1,01M292,Orchard Collegiate Academy,Secondary School,M056,J.H.S. 56 - Manhattan,220 Henry Street,DOE Owned,Outdoor Yard 1,23204.0,Outdoor Yard,true,Outdoor,true,False
38,M,1,1,01M301,"Technology, Arts, and Sciences Studio",Junior High-Intermediate-Middle,M019,P.S. 19 - Manhattan,185 1 Avenue,DOE Owned,GYM,3942.0,Gymnasium,true,Inside,true,False
39,M,1,1,01M301,"Technology, Arts, and Sciences Studio",Junior High-Intermediate-Middle,M019,P.S. 19 - Manhattan,185 1 Avenue,DOE Owned,Outdoor Yard 1,28121.0,Outdoor Yard,true,Outdoor,true,False
40,M,1,1,01M315,The East Village Community School,Elementary,M061,P.S. 61 - Manhattan,610 East 12 Street,DOE Owned,411,672.0,Gymnasium,true,Inside,true,False
41,M,1,1,01M315,The East Village Community School,Elementary,M061,P.S. 61 - Manhattan,610 East 12 Street,DOE Owned,412,728.0,Dance Room,true,Inside,true,False
42,M,1,1,01M315,The East Village Community School,Elementary,M061,P.S. 61 - Manhattan,610 East 12 Street,DOE Owned,Outdoor Yard 1,10622.0,Outdoor Yard,true,Outdoor,true,False
43,M,1,1,01M332,University Neighborhood Middle School,Junior High-Intermediate-Middle,M056,J.H.S. 56 - Manhattan,220 Henry Street,DOE Owned,300,816.0,Dance Room,true,Inside,true,False
44,M,1,1,01M332,University Neighborhood Middle School,Junior High-Intermediate-Middle,M056,J.H.S. 56 - Manhattan,220 Henry Street,DOE Owned,GYM,6500.0,Gymnasium,true,Inside,true,False
45,M,3,3,03M334,The Anderson School,K-8,M044,I.S. 44 - Manhattan,100 West 77 Street,DOE Owned,237,960.0,Dance Room,true,Inside,true,False
46,M,1,1,01M332,University Neighborhood Middle School,Junior High-Intermediate-Middle,M056,J.H.S. 56 - Manhattan,220 Henry Street,DOE Owned,Outdoor Yard 1,23204.0,Outdoor Yard,true,Outdoor,true,False
47,M,1,1,01M361,The Children's Workshop School,Elementary,M061,P.S. 61 - Manhattan,610 East 12 Street,DOE Owned,411,672.0,Gymnasium,true,Inside,true,False
48,M,1,1,01M361,The Children's Workshop School,Elementary,M061,P.S. 61 - Manhattan,610 East 12 Street,DOE Owned,412,728.0,Dance Room,true,Inside,true,False
49,M,1,1,01M361,The Children's Workshop School,Elementary,M061,P.S. 61 - Manhattan,610 East 12 Street,DOE Owned,Outdoor Yard 1,10622.0,Outdoor Yard,true,Outdoor,true,False
50,M,1,1,01M363,Neighborhood School,Elementary,M063,P.S. 63 - Manhattan,121 East 3 Street,DOE Owned,114,728.0,Dance Room,true,Inside,true,False
51,M,1,1,01M363,Neighborhood School,Elementary,M063,P.S. 63 - Manhattan,121 East 3 Street,DOE Owned,417,1500.0,Gymnasium,true,Inside,true,False
52,M,1,1,01M363,Neighborhood School,Elementary,M063,P.S. 63 - Manhattan,121 East 3 Street,DOE Owned,GYMB,1740.0,Gymnasium,true,Inside,true,False
53,M,1,1,01M364,Earth School,Elementary,M064,P.S. 64 (Old 71) - Manhattan,600 East 6 Street,DOE Owned,B43,1344.0,Dance Room,true,Inside,true,False
54,M,1,1,01M364,Earth School,Elementary,M064,P.S. 64 (Old 71) - Manhattan,600 East 6 Street,DOE Owned,B53,6336.0,Gymnasium,true,Inside,true,False
55,M,1,1,01M364,Earth School,Elementary,M064,P.S. 64 (Old 71) - Manhattan,600 East 6 Street,DOE Owned,Outdoor Yard 1,13310.0,Outdoor Yard,true,Outdoor,true,False
56,M,1,1,01M364,Earth School,Elementary,M064,P.S. 64 (Old 71) - Manhattan,600 East 6 Street,DOE Owned,Outdoor Yard 2,14159.0,Outdoor Yard,true,Outdoor,true,False
57,M,1,1,01M378,School for Global Leaders,Junior High-Intermediate-Middle,M025,J.H.S. 25 - Manhattan,145 Stanton Street,DOE Owned,257,1591.0,Weight Room,true,Inside,true,False
58,M,1,1,01M378,School for Global Leaders,Junior High-Intermediate-Middle,M025,J.H.S. 25 - Manhattan,145 Stanton Street,DOE Owned,471,682.0,Weight Room,true,Inside,true,False
59,M,1,1,01M378,School for Global Leaders,Junior High-Intermediate-Middle,M025,J.H.S. 25 - Manhattan,145 Stanton Street,DOE Owned,GYM,5251.0,Gymnasium,true,Inside,true,False
60,M,1,1,01M378,School for Global Leaders,Junior High-Intermediate-Middle,M025,J.H.S. 25 - Manhattan,145 Stanton Street,DOE Owned,Outdoor Yard 1,24232.0,Outdoor Yard,true,Outdoor,true,False
61,M,1,1,01M448,University Neighborhood High School,High school,M446,University Neighborhood - M,200 Monroe Street,DOE Owned,204-6,990.0,Dance Room,false,Inside,false,False
62,M,1,1,01M448,University Neighborhood High School,High school,M446,University Neighborhood - M,200 Monroe Street,DOE Owned,209-10,1104.0,Weight Room,false,Inside,false,False
63,M,1,1,01M450,East Side Community School,Secondary School,M060,J.H.S. 60 - Manhattan,420 East 12 Street,DOE Owned,GYM1,2652.0,Gymnasium,true,Inside,true,False
64,M,1,1,01M450,East Side Community School,Secondary School,M060,J.H.S. 60 - Manhattan,420 East 12 Street,DOE Owned,GYM2,2808.0,Gymnasium,true,Inside,true,False
65,M,1,1,01M450,East Side Community School,Secondary School,M060,J.H.S. 60 - Manhattan,420 East 12 Street,DOE Owned,Outdoor Yard 1,7350.0,Outdoor Yard,true,Outdoor,true,False
66,M,1,1,01M450,East Side Community School,Secondary School,M060,J.H.S. 60 - Manhattan,420 East 12 Street,DOE Owned,Outdoor Yard 2,17931.0,Outdoor Yard,true,Outdoor,true,False
67,M,1,1,01M458,Forsyth Satellite Academy,High school,M510,Forsyth Hs (Auxsvc-Old 91) - M,198 Forsyth Street,DOE Owned,401,567.0,Dance Room,true,Inside,true,False
68,M,1,1,01M458,Forsyth Satellite Academy,High school,M510,Forsyth Hs (Auxsvc-Old 91) - M,198 Forsyth Street,DOE Owned,GYM,2464.0,Gymnasium,true,Inside,true,False
69,M,1,1,01M509,Marta Valle High School,High school,M025,J.H.S. 25 - Manhattan,145 Stanton Street,DOE Owned,257,1591.0,Weight Room,true,Inside,true,False
70,M,1,1,01M509,Marta Valle High School,High school,M025,J.H.S. 25 - Manhattan,145 Stanton Street,DOE Owned,471,682.0,Weight Room,true,Inside,true,False
71,M,1,1,01M509,Marta Valle High School,High school,M025,J.H.S. 25 - Manhattan,145 Stanton Street,DOE Owned,GYM,5251.0,Gymnasium,true,Inside,true,False
72,M,1,1,01M509,Marta Valle High School,High school,M025,J.H.S. 25 - Manhattan,145 Stanton Street,DOE Owned,Outdoor Yard 1,24232.0,Outdoor Yard,true,Outdoor,true,False
73,M,1,1,01M515,Lower East Side Preparatory High School,High school,M025,J.H.S. 25 - Manhattan,145 Stanton Street,DOE Owned,257,1591.0,Weight Room,true,Inside,true,False
74,M,1,1,01M515,Lower East Side Preparatory High School,High school,M025,J.H.S. 25 - Manhattan,145 Stanton Street,DOE Owned,471,682.0,Weight Room,true,Inside,true,False
75,M,1,1,01M515,Lower East Side Preparatory High School,High school,M025,J.H.S. 25 - Manhattan,145 Stanton Street,DOE Owned,GYM,5251.0,Gymnasium,true,Inside,true,False
76,M,1,1,01M515,Lower East Side Preparatory High School,High school,M025,J.H.S. 25 - Manhattan,145 Stanton Street,DOE Owned,Outdoor Yard 1,24232.0,Outdoor Yard,true,Outdoor,true,False
77,M,1,1,01M539,"New Explorations into Science, Technology and Math High School",K-12 all grades,M022,N.E.S.T (Old J22) - Manhattan,111 Columbia Street,DOE Owned,GYM,6600.0,Gymnasium,false,Inside,false,False
78,M,1,1,01M539,"New Explorations into Science, Technology and Math High School",K-12 all grades,M022,N.E.S.T (Old J22) - Manhattan,111 Columbia Street,DOE Owned,Outdoor Yard 1,6489.0,Outdoor Yard,false,Outdoor,false,False
79,M,1,1,01M650,Cascades High School,High school,M510,Forsyth Hs (Auxsvc-Old 91) - M,198 Forsyth Street,DOE Owned,401,567.0,Dance Room,true,Inside,true,False
80,M,1,1,01M650,Cascades High School,High school,M510,Forsyth Hs (Auxsvc-Old 91) - M,198 Forsyth Street,DOE Owned,GYM,2464.0,Gymnasium,true,Inside,true,False
81,M,1,1,01M696,Bard High School Early College,High school,M097,Bard College Hs (Old M097) - M,525 East Houston Street,DOE Owned,GYM,1147.0,Gymnasium,false,Inside,false,False
82,M,1,1,01M839,Tompkins Square Middle School,Junior High-Intermediate-Middle,M064,P.S. 64 (Old 71) - Manhattan,600 East 6 Street,DOE Owned,B43,1344.0,Dance Room,true,Inside,true,False
83,M,1,1,01M839,Tompkins Square Middle School,Junior High-Intermediate-Middle,M064,P.S. 64 (Old 71) - Manhattan,600 East 6 Street,DOE Owned,B53,6336.0,Gymnasium,true,Inside,true,False
84,M,1,1,01M839,Tompkins Square Middle School,Junior High-Intermediate-Middle,M064,P.S. 64 (Old 71) - Manhattan,600 East 6 Street,DOE Owned,Outdoor Yard 1,13310.0,Outdoor Yard,true,Outdoor,true,False
85,M,1,1,01M839,Tompkins Square Middle School,Junior High-Intermediate-Middle,M064,P.S. 64 (Old 71) - Manhattan,600 East 6 Street,DOE Owned,Outdoor Yard 2,14159.0,Outdoor Yard,true,Outdoor,true,False
86,M,2,2,02M001,P.S. 001 Alfred E. Smith,Elementary,M001,P.S. 1 - Manhattan,8 Henry Street,DOE Owned,GYM.,3584.0,Gymnasium,false,Inside,false,False
87,M,2,2,02M001,P.S. 001 Alfred E. Smith,Elementary,M001,P.S. 1 - Manhattan,8 Henry Street,DOE Owned,Outdoor Yard 1,4872.0,Outdoor Yard,false,Outdoor,false,False
88,M,2,2,02M002,P.S. 002 Meyer London,Elementary,M002,P.S. 2 - Manhattan,122 Henry Street,DOE Owned,GYM.,3819.0,Gymnasium,false,Inside,false,False
89,M,2,2,02M002,P.S. 002 Meyer London,Elementary,M002,P.S. 2 - Manhattan,122 Henry Street,DOE Owned,Outdoor Yard 1,36183.0,Outdoor Yard,false,Outdoor,false,False
90,M,2,2,02M003,P.S. 003 Charrette School,Elementary,M003,P.S. 3 - Manhattan,490 Hudson Street,DOE Owned,400,546.0,Dance Room,false,Inside,false,False
91,M,2,2,02M003,P.S. 003 Charrette School,Elementary,M003,P.S. 3 - Manhattan,490 Hudson Street,DOE Owned,402,945.0,Dance Room,false,Inside,false,False
92,M,2,2,02M006,P.S. 006 Lillie D. Blake,Elementary,M006,P.S. 6 - Manhattan,45 East 81 Street,DOE Owned,GYM,3710.0,Gymnasium,false,Inside,false,False
93,M,2,2,02M006,P.S. 006 Lillie D. Blake,Elementary,M006,P.S. 6 - Manhattan,45 East 81 Street,DOE Owned,Outdoor Yard 1,19173.0,Outdoor Yard,false,Outdoor,false,False
94,M,2,2,02M011,P.S. 011 William T. Harris,Elementary,M011,P.S. 11 - Manhattan,320 West 21 Street,DOE Owned,502,1254.0,Dance Room,false,Inside,false,False
95,M,2,2,02M011,P.S. 011 William T. Harris,Elementary,M011,P.S. 11 - Manhattan,320 West 21 Street,DOE Owned,520,1232.0,Gymnasium,false,Inside,false,False
96,M,2,2,02M011,P.S. 011 William T. Harris,Elementary,M011,P.S. 11 - Manhattan,320 West 21 Street,DOE Owned,POOL,4674.0,Swimming Pool,false,Inside,false,False
97,M,2,2,02M011,P.S. 011 William T. Harris,Elementary,M011,P.S. 11 - Manhattan,320 West 21 Street,DOE Owned,Outdoor Yard 1,14192.0,Outdoor Yard,false,Outdoor,false,False
98,M,2,2,02M033,P.S. 033 Chelsea Prep,Elementary,M033,P.S. 33 - Manhattan,281 9 Avenue,DOE Owned,108,3504.0,Gymnasium,true,Inside,true,False
99,M,2,2,02M033,P.S. 033 Chelsea Prep,Elementary,M033,P.S. 33 - Manhattan,281 9 Avenue,DOE Owned,Outdoor Yard 1,8950.0,Outdoor Yard,true,Outdoor,true,False
100,M,2,2,02M040,P.S. 040 Augustus Saint-Gaudens,Elementary,M040,P.S. 40 - Manhattan,319 East 19 Street,DOE Owned,1ST FL,4503.0,Gymnasium,true,Inside,true,False
101,M,2,2,02M040,P.S. 040 Augustus Saint-Gaudens,Elementary,M040,P.S. 40 - Manhattan,319 East 19 Street,DOE Owned,3 FL,2652.0,Gymnasium,true,Inside,true,False
102,M,2,2,02M040,P.S. 040 Augustus Saint-Gaudens,Elementary,M040,P.S. 40 - Manhattan,319 East 19 Street,DOE Owned,Outdoor Yard 1,7980.0,Outdoor Yard,true,Outdoor,true,False
103,M,2,2,02M041,P.S. 041 Greenwich Village,Elementary,M041,P.S. 41 - Manhattan,116 West 11 Street,DOE Owned,232,675.0,Dance Room,false,Inside,false,False
104,M,2,2,02M041,P.S. 041 Greenwich Village,Elementary,M041,P.S. 41 - Manhattan,116 West 11 Street,DOE Owned,GYM,3850.0,Gymnasium,false,Inside,false,False
105,M,2,2,02M041,P.S. 041 Greenwich Village,Elementary,M041,P.S. 41 - Manhattan,116 West 11 Street,DOE Owned,Outdoor Yard 1,25458.0,Outdoor Yard,false,Outdoor,false,False
106,M,2,2,02M042,P.S. 042 Benjamin Altman,Elementary,M042,P.S. 42 - Manhattan,71 Hester Street,DOE Owned,102,4060.0,Gymnasium/Cafeteria,false,Inside,false,True
107,M,2,2,02M042,P.S. 042 Benjamin Altman,Elementary,M042,P.S. 42 - Manhattan,71 Hester Street,DOE Owned,511,2496.0,Gymnasium,false,Inside,false,False
108,M,2,2,02M042,P.S. 042 Benjamin Altman,Elementary,M042,P.S. 42 - Manhattan,71 Hester Street,DOE Owned,Outdoor Yard 1,8802.0,Outdoor Yard,false,Outdoor,false,False
109,M,2,2,02M047,47 The American Sign Language and English Secondary School,High school,M047,J.H.S. 47 (Sch For The Deaf) - M,223 East 23 Street,DOE Owned,508,740.0,Weight Room,true,Inside,true,False
110,M,2,2,02M047,47 The American Sign Language and English Secondary School,High school,M047,J.H.S. 47 (Sch For The Deaf) - M,223 East 23 Street,DOE Owned,GYM,5184.0,Gymnasium,true,Inside,true,False
111,M,2,2,02M047,47 The American Sign Language and English Secondary School,High school,M047,J.H.S. 47 (Sch For The Deaf) - M,223 East 23 Street,DOE Owned,Outdoor Yard 1,10087.0,Outdoor Yard,true,Outdoor,true,False
112,M,2,2,02M051,P.S. 051 Elias Howe,Elementary,M338,P.S. 51 Elias Howe - Manhattan,525 West 44Th Street,DOE Owned,114,3136.0,Gymnasium/Auditorium,true,Inside,true,True
113,M,2,2,02M051,P.S. 051 Elias Howe,Elementary,M338,P.S. 51 Elias Howe - Manhattan,525 West 44Th Street,DOE Owned,320,4895.0,Gymnasium,true,Inside,true,False
114,M,2,2,02M059,P.S. 059 Beekman Hill International,Elementary,M488,Midtown East Campus - Manhattan,231-249 East 56 Street,DOE Owned,426,1980.0,Weight Room,true,Inside,true,False
115,M,2,2,02M059,P.S. 059 Beekman Hill International,Elementary,M488,Midtown East Campus - Manhattan,231-249 East 56 Street,DOE Owned,502,3280.0,Gymnasium,true,Inside,true,False
116,M,2,2,02M059,P.S. 059 Beekman Hill International,Elementary,M488,Midtown East Campus - Manhattan,231-249 East 56 Street,DOE Owned,L223,2793.0,Gymnasium,true,Inside,true,False
117,M,2,2,02M059,P.S. 059 Beekman Hill International,Elementary,M488,Midtown East Campus - Manhattan,231-249 East 56 Street,DOE Owned,Outdoor Yard 1,4352.0,Outdoor Yard,true,Outdoor,true,False
118,M,2,2,02M077,P.S. 77 Lower Lab School,Elementary,M198,P.S. 198 - Manhattan,1700 3 Avenue,DOE Owned,GYM,3630.0,Gymnasium,true,Inside,true,False
119,M,2,2,02M077,P.S. 77 Lower Lab School,Elementary,M198,P.S. 198 - Manhattan,1700 3 Avenue,DOE Owned,Outdoor Yard 1,2710.0,Outdoor Yard,true,Outdoor,true,False
120,M,2,2,02M077,P.S. 77 Lower Lab School,Elementary,M198,P.S. 198 - Manhattan,1700 3 Avenue,DOE Owned,Outdoor Yard 2,3762.0,Outdoor Yard,true,Outdoor,true,False
121,M,2,2,02M089,P.S. 89,Elementary,M089,P.S./I.S. 89 - Manhattan,201 Warren Street,DOE Owned,127,688.0,Dance Room,true,Inside,true,False
122,M,2,2,02M089,P.S. 89,Elementary,M089,P.S./I.S. 89 - Manhattan,201 Warren Street,DOE Owned,315,4845.0,Gymnasium,true,Inside,true,False
123,M,2,2,02M089,P.S. 89,Elementary,M089,P.S./I.S. 89 - Manhattan,201 Warren Street,DOE Owned,Outdoor Yard 1,8600.0,Outdoor Yard,true,Outdoor,true,False
124,M,2,2,02M104,J.H.S. 104 Simon Baruch,Junior High-Intermediate-Middle,M104,I.S. 104 - Manhattan,330 East 21 Street,DOE Owned,134,6110.0,Gymnasium,false,Inside,false,False
125,M,2,2,02M158,P.S. 158 Bayard Taylor,Elementary,M158,P.S. 158 - Manhattan,1458 York Avenue,DOE Owned,GYM1,5734.0,Gymnasium,true,Inside,true,False
126,M,2,2,02M104,J.H.S. 104 Simon Baruch,Junior High-Intermediate-Middle,M104,I.S. 104 - Manhattan,330 East 21 Street,DOE Owned,Outdoor Yard 1,6747.0,Outdoor Yard,false,Outdoor,false,False
127,M,2,2,02M111,P.S. 111 Adolph S. Ochs,K-8,M111,P.S. 111 - Manhattan,440 West 53 Street,DOE Owned,GYM,3816.0,Gymnasium,false,Inside,false,False
128,M,2,2,02M111,P.S. 111 Adolph S. Ochs,K-8,M111,P.S. 111 - Manhattan,440 West 53 Street,DOE Owned,Outdoor Yard 1,29809.0,Outdoor Yard,false,Outdoor,false,False
129,M,2,2,02M111,P.S. 111 Adolph S. Ochs,K-8,M111,P.S. 111 - Manhattan,440 West 53 Street,DOE Owned,Outdoor Yard 2,7509.0,Outdoor Yard,false,Outdoor,false,False
130,M,2,2,02M114,East Side Middle School,Junior High-Intermediate-Middle,M114,East Side Middle School - Manhattan,331 East 91St Street,DOE Owned,302,476.0,Weight Room,true,Inside,true,False
131,M,2,2,02M114,East Side Middle School,Junior High-Intermediate-Middle,M114,East Side Middle School - Manhattan,331 East 91St Street,DOE Owned,304,4888.0,Gymnasium,true,Inside,true,False
132,M,2,2,02M116,P.S. 116 Mary Lindley Murray,Elementary,M116,P.S. 116 - Manhattan,210 East 33 Street,DOE Owned,GYM,4293.0,Gymnasium,false,Inside,false,False
133,M,2,2,02M116,P.S. 116 Mary Lindley Murray,Elementary,M116,P.S. 116 - Manhattan,210 East 33 Street,DOE Owned,Outdoor Yard 1,15039.0,Outdoor Yard,false,Outdoor,false,False
134,M,2,2,02M124,P.S. 124 Yung Wing,Elementary,M124,P.S. 124 (Ecf) - Manhattan,40 Division Street,DOE Owned,207,2842.0,Gymnasium,false,Inside,false,False
135,M,2,2,02M124,P.S. 124 Yung Wing,Elementary,M124,P.S. 124 (Ecf) - Manhattan,40 Division Street,DOE Owned,Outdoor Yard 1,7134.0,Outdoor Yard,false,Outdoor,false,False
136,M,2,2,02M124,P.S. 124 Yung Wing,Elementary,M124,P.S. 124 (Ecf) - Manhattan,40 Division Street,DOE Owned,Outdoor Yard 2,14854.0,Outdoor Yard,false,Outdoor,false,False
137,M,2,2,02M126,P.S. 126 Jacob August Riis,K-8,M126,P.S. 126 - Manhattan,80 Catherine Street,DOE Owned,207,561.0,Weight Room,false,Inside,false,False
138,M,2,2,02M126,P.S. 126 Jacob August Riis,K-8,M126,P.S. 126 - Manhattan,80 Catherine Street,DOE Owned,GYM,4410.0,Gymnasium,false,Inside,false,False
139,M,2,2,02M126,P.S. 126 Jacob August Riis,K-8,M126,P.S. 126 - Manhattan,80 Catherine Street,DOE Owned,PLAYROM,1674.0,Gymnasium/Cafeteria,false,Inside,false,True
140,M,2,2,02M130,P.S. 130 Hernando De Soto,Elementary,M130,P.S. 130 - Manhattan,143 Baxter Street,DOE Owned,GYM,2950.0,Gymnasium,false,Inside,false,False
141,M,2,2,02M131,M.S. 131,Junior High-Intermediate-Middle,M131,I.S. 131 - Manhattan,100 Hester Street,DOE Owned,106,1720.0,Dance Room,true,Inside,true,False
142,M,2,2,02M131,M.S. 131,Junior High-Intermediate-Middle,M131,I.S. 131 - Manhattan,100 Hester Street,DOE Owned,C40,984.0,Dance Room,true,Inside,true,False
143,M,2,2,02M131,M.S. 131,Junior High-Intermediate-Middle,M131,I.S. 131 - Manhattan,100 Hester Street,DOE Owned,GYM,5220.0,Gymnasium,true,Inside,true,False
144,M,2,2,02M131,M.S. 131,Junior High-Intermediate-Middle,M131,I.S. 131 - Manhattan,100 Hester Street,DOE Owned,Outdoor Yard 1,7998.0,Outdoor Yard,true,Outdoor,true,False
145,M,2,2,02M135,The Urban Assembly School for Emergency Management,High school,M520,Murry Bergtraum Hs (Ecf) - M,411 Pearl Street,DOE Owned,250,6882.0,Gymnasium/Auditorium/Cafeteria,true,Inside,true,True
146,M,2,2,02M135,The Urban Assembly School for Emergency Management,High school,M520,Murry Bergtraum Hs (Ecf) - M,411 Pearl Street,DOE Owned,GYM #1,5106.0,Gymnasium,true,Inside,true,False
147,M,2,2,02M135,The Urban Assembly School for Emergency Management,High school,M520,Murry Bergtraum Hs (Ecf) - M,411 Pearl Street,DOE Owned,GYM #2,11840.0,Gymnasium,true,Inside,true,False
148,M,2,2,02M139,Stephen T. Mather Building Arts & Craftsmanship High School,High school,M625,Hs Of Graphic Communication Arts-M,439 West 49Th Street,DOE Owned,247B,816.0,Dance Room,true,Inside,true,False
149,M,2,2,02M139,Stephen T. Mather Building Arts & Craftsmanship High School,High school,M625,Hs Of Graphic Communication Arts-M,439 West 49Th Street,DOE Owned,644,640.0,Weight Room,true,Inside,true,False
150,M,2,2,02M139,Stephen T. Mather Building Arts & Craftsmanship High School,High school,M625,Hs Of Graphic Communication Arts-M,439 West 49Th Street,DOE Owned,B18,6016.0,Gymnasium,true,Inside,true,False
151,M,2,2,02M150,P.S. 150,Elementary,M840,P.S. 150 - Manhattan,334 Greenwich Street,Tax Levy Lease,Outdoor Yard 1,8874.0,Outdoor Yard,false,Outdoor,false,False
152,M,2,2,02M150,P.S. 150,Elementary,M840,P.S. 150 - Manhattan,334 Greenwich Street,Tax Levy Lease,1 FLOOR,884.0,Playroom/Cafeteria,false,Inside,false,True
153,M,2,2,02M151,Yorkville Community School,Elementary,M066,Richard R Green Hs Of Teaching - M,421 East 88 Street,DOE Owned,301/302,1218.0,Gymnasium,false,Inside,false,False
154,M,2,2,02M151,Yorkville Community School,Elementary,M066,Richard R Green Hs Of Teaching - M,421 East 88 Street,DOE Owned,306,567.0,Dance Room,false,Inside,false,False
155,M,2,2,02M158,P.S. 158 Bayard Taylor,Elementary,M158,P.S. 158 - Manhattan,1458 York Avenue,DOE Owned,GYM2,2968.0,Gymnasium,true,Inside,true,False
156,M,2,2,02M158,P.S. 158 Bayard Taylor,Elementary,M158,P.S. 158 - Manhattan,1458 York Avenue,DOE Owned,Outdoor Yard 1,12991.0,Outdoor Yard,true,Outdoor,true,False
157,M,2,2,02M167,J.H.S. 167 Robert F. Wagner,Junior High-Intermediate-Middle,M167,I.S. 167 - Manhattan,220 East 76 Street,DOE Owned,B2,675.0,Gymnasium,false,Inside,false,False
158,M,2,2,02M167,J.H.S. 167 Robert F. Wagner,Junior High-Intermediate-Middle,M167,I.S. 167 - Manhattan,220 East 76 Street,DOE Owned,GYM,6976.0,Gymnasium,false,Inside,false,False
159,M,2,2,02M167,J.H.S. 167 Robert F. Wagner,Junior High-Intermediate-Middle,M167,I.S. 167 - Manhattan,220 East 76 Street,DOE Owned,Outdoor Yard 1,31029.0,Outdoor Yard,false,Outdoor,false,False
160,M,2,2,02M177,Yorkville East Middle School,Junior High-Intermediate-Middle,M158,P.S. 158 - Manhattan,1458 York Avenue,DOE Owned,GYM1,5734.0,Gymnasium,true,Inside,true,False
161,M,2,2,02M177,Yorkville East Middle School,Junior High-Intermediate-Middle,M158,P.S. 158 - Manhattan,1458 York Avenue,DOE Owned,GYM2,2968.0,Gymnasium,true,Inside,true,False
162,M,2,2,02M177,Yorkville East Middle School,Junior High-Intermediate-Middle,M158,P.S. 158 - Manhattan,1458 York Avenue,DOE Owned,Outdoor Yard 1,12991.0,Outdoor Yard,true,Outdoor,true,False
163,M,2,2,02M183,P.S. 183 Robert L. Stevenson,Elementary,M183,P.S. 183 - Manhattan,419 East 66 Street,DOE Owned,GYM,3422.0,Gymnasium,false,Inside,true,False
164,M,2,2,02M183,P.S. 183 Robert L. Stevenson,Elementary,M183,P.S. 183 - Manhattan,419 East 66 Street,DOE Owned,Outdoor Yard 1,12766.0,Outdoor Yard,false,Outdoor,false,False
165,M,5,5,02M183,P.S. 183 Robert L. Stevenson,Elementary,M390,P.S. 183 Gym - Manhattan,408 East 67Th Street,DOE Owned,GYM,3540.0,Gymnasium,false,Inside,true,False
166,M,2,2,02M198,P.S. 198 Isador E. Ida Straus,Elementary,M198,P.S. 198 - Manhattan,1700 3 Avenue,DOE Owned,GYM,3630.0,Gymnasium,true,Inside,true,False
167,M,2,2,02M198,P.S. 198 Isador E. Ida Straus,Elementary,M198,P.S. 198 - Manhattan,1700 3 Avenue,DOE Owned,Outdoor Yard 1,2710.0,Outdoor Yard,true,Outdoor,true,False
168,M,2,2,02M198,P.S. 198 Isador E. Ida Straus,Elementary,M198,P.S. 198 - Manhattan,1700 3 Avenue,DOE Owned,Outdoor Yard 2,3762.0,Outdoor Yard,true,Outdoor,true,False
169,M,2,2,02M212,P.S. 212 Midtown West,Elementary,M017,I.S. 17 - Manhattan,328 West 48 Street,DOE Owned,5A,2146.0,Dance Room,true,Inside,true,False
170,M,2,2,02M212,P.S. 212 Midtown West,Elementary,M017,I.S. 17 - Manhattan,328 West 48 Street,DOE Owned,5B,2166.0,Gymnasium,true,Inside,true,False
171,M,2,2,02M212,P.S. 212 Midtown West,Elementary,M017,I.S. 17 - Manhattan,328 West 48 Street,DOE Owned,Outdoor Yard 1,8034.0,Outdoor Yard,true,Outdoor,true,False
172,M,2,2,02M217,P.S./I.S. 217 Roosevelt Island,K-8,M271,P.S./I.S. 217 - Manhattan,645 Main Street,DOE Owned,008,575.0,Weight Room,false,Inside,false,False
173,M,2,2,02M217,P.S./I.S. 217 Roosevelt Island,K-8,M271,P.S./I.S. 217 - Manhattan,645 Main Street,DOE Owned,B40A,5130.0,Gymnasium,false,Inside,false,False
174,M,2,2,02M217,P.S./I.S. 217 Roosevelt Island,K-8,M271,P.S./I.S. 217 - Manhattan,645 Main Street,DOE Owned,Outdoor Yard 1,16816.0,Outdoor Yard,false,Outdoor,false,False
175,M,2,2,02M225,Ella Baker School,K-8,M480,Julia Richman Ed. Complex - M,317 East 67 Street,DOE Owned,268,875.0,Weight Room,true,Inside,true,False
176,M,2,2,02M225,Ella Baker School,K-8,M480,Julia Richman Ed. Complex - M,317 East 67 Street,DOE Owned,2FL GYM,7740.0,Gymnasium,true,Inside,true,False
177,M,2,2,02M225,Ella Baker School,K-8,M480,Julia Richman Ed. Complex - M,317 East 67 Street,DOE Owned,318,903.0,Dance Room,true,Inside,true,False
178,M,2,2,02M225,Ella Baker School,K-8,M480,Julia Richman Ed. Complex - M,317 East 67 Street,DOE Owned,3FL GYM,7740.0,Gymnasium,true,Inside,true,False
179,M,2,2,02M225,Ella Baker School,K-8,M480,Julia Richman Ed. Complex - M,317 East 67 Street,DOE Owned,505,836.0,Dance Room,true,Inside,true,False
180,M,2,2,02M225,Ella Baker School,K-8,M480,Julia Richman Ed. Complex - M,317 East 67 Street,DOE Owned,641,1104.0,Dance Room,true,Inside,true,False
181,M,2,2,02M225,Ella Baker School,K-8,M480,Julia Richman Ed. Complex - M,317 East 67 Street,DOE Owned,643,420.0,Dance Room,true,Inside,true,False
182,M,2,2,02M225,Ella Baker School,K-8,M480,Julia Richman Ed. Complex - M,317 East 67 Street,DOE Owned,BALCGYM,900.0,Gymnasium,true,Inside,true,False
183,M,2,2,02M225,Ella Baker School,K-8,M480,Julia Richman Ed. Complex - M,317 East 67 Street,DOE Owned,POOL,5135.0,Swimming Pool,true,Inside,true,False
184,M,2,2,02M234,P.S. 234 Independence School,Elementary,M234,P.S. 234 - Manhattan,292 Greenwich Street,DOE Owned,106,2494.0,Gymnasium,false,Inside,false,False
185,M,2,2,02M234,P.S. 234 Independence School,Elementary,M234,P.S. 234 - Manhattan,292 Greenwich Street,DOE Owned,Outdoor Yard 1,9978.0,Outdoor Yard,false,Outdoor,false,False
186,M,2,2,02M234,P.S. 234 Independence School,Elementary,M234,P.S. 234 - Manhattan,292 Greenwich Street,DOE Owned,Outdoor Yard 2,5949.0,Outdoor Yard,false,Outdoor,false,False
187,M,2,2,02M234,P.S. 234 Independence School,Elementary,M843,P.S. 234 Annex - Manhattan,200 Chambers Street,Tax Levy Lease,430,377.0,Dance Room,false,Inside,false,False
188,M,2,2,02M255,M.S. 255 Salk School of Science,Junior High-Intermediate-Middle,M040,P.S. 40 - Manhattan,319 East 19 Street,DOE Owned,1ST FL,4503.0,Gymnasium,true,Inside,true,False
189,M,2,2,02M255,M.S. 255 Salk School of Science,Junior High-Intermediate-Middle,M040,P.S. 40 - Manhattan,319 East 19 Street,DOE Owned,3 FL,2652.0,Gymnasium,true,Inside,true,False
190,M,3,3,03M334,The Anderson School,K-8,M044,I.S. 44 - Manhattan,100 West 77 Street,DOE Owned,GYM,6222.0,Gymnasium,true,Inside,true,False
191,M,2,2,02M255,M.S. 255 Salk School of Science,Junior High-Intermediate-Middle,M040,P.S. 40 - Manhattan,319 East 19 Street,DOE Owned,Outdoor Yard 1,7980.0,Outdoor Yard,true,Outdoor,true,False
192,M,2,2,02M260,M.S. 260 Clinton School Writers & Artists,Secondary School,M868,The Clinton School - Manhattan,10 East 15Th Street,DOE Owned,B6,6936.0,Gymnasium/Auditorium,false,Inside,false,True
193,M,2,2,02M267,"East Side Elementary School, PS 267",Elementary,M267,P.S. 59 - (Meeth) -Manhattan,213 East 63Rd Street,DOE Owned,503,561.0,Dance Room,false,Inside,false,False
194,M,2,2,02M267,"East Side Elementary School, PS 267",Elementary,M267,P.S. 59 - (Meeth) -Manhattan,213 East 63Rd Street,DOE Owned,602,3344.0,Gymnasium,false,Inside,false,False
195,M,2,2,02M267,"East Side Elementary School, PS 267",Elementary,M267,P.S. 59 - (Meeth) -Manhattan,213 East 63Rd Street,DOE Owned,Outdoor Yard 1,1382.0,Outdoor Yard,false,Outdoor,false,False
196,M,2,2,02M276,Battery Park City School,K-8,M276,P.S./I.S. 276 - Manhattan,55 Battery Place,Tax Levy Lease,108,5040.0,Gymnasium,true,Inside,true,False
197,M,2,2,02M276,Battery Park City School,K-8,M276,P.S./I.S. 276 - Manhattan,55 Battery Place,Tax Levy Lease,113,950.0,Dance Room,true,Inside,true,False
198,M,2,2,02M280,Manhattan Early College School for Advertising,High school,M520,Murry Bergtraum Hs (Ecf) - M,411 Pearl Street,DOE Owned,250,6882.0,Gymnasium/Auditorium/Cafeteria,true,Inside,true,True
199,M,2,2,02M280,Manhattan Early College School for Advertising,High school,M520,Murry Bergtraum Hs (Ecf) - M,411 Pearl Street,DOE Owned,GYM #1,5106.0,Gymnasium,true,Inside,true,False
200,M,2,2,02M280,Manhattan Early College School for Advertising,High school,M520,Murry Bergtraum Hs (Ecf) - M,411 Pearl Street,DOE Owned,GYM #2,11840.0,Gymnasium,true,Inside,true,False
201,M,2,2,02M281,The River School,Elementary,M281,P.S. 281 - Manhattan,425 East 35Th Street,DOE Owned,201,2832.0,Gymnasium,true,Inside,true,False
202,M,2,2,02M281,The River School,Elementary,M281,P.S. 281 - Manhattan,425 East 35Th Street,DOE Owned,403,5192.0,Gymnasium,true,Inside,true,False
203,M,2,2,02M281,The River School,Elementary,M281,P.S. 281 - Manhattan,425 East 35Th Street,DOE Owned,Outdoor Yard 1,8000.0,Outdoor Yard,true,Outdoor,true,False
204,M,2,2,02M282,Urban Assembly Maker Academy,High school,M520,Murry Bergtraum Hs (Ecf) - M,411 Pearl Street,DOE Owned,250,6882.0,Gymnasium/Auditorium/Cafeteria,true,Inside,true,True
205,M,2,2,02M282,Urban Assembly Maker Academy,High school,M520,Murry Bergtraum Hs (Ecf) - M,411 Pearl Street,DOE Owned,GYM #1,5106.0,Gymnasium,true,Inside,true,False
206,M,2,2,02M282,Urban Assembly Maker Academy,High school,M520,Murry Bergtraum Hs (Ecf) - M,411 Pearl Street,DOE Owned,GYM #2,11840.0,Gymnasium,true,Inside,true,False
207,M,2,2,02M288,Food and Finance High School,High school,M535,Park West Hs (Ecf) - Manhattan,525 West 50Th Street,DOE Owned,513,1242.0,Dance Room,true,Inside,true,False
208,M,2,2,02M288,Food and Finance High School,High school,M535,Park West Hs (Ecf) - Manhattan,525 West 50Th Street,DOE Owned,569-GYM,4756.0,Gymnasium,true,Inside,true,False
209,M,2,2,02M288,Food and Finance High School,High school,M535,Park West Hs (Ecf) - Manhattan,525 West 50Th Street,DOE Owned,580-GYM,9804.0,Gymnasium,true,Inside,true,False
210,M,2,2,02M289,I.S. 289,Junior High-Intermediate-Middle,M089,P.S./I.S. 89 - Manhattan,201 Warren Street,DOE Owned,127,688.0,Dance Room,true,Inside,true,False
211,M,2,2,02M289,I.S. 289,Junior High-Intermediate-Middle,M089,P.S./I.S. 89 - Manhattan,201 Warren Street,DOE Owned,315,4845.0,Gymnasium,true,Inside,true,False
212,M,2,2,02M289,I.S. 289,Junior High-Intermediate-Middle,M089,P.S./I.S. 89 - Manhattan,201 Warren Street,DOE Owned,Outdoor Yard 1,8600.0,Outdoor Yard,true,Outdoor,true,False
213,M,2,2,02M290,P.S. 290 Manhattan New School,Elementary,M190,P.S. 290 - Manhattan,311 East 82 Street,DOE Owned,Outdoor Yard 1,2207.0,Outdoor Yard,false,Outdoor,false,False
214,M,2,2,02M290,P.S. 290 Manhattan New School,Elementary,M190,P.S. 290 - Manhattan,311 East 82 Street,DOE Owned,Outdoor Yard 2,1907.0,Outdoor Yard,false,Outdoor,false,False
215,M,2,2,02M290,P.S. 290 Manhattan New School,Elementary,M190,P.S. 290 - Manhattan,311 East 82 Street,DOE Owned,1 FLOOR,7784.0,Gymnasium/Cafeteria,false,Inside,false,True
216,M,2,2,02M294,Essex Street Academy,High school,M445,Seward Park Hs - Manhattan,350 Grand Street,DOE Owned,098B,760.0,Dance Room,true,Inside,true,False
217,M,2,2,02M294,Essex Street Academy,High school,M445,Seward Park Hs - Manhattan,350 Grand Street,DOE Owned,600B,3025.0,Weight Room,true,Inside,true,False
218,M,2,2,02M294,Essex Street Academy,High school,M445,Seward Park Hs - Manhattan,350 Grand Street,DOE Owned,GYM1,4620.0,Gymnasium,true,Inside,true,False
219,M,2,2,02M294,Essex Street Academy,High school,M445,Seward Park Hs - Manhattan,350 Grand Street,DOE Owned,GYM2,4620.0,Gymnasium,true,Inside,true,False
220,M,2,2,02M294,Essex Street Academy,High school,M445,Seward Park Hs - Manhattan,350 Grand Street,DOE Owned,POOL,5472.0,Swimming Pool,true,Inside,true,False
221,M,2,2,02M296,High School of Hospitality Management,High school,M535,Park West Hs (Ecf) - Manhattan,525 West 50Th Street,DOE Owned,513,1242.0,Dance Room,true,Inside,true,False
222,M,2,2,02M296,High School of Hospitality Management,High school,M535,Park West Hs (Ecf) - Manhattan,525 West 50Th Street,DOE Owned,569-GYM,4756.0,Gymnasium,true,Inside,true,False
223,M,2,2,02M296,High School of Hospitality Management,High school,M535,Park West Hs (Ecf) - Manhattan,525 West 50Th Street,DOE Owned,580-GYM,9804.0,Gymnasium,true,Inside,true,False
224,M,2,2,02M298,Pace High School,High school,M131,I.S. 131 - Manhattan,100 Hester Street,DOE Owned,106,1720.0,Dance Room,true,Inside,true,False
225,M,2,2,02M298,Pace High School,High school,M131,I.S. 131 - Manhattan,100 Hester Street,DOE Owned,C40,984.0,Dance Room,true,Inside,true,False
226,M,2,2,02M298,Pace High School,High school,M131,I.S. 131 - Manhattan,100 Hester Street,DOE Owned,GYM,5220.0,Gymnasium,true,Inside,true,False
227,M,2,2,02M298,Pace High School,High school,M131,I.S. 131 - Manhattan,100 Hester Street,DOE Owned,Outdoor Yard 1,7998.0,Outdoor Yard,true,Outdoor,true,False
228,M,2,2,02M300,"Urban Assembly School of Design and Construction, The",High school,M535,Park West Hs (Ecf) - Manhattan,525 West 50Th Street,DOE Owned,513,1242.0,Dance Room,true,Inside,true,False
229,M,2,2,02M300,"Urban Assembly School of Design and Construction, The",High school,M535,Park West Hs (Ecf) - Manhattan,525 West 50Th Street,DOE Owned,569-GYM,4756.0,Gymnasium,true,Inside,true,False
230,M,2,2,02M300,"Urban Assembly School of Design and Construction, The",High school,M535,Park West Hs (Ecf) - Manhattan,525 West 50Th Street,DOE Owned,580-GYM,9804.0,Gymnasium,true,Inside,true,False
231,M,2,2,02M303,"Facing History School, The",High school,M535,Park West Hs (Ecf) - Manhattan,525 West 50Th Street,DOE Owned,513,1242.0,Dance Room,true,Inside,true,False
232,M,2,2,02M303,"Facing History School, The",High school,M535,Park West Hs (Ecf) - Manhattan,525 West 50Th Street,DOE Owned,569-GYM,4756.0,Gymnasium,true,Inside,true,False
233,M,2,2,02M303,"Facing History School, The",High school,M535,Park West Hs (Ecf) - Manhattan,525 West 50Th Street,DOE Owned,580-GYM,9804.0,Gymnasium,true,Inside,true,False
234,M,2,2,02M305,"Urban Assembly Academy of Government and Law, The",High school,M445,Seward Park Hs - Manhattan,350 Grand Street,DOE Owned,098B,760.0,Dance Room,true,Inside,true,False
235,M,2,2,02M305,"Urban Assembly Academy of Government and Law, The",High school,M445,Seward Park Hs - Manhattan,350 Grand Street,DOE Owned,600B,3025.0,Weight Room,true,Inside,true,False
236,M,2,2,02M305,"Urban Assembly Academy of Government and Law, The",High school,M445,Seward Park Hs - Manhattan,350 Grand Street,DOE Owned,GYM1,4620.0,Gymnasium,true,Inside,true,False
237,M,2,2,02M305,"Urban Assembly Academy of Government and Law, The",High school,M445,Seward Park Hs - Manhattan,350 Grand Street,DOE Owned,GYM2,4620.0,Gymnasium,true,Inside,true,False
238,M,2,2,02M305,"Urban Assembly Academy of Government and Law, The",High school,M445,Seward Park Hs - Manhattan,350 Grand Street,DOE Owned,POOL,5472.0,Swimming Pool,true,Inside,true,False
239,M,2,2,02M308,Lower Manhattan Arts Academy,High school,M445,Seward Park Hs - Manhattan,350 Grand Street,DOE Owned,098B,760.0,Dance Room,true,Inside,true,False
240,M,2,2,02M308,Lower Manhattan Arts Academy,High school,M445,Seward Park Hs - Manhattan,350 Grand Street,DOE Owned,600B,3025.0,Weight Room,true,Inside,true,False
241,M,2,2,02M308,Lower Manhattan Arts Academy,High school,M445,Seward Park Hs - Manhattan,350 Grand Street,DOE Owned,GYM1,4620.0,Gymnasium,true,Inside,true,False
242,M,2,2,02M308,Lower Manhattan Arts Academy,High school,M445,Seward Park Hs - Manhattan,350 Grand Street,DOE Owned,GYM2,4620.0,Gymnasium,true,Inside,true,False
243,M,2,2,02M308,Lower Manhattan Arts Academy,High school,M445,Seward Park Hs - Manhattan,350 Grand Street,DOE Owned,POOL,5472.0,Swimming Pool,true,Inside,true,False
244,M,2,2,02M312,New York City Lab Middle School for Collaborative Studies,Junior High-Intermediate-Middle,M070,I.S. 70 - Manhattan,333 West 17 Street,DOE Owned,116,286.0,Weight Room,true,Inside,true,False
245,M,2,2,02M312,New York City Lab Middle School for Collaborative Studies,Junior High-Intermediate-Middle,M070,I.S. 70 - Manhattan,333 West 17 Street,DOE Owned,GYM.,6500.0,Gymnasium,true,Inside,true,False
246,M,2,2,02M312,New York City Lab Middle School for Collaborative Studies,Junior High-Intermediate-Middle,M070,I.S. 70 - Manhattan,333 West 17 Street,DOE Owned,Outdoor Yard 1,7464.0,Outdoor Yard,true,Outdoor,true,False
247,M,2,2,02M312,New York City Lab Middle School for Collaborative Studies,Junior High-Intermediate-Middle,M070,I.S. 70 - Manhattan,333 West 17 Street,DOE Owned,Outdoor Yard 2,5000.0,Outdoor Yard,true,Outdoor,true,False
248,M,2,2,02M313,"James Baldwin School, The: A School for Expeditionary Learning",High school,M440,Bayard Rustin Educational Comp-M,351 West 18 Street,DOE Owned,606,1420.0,Auxiliary Exercise Room,true,Inside,true,False
249,M,2,2,02M313,"James Baldwin School, The: A School for Expeditionary Learning",High school,M440,Bayard Rustin Educational Comp-M,351 West 18 Street,DOE Owned,608,594.0,Weight Room,true,Inside,true,False
250,M,2,2,02M313,"James Baldwin School, The: A School for Expeditionary Learning",High school,M440,Bayard Rustin Educational Comp-M,351 West 18 Street,DOE Owned,618,777.0,Dance Room,true,Inside,true,False
251,M,2,2,02M313,"James Baldwin School, The: A School for Expeditionary Learning",High school,M440,Bayard Rustin Educational Comp-M,351 West 18 Street,DOE Owned,622,861.0,Auxiliary Exercise Room,true,Inside,true,False
252,M,2,2,02M313,"James Baldwin School, The: A School for Expeditionary Learning",High school,M440,Bayard Rustin Educational Comp-M,351 West 18 Street,DOE Owned,GYME,7260.0,Gymnasium,true,Inside,true,False
253,M,2,2,02M313,"James Baldwin School, The: A School for Expeditionary Learning",High school,M440,Bayard Rustin Educational Comp-M,351 West 18 Street,DOE Owned,GYMW,5940.0,Gymnasium,true,Inside,true,False
254,M,2,2,02M316,"Urban Assembly School of Business for Young Women, the",High school,M282,Broadway Education Campus - M,26 Broadway,Tax Levy Lease,150,3168.0,Gymnasium,true,Inside,true,False
255,M,2,2,02M316,"Urban Assembly School of Business for Young Women, the",High school,M282,Broadway Education Campus - M,26 Broadway,Tax Levy Lease,150A,1350.0,Weight Room,true,Inside,true,False
256,M,2,2,02M316,"Urban Assembly School of Business for Young Women, the",High school,M282,Broadway Education Campus - M,26 Broadway,Tax Levy Lease,631,1014.0,Dance Room,true,Inside,true,False
257,M,2,2,02M316,"Urban Assembly School of Business for Young Women, the",High school,M282,Broadway Education Campus - M,26 Broadway,Tax Levy Lease,727,940.0,Dance Room,true,Inside,true,False
258,M,2,2,02M340,Sixth Avenue Elementary School,Elementary,M340,The Sixth Avenue Educational Campus - Manhattan,590 Sixth Avenue,DOE Owned,102,1344.0,Dance Room,true,Inside,true,False
259,M,2,2,02M340,Sixth Avenue Elementary School,Elementary,M340,The Sixth Avenue Educational Campus - Manhattan,590 Sixth Avenue,DOE Owned,611,1560.0,Gymnasium,true,Inside,true,False
260,M,2,2,02M343,The Peck Slip School,Elementary,M343,The Peck Slip School - Manhattan,1 Peck Slip,DOE Owned,126,1332.0,Auxiliary Exercise Room,true,Inside,true,False
261,M,2,2,02M343,The Peck Slip School,Elementary,M343,The Peck Slip School - Manhattan,1 Peck Slip,DOE Owned,517,2760.0,Gymnasium/Auditorium,true,Inside,true,True
262,M,2,2,02M347,The 47 American Sign Language & English Lower School,K-8,M047,J.H.S. 47 (Sch For The Deaf) - M,223 East 23 Street,DOE Owned,508,740.0,Weight Room,true,Inside,true,False
263,M,2,2,02M347,The 47 American Sign Language & English Lower School,K-8,M047,J.H.S. 47 (Sch For The Deaf) - M,223 East 23 Street,DOE Owned,GYM,5184.0,Gymnasium,true,Inside,true,False
264,M,2,2,02M347,The 47 American Sign Language & English Lower School,K-8,M047,J.H.S. 47 (Sch For The Deaf) - M,223 East 23 Street,DOE Owned,Outdoor Yard 1,10087.0,Outdoor Yard,true,Outdoor,true,False
265,M,2,2,02M374,Gramercy Arts High School,High school,M460,Washington Irving Hs - Manhattan,40 Irving Place,DOE Owned,1046,3800.0,Gymnasium,true,Inside,true,False
266,M,2,2,02M374,Gramercy Arts High School,High school,M460,Washington Irving Hs - Manhattan,40 Irving Place,DOE Owned,1148,989.0,Dance Room,true,Inside,true,False
267,M,2,2,02M374,Gramercy Arts High School,High school,M460,Washington Irving Hs - Manhattan,40 Irving Place,DOE Owned,804,1320.0,Gymnasium,true,Inside,true,False
268,M,2,2,02M374,Gramercy Arts High School,High school,M460,Washington Irving Hs - Manhattan,40 Irving Place,DOE Owned,804A,1173.0,Weight Room,true,Inside,true,False
269,M,2,2,02M374,Gramercy Arts High School,High school,M460,Washington Irving Hs - Manhattan,40 Irving Place,DOE Owned,826,3060.0,Gymnasium,true,Inside,true,False
270,M,2,2,02M374,Gramercy Arts High School,High school,M460,Washington Irving Hs - Manhattan,40 Irving Place,DOE Owned,838,575.0,Weight Room,true,Inside,true,False
271,M,2,2,02M374,Gramercy Arts High School,High school,M460,Washington Irving Hs - Manhattan,40 Irving Place,DOE Owned,B. GYM,598.0,Gymnasium,true,Inside,true,False
272,M,2,2,02M374,Gramercy Arts High School,High school,M460,Washington Irving Hs - Manhattan,40 Irving Place,DOE Owned,B53,888.0,Dance Room,true,Inside,true,False
273,M,2,2,02M374,Gramercy Arts High School,High school,M460,Washington Irving Hs - Manhattan,40 Irving Place,DOE Owned,B54,3975.0,Weight Room,true,Inside,true,False
274,M,2,2,02M376,NYC iSchool,High school,M615,Chelsea Voc Hs - Manhattan,131 Avenue Of The Americas,DOE Owned,102,1081.0,Weight Room,true,Inside,true,False
275,M,4,4,04M007,P.S. 007 Samuel Stern,K-8,M007,P.S. 7 - Manhattan,160 East 120 Street,DOE Owned,GYM,3723.0,Gymnasium,true,Inside,true,False
276,M,2,2,02M392,MANHATTAN BUSINESS ACADEMY,High school,M440,Bayard Rustin Educational Comp-M,351 West 18 Street,DOE Owned,606,1420.0,Auxiliary Exercise Room,true,Inside,true,False
277,M,2,2,02M392,MANHATTAN BUSINESS ACADEMY,High school,M440,Bayard Rustin Educational Comp-M,351 West 18 Street,DOE Owned,608,594.0,Weight Room,true,Inside,true,False
278,M,2,2,02M392,MANHATTAN BUSINESS ACADEMY,High school,M440,Bayard Rustin Educational Comp-M,351 West 18 Street,DOE Owned,618,777.0,Dance Room,true,Inside,true,False
279,M,2,2,02M392,MANHATTAN BUSINESS ACADEMY,High school,M440,Bayard Rustin Educational Comp-M,351 West 18 Street,DOE Owned,622,861.0,Auxiliary Exercise Room,true,Inside,true,False
280,M,2,2,02M392,MANHATTAN BUSINESS ACADEMY,High school,M440,Bayard Rustin Educational Comp-M,351 West 18 Street,DOE Owned,GYME,7260.0,Gymnasium,true,Inside,true,False
281,M,2,2,02M392,MANHATTAN BUSINESS ACADEMY,High school,M440,Bayard Rustin Educational Comp-M,351 West 18 Street,DOE Owned,GYMW,5940.0,Gymnasium,true,Inside,true,False
282,M,2,2,02M393,Business Of Sports School,High school,M625,Hs Of Graphic Communication Arts-M,439 West 49Th Street,DOE Owned,247B,816.0,Dance Room,true,Inside,true,False
283,M,2,2,02M393,Business Of Sports School,High school,M625,Hs Of Graphic Communication Arts-M,439 West 49Th Street,DOE Owned,644,640.0,Weight Room,true,Inside,true,False
284,M,2,2,02M393,Business Of Sports School,High school,M625,Hs Of Graphic Communication Arts-M,439 West 49Th Street,DOE Owned,B18,6016.0,Gymnasium,true,Inside,true,False
285,M,2,2,02M394,Emma Lazarus High School,High school,M131,I.S. 131 - Manhattan,100 Hester Street,DOE Owned,106,1720.0,Dance Room,true,Inside,true,False
286,M,2,2,02M394,Emma Lazarus High School,High school,M131,I.S. 131 - Manhattan,100 Hester Street,DOE Owned,C40,984.0,Dance Room,true,Inside,true,False
287,M,2,2,02M394,Emma Lazarus High School,High school,M131,I.S. 131 - Manhattan,100 Hester Street,DOE Owned,GYM,5220.0,Gymnasium,true,Inside,true,False
288,M,2,2,02M394,Emma Lazarus High School,High school,M131,I.S. 131 - Manhattan,100 Hester Street,DOE Owned,Outdoor Yard 1,7998.0,Outdoor Yard,true,Outdoor,true,False
289,M,2,2,02M397,Spruce Street School,K-8,M971,The Spruce Street Educational Campus,12 Spruce Street,DOE Owned,345,5046.0,Gymnasium,true,Inside,true,False
290,M,2,2,02M397,Spruce Street School,K-8,M971,The Spruce Street Educational Campus,12 Spruce Street,DOE Owned,Outdoor Yard 1,5000.0,Outdoor Yard,true,Outdoor,true,False
291,M,2,2,02M399,The High School For Language And Diplomacy,High school,M460,Washington Irving Hs - Manhattan,40 Irving Place,DOE Owned,1046,3800.0,Gymnasium,true,Inside,true,False
292,M,2,2,02M399,The High School For Language And Diplomacy,High school,M460,Washington Irving Hs - Manhattan,40 Irving Place,DOE Owned,1148,989.0,Dance Room,true,Inside,true,False
293,M,2,2,02M399,The High School For Language And Diplomacy,High school,M460,Washington Irving Hs - Manhattan,40 Irving Place,DOE Owned,804,1320.0,Gymnasium,true,Inside,true,False
294,M,2,2,02M399,The High School For Language And Diplomacy,High school,M460,Washington Irving Hs - Manhattan,40 Irving Place,DOE Owned,804A,1173.0,Weight Room,true,Inside,true,False
295,M,2,2,02M399,The High School For Language And Diplomacy,High school,M460,Washington Irving Hs - Manhattan,40 Irving Place,DOE Owned,826,3060.0,Gymnasium,true,Inside,true,False
296,M,2,2,02M399,The High School For Language And Diplomacy,High school,M460,Washington Irving Hs - Manhattan,40 Irving Place,DOE Owned,838,575.0,Weight Room,true,Inside,true,False
297,M,2,2,02M399,The High School For Language And Diplomacy,High school,M460,Washington Irving Hs - Manhattan,40 Irving Place,DOE Owned,B. GYM,598.0,Gymnasium,true,Inside,true,False
298,M,2,2,02M399,The High School For Language And Diplomacy,High school,M460,Washington Irving Hs - Manhattan,40 Irving Place,DOE Owned,B53,888.0,Dance Room,true,Inside,true,False
299,M,2,2,02M399,The High School For Language And Diplomacy,High school,M460,Washington Irving Hs - Manhattan,40 Irving Place,DOE Owned,B54,3975.0,Weight Room,true,Inside,true,False
300,M,2,2,02M400,High School for Environmental Studies,High school,M834,Hs For Environmental Studies - M,444 West 56 Street,Tax Levy Lease,3062,10400.0,Gymnasium,true,Inside,true,False
301,M,2,2,02M400,High School for Environmental Studies,High school,M834,Hs For Environmental Studies - M,444 West 56 Street,Tax Levy Lease,3082,1296.0,Weight Room,true,Inside,true,False
302,M,2,2,02M400,High School for Environmental Studies,High school,M834,Hs For Environmental Studies - M,444 West 56 Street,Tax Levy Lease,3089,1804.0,Dance Room,true,Inside,true,False
303,M,2,2,02M407,Institute for Collaborative Education,Secondary School,M475,Health Professions Hs (Ol Sty) - M,345 East 15Th Street,DOE Owned,116,2756.0,Gymnasium,true,Inside,true,False
304,M,2,2,02M407,Institute for Collaborative Education,Secondary School,M475,Health Professions Hs (Ol Sty) - M,345 East 15Th Street,DOE Owned,122,1683.0,Weight Room,true,Inside,true,False
305,M,2,2,02M407,Institute for Collaborative Education,Secondary School,M475,Health Professions Hs (Ol Sty) - M,345 East 15Th Street,DOE Owned,322,1248.0,Dance Room,true,Inside,true,False
306,M,2,2,02M407,Institute for Collaborative Education,Secondary School,M475,Health Professions Hs (Ol Sty) - M,345 East 15Th Street,DOE Owned,GYM,9400.0,Gymnasium,true,Inside,true,False
307,M,2,2,02M408,Professional Performing Arts High School,Secondary School,M017,I.S. 17 - Manhattan,328 West 48 Street,DOE Owned,5A,2146.0,Dance Room,true,Inside,true,False
308,M,2,2,02M408,Professional Performing Arts High School,Secondary School,M017,I.S. 17 - Manhattan,328 West 48 Street,DOE Owned,5B,2166.0,Gymnasium,true,Inside,true,False
309,M,2,2,02M408,Professional Performing Arts High School,Secondary School,M017,I.S. 17 - Manhattan,328 West 48 Street,DOE Owned,Outdoor Yard 1,8034.0,Outdoor Yard,true,Outdoor,true,False
310,M,2,2,02M411,Baruch College Campus High School,High school,M874,Baruch College Campus Hs - M,55 East 25 Street,Tax Levy Lease,109,2520.0,Gymnasium,false,Inside,false,False
311,M,2,2,02M412,N.Y.C. Lab School for Collaborative Studies,High school,M070,I.S. 70 - Manhattan,333 West 17 Street,DOE Owned,116,286.0,Weight Room,true,Inside,true,False
312,M,2,2,02M412,N.Y.C. Lab School for Collaborative Studies,High school,M070,I.S. 70 - Manhattan,333 West 17 Street,DOE Owned,GYM.,6500.0,Gymnasium,true,Inside,true,False
313,M,2,2,02M412,N.Y.C. Lab School for Collaborative Studies,High school,M070,I.S. 70 - Manhattan,333 West 17 Street,DOE Owned,Outdoor Yard 1,7464.0,Outdoor Yard,true,Outdoor,true,False
314,M,2,2,02M412,N.Y.C. Lab School for Collaborative Studies,High school,M070,I.S. 70 - Manhattan,333 West 17 Street,DOE Owned,Outdoor Yard 2,5000.0,Outdoor Yard,true,Outdoor,true,False
315,M,2,2,02M413,School of the Future High School,Secondary School,M660,Schl Of The Future (Old Bacon) - M,127 East 22 Street,DOE Owned,GYM,3072.0,Gymnasium,true,Inside,true,False
316,M,2,2,02M414,N.Y.C. Museum School,High school,M070,I.S. 70 - Manhattan,333 West 17 Street,DOE Owned,116,286.0,Weight Room,true,Inside,true,False
317,M,2,2,02M414,N.Y.C. Museum School,High school,M070,I.S. 70 - Manhattan,333 West 17 Street,DOE Owned,GYM.,6500.0,Gymnasium,true,Inside,true,False
318,M,2,2,02M414,N.Y.C. Museum School,High school,M070,I.S. 70 - Manhattan,333 West 17 Street,DOE Owned,Outdoor Yard 1,7464.0,Outdoor Yard,true,Outdoor,true,False
319,M,2,2,02M414,N.Y.C. Museum School,High school,M070,I.S. 70 - Manhattan,333 West 17 Street,DOE Owned,Outdoor Yard 2,5000.0,Outdoor Yard,true,Outdoor,true,False
320,M,2,2,02M416,Eleanor Roosevelt High School,High school,M855,Eleanor Roosevelt Hs - Manhattan,411 East 76 Street,Tax Levy Lease,218S,2350.0,Gymnasium,false,Inside,false,False
321,M,2,2,02M418,Millennium High School,High school,M824,Millennium Hs - Manhattan,75 Broad Street,Tax Levy Lease,1208,1938.0,Gymnasium,true,Inside,true,False
322,M,2,2,02M419,Landmark High School,High school,M440,Bayard Rustin Educational Comp-M,351 West 18 Street,DOE Owned,606,1420.0,Auxiliary Exercise Room,true,Inside,true,False
323,M,2,2,02M419,Landmark High School,High school,M440,Bayard Rustin Educational Comp-M,351 West 18 Street,DOE Owned,608,594.0,Weight Room,true,Inside,true,False
324,M,2,2,02M419,Landmark High School,High school,M440,Bayard Rustin Educational Comp-M,351 West 18 Street,DOE Owned,618,777.0,Dance Room,true,Inside,true,False
325,M,2,2,02M419,Landmark High School,High school,M440,Bayard Rustin Educational Comp-M,351 West 18 Street,DOE Owned,622,861.0,Auxiliary Exercise Room,true,Inside,true,False
326,M,2,2,02M419,Landmark High School,High school,M440,Bayard Rustin Educational Comp-M,351 West 18 Street,DOE Owned,GYME,7260.0,Gymnasium,true,Inside,true,False
327,M,2,2,02M419,Landmark High School,High school,M440,Bayard Rustin Educational Comp-M,351 West 18 Street,DOE Owned,GYMW,5940.0,Gymnasium,true,Inside,true,False
328,M,2,2,02M420,High School for Health Professions and Human Services,High school,M475,Health Professions Hs (Ol Sty) - M,345 East 15Th Street,DOE Owned,116,2756.0,Gymnasium,true,Inside,true,False
329,M,2,2,02M420,High School for Health Professions and Human Services,High school,M475,Health Professions Hs (Ol Sty) - M,345 East 15Th Street,DOE Owned,122,1683.0,Weight Room,true,Inside,true,False
330,M,2,2,02M420,High School for Health Professions and Human Services,High school,M475,Health Professions Hs (Ol Sty) - M,345 East 15Th Street,DOE Owned,322,1248.0,Dance Room,true,Inside,true,False
331,M,2,2,02M420,High School for Health Professions and Human Services,High school,M475,Health Professions Hs (Ol Sty) - M,345 East 15Th Street,DOE Owned,GYM,9400.0,Gymnasium,true,Inside,true,False
332,M,2,2,02M422,Quest to Learn,Secondary School,M440,Bayard Rustin Educational Comp-M,351 West 18 Street,DOE Owned,606,1420.0,Auxiliary Exercise Room,true,Inside,true,False
333,M,2,2,02M422,Quest to Learn,Secondary School,M440,Bayard Rustin Educational Comp-M,351 West 18 Street,DOE Owned,608,594.0,Weight Room,true,Inside,true,False
334,M,2,2,02M422,Quest to Learn,Secondary School,M440,Bayard Rustin Educational Comp-M,351 West 18 Street,DOE Owned,618,777.0,Dance Room,true,Inside,true,False
335,M,2,2,02M422,Quest to Learn,Secondary School,M440,Bayard Rustin Educational Comp-M,351 West 18 Street,DOE Owned,622,861.0,Auxiliary Exercise Room,true,Inside,true,False
336,M,2,2,02M422,Quest to Learn,Secondary School,M440,Bayard Rustin Educational Comp-M,351 West 18 Street,DOE Owned,GYME,7260.0,Gymnasium,true,Inside,true,False
337,M,2,2,02M422,Quest to Learn,Secondary School,M440,Bayard Rustin Educational Comp-M,351 West 18 Street,DOE Owned,GYMW,5940.0,Gymnasium,true,Inside,true,False
338,M,2,2,02M425,Leadership and Public Service High School,High school,M894,Hs For Leadership & Public Ser - M,90 Trinity Place,Tax Levy Lease,GYM_B,2173.0,Gymnasium,false,Inside,false,False
339,M,2,2,02M427,MANHATTAN ACADEMY FOR ARTS & LANGUAGE,High school,M620,Norman Thomas Hs (Ecf) - Manhattan,111 East 33Rd Street,DOE Owned,1014/18,5402.0,Gymnasium,true,Inside,true,False
340,M,2,2,02M449,Vanguard High School,High school,M480,Julia Richman Ed. Complex - M,317 East 67 Street,DOE Owned,643,420.0,Dance Room,true,Inside,true,False
341,M,2,2,02M427,MANHATTAN ACADEMY FOR ARTS & LANGUAGE,High school,M620,Norman Thomas Hs (Ecf) - Manhattan,111 East 33Rd Street,DOE Owned,340,814.0,Dance Room,true,Inside,true,False
342,M,2,2,02M427,MANHATTAN ACADEMY FOR ARTS & LANGUAGE,High school,M620,Norman Thomas Hs (Ecf) - Manhattan,111 East 33Rd Street,DOE Owned,908-910,6956.0,Gymnasium,true,Inside,true,False
343,M,2,2,02M427,MANHATTAN ACADEMY FOR ARTS & LANGUAGE,High school,M620,Norman Thomas Hs (Ecf) - Manhattan,111 East 33Rd Street,DOE Owned,912,2774.0,Gymnasium,true,Inside,true,False
344,M,2,2,02M427,MANHATTAN ACADEMY FOR ARTS & LANGUAGE,High school,M620,Norman Thomas Hs (Ecf) - Manhattan,111 East 33Rd Street,DOE Owned,914,2380.0,Gymnasium,true,Inside,true,False
345,M,2,2,02M432,Murray Hill Academy,High school,M620,Norman Thomas Hs (Ecf) - Manhattan,111 East 33Rd Street,DOE Owned,1014/18,5402.0,Gymnasium,true,Inside,true,False
346,M,2,2,02M432,Murray Hill Academy,High school,M620,Norman Thomas Hs (Ecf) - Manhattan,111 East 33Rd Street,DOE Owned,340,814.0,Dance Room,true,Inside,true,False
347,M,2,2,02M432,Murray Hill Academy,High school,M620,Norman Thomas Hs (Ecf) - Manhattan,111 East 33Rd Street,DOE Owned,908-910,6956.0,Gymnasium,true,Inside,true,False
348,M,2,2,02M432,Murray Hill Academy,High school,M620,Norman Thomas Hs (Ecf) - Manhattan,111 East 33Rd Street,DOE Owned,912,2774.0,Gymnasium,true,Inside,true,False
349,M,2,2,02M432,Murray Hill Academy,High school,M620,Norman Thomas Hs (Ecf) - Manhattan,111 East 33Rd Street,DOE Owned,914,2380.0,Gymnasium,true,Inside,true,False
350,M,2,2,02M437,Hudson High School of Learning Technologies,High school,M440,Bayard Rustin Educational Comp-M,351 West 18 Street,DOE Owned,606,1420.0,Auxiliary Exercise Room,true,Inside,true,False
351,M,2,2,02M437,Hudson High School of Learning Technologies,High school,M440,Bayard Rustin Educational Comp-M,351 West 18 Street,DOE Owned,608,594.0,Weight Room,true,Inside,true,False
352,M,2,2,02M437,Hudson High School of Learning Technologies,High school,M440,Bayard Rustin Educational Comp-M,351 West 18 Street,DOE Owned,618,777.0,Dance Room,true,Inside,true,False
353,M,2,2,02M437,Hudson High School of Learning Technologies,High school,M440,Bayard Rustin Educational Comp-M,351 West 18 Street,DOE Owned,622,861.0,Auxiliary Exercise Room,true,Inside,true,False
354,M,2,2,02M437,Hudson High School of Learning Technologies,High school,M440,Bayard Rustin Educational Comp-M,351 West 18 Street,DOE Owned,GYME,7260.0,Gymnasium,true,Inside,true,False
355,M,2,2,02M437,Hudson High School of Learning Technologies,High school,M440,Bayard Rustin Educational Comp-M,351 West 18 Street,DOE Owned,GYMW,5940.0,Gymnasium,true,Inside,true,False
356,M,2,2,02M438,International High School at Union Square,High school,M460,Washington Irving Hs - Manhattan,40 Irving Place,DOE Owned,1046,3800.0,Gymnasium,true,Inside,true,False
357,M,2,2,02M438,International High School at Union Square,High school,M460,Washington Irving Hs - Manhattan,40 Irving Place,DOE Owned,1148,989.0,Dance Room,true,Inside,true,False
358,M,2,2,02M438,International High School at Union Square,High school,M460,Washington Irving Hs - Manhattan,40 Irving Place,DOE Owned,804,1320.0,Gymnasium,true,Inside,true,False
359,M,2,2,02M438,International High School at Union Square,High school,M460,Washington Irving Hs - Manhattan,40 Irving Place,DOE Owned,804A,1173.0,Weight Room,true,Inside,true,False
360,M,2,2,02M438,International High School at Union Square,High school,M460,Washington Irving Hs - Manhattan,40 Irving Place,DOE Owned,826,3060.0,Gymnasium,true,Inside,true,False
361,M,2,2,02M438,International High School at Union Square,High school,M460,Washington Irving Hs - Manhattan,40 Irving Place,DOE Owned,838,575.0,Weight Room,true,Inside,true,False
362,M,2,2,02M438,International High School at Union Square,High school,M460,Washington Irving Hs - Manhattan,40 Irving Place,DOE Owned,B. GYM,598.0,Gymnasium,true,Inside,true,False
363,M,2,2,02M438,International High School at Union Square,High school,M460,Washington Irving Hs - Manhattan,40 Irving Place,DOE Owned,B53,888.0,Dance Room,true,Inside,true,False
364,M,2,2,02M438,International High School at Union Square,High school,M460,Washington Irving Hs - Manhattan,40 Irving Place,DOE Owned,B54,3975.0,Weight Room,true,Inside,true,False
365,M,2,2,02M439,Manhattan Village Academy,High school,M873,Manhattan Village Academy - M,43 West 22 Street,Tax Levy Lease,3 FLOOR,2400.0,Gymnasium/Auditorium/Dance Room,false,Inside,false,True
366,M,2,2,02M442,"Ballet Tech, NYC Public School for Dance",K-12 all grades,M905,Ballet Tech/Pub. Scl For Dance - M,890 Broadway,Tax Levy Lease,7-1,2322.0,Dance Room,false,Inside,false,False
367,M,2,2,02M442,"Ballet Tech, NYC Public School for Dance",K-12 all grades,M905,Ballet Tech/Pub. Scl For Dance - M,890 Broadway,Tax Levy Lease,7-2,2580.0,Dance Room,false,Inside,false,False
368,M,2,2,02M449,Vanguard High School,High school,M480,Julia Richman Ed. Complex - M,317 East 67 Street,DOE Owned,268,875.0,Weight Room,true,Inside,true,False
369,M,2,2,02M449,Vanguard High School,High school,M480,Julia Richman Ed. Complex - M,317 East 67 Street,DOE Owned,2FL GYM,7740.0,Gymnasium,true,Inside,true,False
370,M,2,2,02M449,Vanguard High School,High school,M480,Julia Richman Ed. Complex - M,317 East 67 Street,DOE Owned,318,903.0,Dance Room,true,Inside,true,False
371,M,2,2,02M449,Vanguard High School,High school,M480,Julia Richman Ed. Complex - M,317 East 67 Street,DOE Owned,3FL GYM,7740.0,Gymnasium,true,Inside,true,False
372,M,2,2,02M449,Vanguard High School,High school,M480,Julia Richman Ed. Complex - M,317 East 67 Street,DOE Owned,505,836.0,Dance Room,true,Inside,true,False
373,M,2,2,02M449,Vanguard High School,High school,M480,Julia Richman Ed. Complex - M,317 East 67 Street,DOE Owned,641,1104.0,Dance Room,true,Inside,true,False
374,M,2,2,02M449,Vanguard High School,High school,M480,Julia Richman Ed. Complex - M,317 East 67 Street,DOE Owned,BALCGYM,900.0,Gymnasium,true,Inside,true,False
375,M,2,2,02M449,Vanguard High School,High school,M480,Julia Richman Ed. Complex - M,317 East 67 Street,DOE Owned,POOL,5135.0,Swimming Pool,true,Inside,true,False
376,M,2,2,02M459,Manhattan International High School,High school,M480,Julia Richman Ed. Complex - M,317 East 67 Street,DOE Owned,268,875.0,Weight Room,true,Inside,true,False
377,M,2,2,02M459,Manhattan International High School,High school,M480,Julia Richman Ed. Complex - M,317 East 67 Street,DOE Owned,2FL GYM,7740.0,Gymnasium,true,Inside,true,False
378,M,2,2,02M459,Manhattan International High School,High school,M480,Julia Richman Ed. Complex - M,317 East 67 Street,DOE Owned,318,903.0,Dance Room,true,Inside,true,False
379,M,2,2,02M459,Manhattan International High School,High school,M480,Julia Richman Ed. Complex - M,317 East 67 Street,DOE Owned,3FL GYM,7740.0,Gymnasium,true,Inside,true,False
380,M,2,2,02M459,Manhattan International High School,High school,M480,Julia Richman Ed. Complex - M,317 East 67 Street,DOE Owned,505,836.0,Dance Room,true,Inside,true,False
381,M,2,2,02M459,Manhattan International High School,High school,M480,Julia Richman Ed. Complex - M,317 East 67 Street,DOE Owned,641,1104.0,Dance Room,true,Inside,true,False
382,M,2,2,02M459,Manhattan International High School,High school,M480,Julia Richman Ed. Complex - M,317 East 67 Street,DOE Owned,643,420.0,Dance Room,true,Inside,true,False
383,M,2,2,02M459,Manhattan International High School,High school,M480,Julia Richman Ed. Complex - M,317 East 67 Street,DOE Owned,BALCGYM,900.0,Gymnasium,true,Inside,true,False
384,M,2,2,02M459,Manhattan International High School,High school,M480,Julia Richman Ed. Complex - M,317 East 67 Street,DOE Owned,POOL,5135.0,Swimming Pool,true,Inside,true,False
385,M,2,2,02M475,Stuyvesant High School,High school,M477,Stuyvesant Hs (New) - Manhattan,345 Chambers Street,DOE Owned,180,6764.0,Swimming Pool,true,Inside,true,False
386,M,2,2,02M475,Stuyvesant High School,High school,M477,Stuyvesant Hs (New) - Manhattan,345 Chambers Street,DOE Owned,G380,6480.0,Gymnasium,true,Inside,true,False
387,M,2,2,02M475,Stuyvesant High School,High school,M477,Stuyvesant Hs (New) - Manhattan,345 Chambers Street,DOE Owned,G382,2704.0,Dance Room,true,Inside,true,False
388,M,2,2,02M475,Stuyvesant High School,High school,M477,Stuyvesant Hs (New) - Manhattan,345 Chambers Street,DOE Owned,G580,900.0,Weight Room,true,Inside,true,False
389,M,2,2,02M475,Stuyvesant High School,High school,M477,Stuyvesant Hs (New) - Manhattan,345 Chambers Street,DOE Owned,G680,5760.0,Gymnasium,true,Inside,true,False
390,M,2,2,02M475,Stuyvesant High School,High school,M477,Stuyvesant Hs (New) - Manhattan,345 Chambers Street,DOE Owned,G682,1872.0,Dance Room,true,Inside,true,False
391,M,2,2,02M489,High School of Economics and Finance,High school,M833,Hs For Economics & Finance - M,100 Trinity Place,Tax Levy Lease,104,483.0,Weight Room,false,Inside,false,False
392,M,2,2,02M489,High School of Economics and Finance,High school,M833,Hs For Economics & Finance - M,100 Trinity Place,Tax Levy Lease,GYM,2475.0,Gymnasium,false,Inside,false,False
393,M,2,2,02M500,Unity Center for Urban Technologies,High school,M620,Norman Thomas Hs (Ecf) - Manhattan,111 East 33Rd Street,DOE Owned,1014/18,5402.0,Gymnasium,true,Inside,true,False
394,M,2,2,02M500,Unity Center for Urban Technologies,High school,M620,Norman Thomas Hs (Ecf) - Manhattan,111 East 33Rd Street,DOE Owned,340,814.0,Dance Room,true,Inside,true,False
395,M,2,2,02M500,Unity Center for Urban Technologies,High school,M620,Norman Thomas Hs (Ecf) - Manhattan,111 East 33Rd Street,DOE Owned,908-910,6956.0,Gymnasium,true,Inside,true,False
396,M,2,2,02M500,Unity Center for Urban Technologies,High school,M620,Norman Thomas Hs (Ecf) - Manhattan,111 East 33Rd Street,DOE Owned,912,2774.0,Gymnasium,true,Inside,true,False
397,M,2,2,02M500,Unity Center for Urban Technologies,High school,M620,Norman Thomas Hs (Ecf) - Manhattan,111 East 33Rd Street,DOE Owned,914,2380.0,Gymnasium,true,Inside,true,False
398,M,2,2,02M507,Urban Assembly Gateway School for Technology,High school,M625,Hs Of Graphic Communication Arts-M,439 West 49Th Street,DOE Owned,247B,816.0,Dance Room,true,Inside,true,False
399,M,2,2,02M507,Urban Assembly Gateway School for Technology,High school,M625,Hs Of Graphic Communication Arts-M,439 West 49Th Street,DOE Owned,644,640.0,Weight Room,true,Inside,true,False
400,M,2,2,02M507,Urban Assembly Gateway School for Technology,High school,M625,Hs Of Graphic Communication Arts-M,439 West 49Th Street,DOE Owned,B18,6016.0,Gymnasium,true,Inside,true,False
401,M,2,2,02M519,Talent Unlimited High School,High school,M480,Julia Richman Ed. Complex - M,317 East 67 Street,DOE Owned,268,875.0,Weight Room,true,Inside,true,False
402,M,2,2,02M519,Talent Unlimited High School,High school,M480,Julia Richman Ed. Complex - M,317 East 67 Street,DOE Owned,2FL GYM,7740.0,Gymnasium,true,Inside,true,False
403,M,2,2,02M519,Talent Unlimited High School,High school,M480,Julia Richman Ed. Complex - M,317 East 67 Street,DOE Owned,318,903.0,Dance Room,true,Inside,true,False
404,M,2,2,02M519,Talent Unlimited High School,High school,M480,Julia Richman Ed. Complex - M,317 East 67 Street,DOE Owned,3FL GYM,7740.0,Gymnasium,true,Inside,true,False
405,M,2,2,02M519,Talent Unlimited High School,High school,M480,Julia Richman Ed. Complex - M,317 East 67 Street,DOE Owned,505,836.0,Dance Room,true,Inside,true,False
406,M,2,2,02M519,Talent Unlimited High School,High school,M480,Julia Richman Ed. Complex - M,317 East 67 Street,DOE Owned,641,1104.0,Dance Room,true,Inside,true,False
407,K,15,15,15K295,P.S. 295,Elementary,K845,P.S. 295 - Brooklyn,330 18 Street,DOE Owned,B107,825.0,Dance Room,true,Inside,true,False
408,M,2,2,02M519,Talent Unlimited High School,High school,M480,Julia Richman Ed. Complex - M,317 East 67 Street,DOE Owned,643,420.0,Dance Room,true,Inside,true,False
409,M,2,2,02M519,Talent Unlimited High School,High school,M480,Julia Richman Ed. Complex - M,317 East 67 Street,DOE Owned,BALCGYM,900.0,Gymnasium,true,Inside,true,False
410,M,2,2,02M519,Talent Unlimited High School,High school,M480,Julia Richman Ed. Complex - M,317 East 67 Street,DOE Owned,POOL,5135.0,Swimming Pool,true,Inside,true,False
411,M,2,2,02M520,Murry Bergtraum High School for Business Careers,High school,M520,Murry Bergtraum Hs (Ecf) - M,411 Pearl Street,DOE Owned,250,6882.0,Gymnasium/Auditorium/Cafeteria,true,Inside,true,True
412,M,2,2,02M520,Murry Bergtraum High School for Business Careers,High school,M520,Murry Bergtraum Hs (Ecf) - M,411 Pearl Street,DOE Owned,GYM #1,5106.0,Gymnasium,true,Inside,true,False
413,M,2,2,02M520,Murry Bergtraum High School for Business Careers,High school,M520,Murry Bergtraum Hs (Ecf) - M,411 Pearl Street,DOE Owned,GYM #2,11840.0,Gymnasium,true,Inside,true,False
414,X,7,7,07X049,P.S. 049 Willis Avenue,Elementary,X049,P.S. 49 - Bronx,383 East 139 Street,DOE Owned,GYM,4144.0,Gymnasium,true,Inside,true,False
415,M,2,2,02M527,P.S. 527 - East Side School for Social Action,Elementary,M816,P.S. 527 - East Side School For Social Action,323 East 91 Street,Tax Levy Lease,100,3500.0,Gymnasium/Auditorium,false,Inside,false,True
416,M,2,2,02M527,P.S. 527 - East Side School for Social Action,Elementary,M816,P.S. 527 - East Side School For Social Action,323 East 91 Street,Tax Levy Lease,209,588.0,Auxiliary Exercise Room,false,Inside,false,False
417,M,2,2,02M529,Jacqueline Kennedy Onassis High School,High school,M486,J. K. Onassis Hs For Int Careers-M,120 West 46 Street,DOE Owned,207,1696.0,Gymnasium,false,Inside,false,False
418,M,2,2,02M531,Repertory Company High School for Theatre Arts,High school,M896,Nyc Public School Repertory Co - M,123 West 43 Street,Tax Levy Lease,307,928.0,Dance Room,false,Inside,false,False
419,M,2,2,02M533,Union Square Academy for Health Sciences,High school,M460,Washington Irving Hs - Manhattan,40 Irving Place,DOE Owned,1046,3800.0,Gymnasium,true,Inside,true,False
420,M,2,2,02M533,Union Square Academy for Health Sciences,High school,M460,Washington Irving Hs - Manhattan,40 Irving Place,DOE Owned,1148,989.0,Dance Room,true,Inside,true,False
421,M,2,2,02M533,Union Square Academy for Health Sciences,High school,M460,Washington Irving Hs - Manhattan,40 Irving Place,DOE Owned,804,1320.0,Gymnasium,true,Inside,true,False
422,M,2,2,02M533,Union Square Academy for Health Sciences,High school,M460,Washington Irving Hs - Manhattan,40 Irving Place,DOE Owned,804A,1173.0,Weight Room,true,Inside,true,False
423,M,2,2,02M533,Union Square Academy for Health Sciences,High school,M460,Washington Irving Hs - Manhattan,40 Irving Place,DOE Owned,826,3060.0,Gymnasium,true,Inside,true,False
424,M,2,2,02M533,Union Square Academy for Health Sciences,High school,M460,Washington Irving Hs - Manhattan,40 Irving Place,DOE Owned,838,575.0,Weight Room,true,Inside,true,False
425,M,2,2,02M533,Union Square Academy for Health Sciences,High school,M460,Washington Irving Hs - Manhattan,40 Irving Place,DOE Owned,B. GYM,598.0,Gymnasium,true,Inside,true,False
426,M,2,2,02M533,Union Square Academy for Health Sciences,High school,M460,Washington Irving Hs - Manhattan,40 Irving Place,DOE Owned,B53,888.0,Dance Room,true,Inside,true,False
427,M,2,2,02M533,Union Square Academy for Health Sciences,High school,M460,Washington Irving Hs - Manhattan,40 Irving Place,DOE Owned,B54,3975.0,Weight Room,true,Inside,true,False
428,M,2,2,02M534,Harvest Collegiate High School,High school,M883,Legacy Hs For Integr. Studies - M,34 West 14 Street,Tax Levy Lease,431,1596.0,Dance Room,true,Inside,true,False
429,M,2,2,02M542,Manhattan Bridges High School,High school,M535,Park West Hs (Ecf) - Manhattan,525 West 50Th Street,DOE Owned,513,1242.0,Dance Room,true,Inside,true,False
430,M,2,2,02M542,Manhattan Bridges High School,High school,M535,Park West Hs (Ecf) - Manhattan,525 West 50Th Street,DOE Owned,569-GYM,4756.0,Gymnasium,true,Inside,true,False
431,M,2,2,02M542,Manhattan Bridges High School,High school,M535,Park West Hs (Ecf) - Manhattan,525 West 50Th Street,DOE Owned,580-GYM,9804.0,Gymnasium,true,Inside,true,False
432,M,2,2,02M543,New Design High School,High school,M445,Seward Park Hs - Manhattan,350 Grand Street,DOE Owned,098B,760.0,Dance Room,true,Inside,true,False
433,M,2,2,02M543,New Design High School,High school,M445,Seward Park Hs - Manhattan,350 Grand Street,DOE Owned,600B,3025.0,Weight Room,true,Inside,true,False
434,M,2,2,02M543,New Design High School,High school,M445,Seward Park Hs - Manhattan,350 Grand Street,DOE Owned,GYM1,4620.0,Gymnasium,true,Inside,true,False
435,M,2,2,02M543,New Design High School,High school,M445,Seward Park Hs - Manhattan,350 Grand Street,DOE Owned,GYM2,4620.0,Gymnasium,true,Inside,true,False
436,M,2,2,02M543,New Design High School,High school,M445,Seward Park Hs - Manhattan,350 Grand Street,DOE Owned,POOL,5472.0,Swimming Pool,true,Inside,true,False
437,M,2,2,02M544,Independence High School,High school,M834,Hs For Environmental Studies - M,850 10Th Avenue,Tax Levy Lease,3062,10400.0,Gymnasium,true,Inside,true,False
438,M,2,2,02M544,Independence High School,High school,M834,Hs For Environmental Studies - M,850 10Th Avenue,Tax Levy Lease,3082,1296.0,Weight Room,true,Inside,true,False
439,M,2,2,02M544,Independence High School,High school,M834,Hs For Environmental Studies - M,850 10Th Avenue,Tax Levy Lease,3089,1804.0,Dance Room,true,Inside,true,False
440,M,2,2,02M545,High School for Dual Language and Asian Studies,High school,M445,Seward Park Hs - Manhattan,350 Grand Street,DOE Owned,098B,760.0,Dance Room,true,Inside,true,False
441,M,2,2,02M545,High School for Dual Language and Asian Studies,High school,M445,Seward Park Hs - Manhattan,350 Grand Street,DOE Owned,600B,3025.0,Weight Room,true,Inside,true,False
442,X,7,7,07X277,P.S. 277,Elementary,X027,P.S. 277 - Bronx,519 St Anns Avenue,DOE Owned,510/512,1488.0,Gymnasium,true,Inside,true,False
443,M,2,2,02M545,High School for Dual Language and Asian Studies,High school,M445,Seward Park Hs - Manhattan,350 Grand Street,DOE Owned,GYM1,4620.0,Gymnasium,true,Inside,true,False
444,M,2,2,02M545,High School for Dual Language and Asian Studies,High school,M445,Seward Park Hs - Manhattan,350 Grand Street,DOE Owned,GYM2,4620.0,Gymnasium,true,Inside,true,False
445,M,2,2,02M545,High School for Dual Language and Asian Studies,High school,M445,Seward Park Hs - Manhattan,350 Grand Street,DOE Owned,POOL,5472.0,Swimming Pool,true,Inside,true,False
446,M,2,2,02M546,Academy for Software Engineering,High school,M460,Washington Irving Hs - Manhattan,40 Irving Place,DOE Owned,1046,3800.0,Gymnasium,true,Inside,true,False
447,M,2,2,02M546,Academy for Software Engineering,High school,M460,Washington Irving Hs - Manhattan,40 Irving Place,DOE Owned,1148,989.0,Dance Room,true,Inside,true,False
448,M,2,2,02M546,Academy for Software Engineering,High school,M460,Washington Irving Hs - Manhattan,40 Irving Place,DOE Owned,804,1320.0,Gymnasium,true,Inside,true,False
449,M,2,2,02M546,Academy for Software Engineering,High school,M460,Washington Irving Hs - Manhattan,40 Irving Place,DOE Owned,804A,1173.0,Weight Room,true,Inside,true,False
450,M,2,2,02M546,Academy for Software Engineering,High school,M460,Washington Irving Hs - Manhattan,40 Irving Place,DOE Owned,826,3060.0,Gymnasium,true,Inside,true,False
451,M,2,2,02M546,Academy for Software Engineering,High school,M460,Washington Irving Hs - Manhattan,40 Irving Place,DOE Owned,838,575.0,Weight Room,true,Inside,true,False
452,M,2,2,02M546,Academy for Software Engineering,High school,M460,Washington Irving Hs - Manhattan,40 Irving Place,DOE Owned,B. GYM,598.0,Gymnasium,true,Inside,true,False
453,M,2,2,02M546,Academy for Software Engineering,High school,M460,Washington Irving Hs - Manhattan,40 Irving Place,DOE Owned,B53,888.0,Dance Room,true,Inside,true,False
454,M,2,2,02M546,Academy for Software Engineering,High school,M460,Washington Irving Hs - Manhattan,40 Irving Place,DOE Owned,B54,3975.0,Weight Room,true,Inside,true,False
455,M,2,2,02M550,Liberty High School Academy for Newcomers,High school,M451,Liberty Hs - Manhattan,250 West 18 Street,DOE Owned,210,1024.0,Weight Room,false,Inside,false,False
456,M,2,2,02M551,Urban Assembly New York Harbor School,High school,M877,New York Harbor School - Manhattan,"10 South Street, Slip 7",Tax Levy Lease,218,1225.0,Weight Room,false,Inside,true,False
457,M,2,2,02M560,High School M560 - City As School,High school,M641,City-As-School(Old 95) - Manhattan,16 Clarkson Street,DOE Owned,GYM,2257.0,Gymnasium,true,Inside,true,False
458,M,2,2,02M565,Urban Academy Laboratory High School,High school,M480,Julia Richman Ed. Complex - M,317 East 67 Street,DOE Owned,268,875.0,Weight Room,true,Inside,true,False
459,M,2,2,02M565,Urban Academy Laboratory High School,High school,M480,Julia Richman Ed. Complex - M,317 East 67 Street,DOE Owned,2FL GYM,7740.0,Gymnasium,true,Inside,true,False
460,M,2,2,02M565,Urban Academy Laboratory High School,High school,M480,Julia Richman Ed. Complex - M,317 East 67 Street,DOE Owned,318,903.0,Dance Room,true,Inside,true,False
461,M,2,2,02M565,Urban Academy Laboratory High School,High school,M480,Julia Richman Ed. Complex - M,317 East 67 Street,DOE Owned,3FL GYM,7740.0,Gymnasium,true,Inside,true,False
462,M,2,2,02M565,Urban Academy Laboratory High School,High school,M480,Julia Richman Ed. Complex - M,317 East 67 Street,DOE Owned,505,836.0,Dance Room,true,Inside,true,False
463,M,2,2,02M565,Urban Academy Laboratory High School,High school,M480,Julia Richman Ed. Complex - M,317 East 67 Street,DOE Owned,641,1104.0,Dance Room,true,Inside,true,False
464,M,2,2,02M565,Urban Academy Laboratory High School,High school,M480,Julia Richman Ed. Complex - M,317 East 67 Street,DOE Owned,643,420.0,Dance Room,true,Inside,true,False
465,M,2,2,02M565,Urban Academy Laboratory High School,High school,M480,Julia Richman Ed. Complex - M,317 East 67 Street,DOE Owned,BALCGYM,900.0,Gymnasium,true,Inside,true,False
466,M,2,2,02M565,Urban Academy Laboratory High School,High school,M480,Julia Richman Ed. Complex - M,317 East 67 Street,DOE Owned,POOL,5135.0,Swimming Pool,true,Inside,true,False
467,M,2,2,02M570,Satellite Academy High School,High school,M920,Satellite Academy - Manhattan,120 West 30 Street,Tax Levy Lease,306,440.0,Auxiliary Exercise Room,false,Inside,false,False
468,M,2,2,02M575,Manhattan Comprehensive Night and Day High School,High school,M661,Mnht Comp Night&Day (Ol Bacn X)-M,240 2 Avenue,DOE Owned,406,2604.0,Gymnasium,false,Inside,false,False
469,M,2,2,02M575,Manhattan Comprehensive Night and Day High School,High school,M661,Mnht Comp Night&Day (Ol Bacn X)-M,240 2 Avenue,DOE Owned,TRACKS,1426.0,Gymnasium,false,Inside,false,False
470,X,7,7,07X277,P.S. 277,Elementary,X027,P.S. 277 - Bronx,519 St Anns Avenue,DOE Owned,Outdoor Yard 1,9862.0,Outdoor Yard,true,Outdoor,true,False
471,M,2,2,02M580,Richard R. Green High School of Teaching,High school,M282,Broadway Education Campus - M,7 Beaver Street,Tax Levy Lease,150,3168.0,Gymnasium,true,Inside,true,False
472,M,2,2,02M580,Richard R. Green High School of Teaching,High school,M282,Broadway Education Campus - M,7 Beaver Street,Tax Levy Lease,150A,1350.0,Weight Room,true,Inside,true,False
473,M,2,2,02M580,Richard R. Green High School of Teaching,High school,M282,Broadway Education Campus - M,7 Beaver Street,Tax Levy Lease,631,1014.0,Dance Room,true,Inside,true,False
474,M,2,2,02M580,Richard R. Green High School of Teaching,High school,M282,Broadway Education Campus - M,7 Beaver Street,Tax Levy Lease,727,940.0,Dance Room,true,Inside,true,False
475,M,2,2,02M586,Harvey Milk High School,High school,M807,Harvey Milk School - Manhattan,2-10 Astor Place,Tax Levy Lease,335,1224.0,Multi-Purpose Room,true,Inside,true,True
476,M,2,2,02M600,The High School of Fashion Industries,High school,M600,Fashion Industries Voc Hs - M,225 West 24 Street,DOE Owned,1001,2028.0,Gymnasium,true,Inside,true,False
477,M,2,2,02M600,The High School of Fashion Industries,High school,M600,Fashion Industries Voc Hs - M,225 West 24 Street,DOE Owned,1026,775.0,Weight Room,true,Inside,true,False
478,M,2,2,02M600,The High School of Fashion Industries,High school,M600,Fashion Industries Voc Hs - M,225 West 24 Street,DOE Owned,301,5824.0,Gymnasium,true,Inside,true,False
479,M,2,2,02M605,Humanities Preparatory Academy,High school,M440,Bayard Rustin Educational Comp-M,351 West 18 Street,DOE Owned,606,1420.0,Auxiliary Exercise Room,true,Inside,true,False
480,M,2,2,02M605,Humanities Preparatory Academy,High school,M440,Bayard Rustin Educational Comp-M,351 West 18 Street,DOE Owned,608,594.0,Weight Room,true,Inside,true,False
481,M,2,2,02M605,Humanities Preparatory Academy,High school,M440,Bayard Rustin Educational Comp-M,351 West 18 Street,DOE Owned,618,777.0,Dance Room,true,Inside,true,False
482,M,2,2,02M605,Humanities Preparatory Academy,High school,M440,Bayard Rustin Educational Comp-M,351 West 18 Street,DOE Owned,622,861.0,Auxiliary Exercise Room,true,Inside,true,False
483,M,2,2,02M605,Humanities Preparatory Academy,High school,M440,Bayard Rustin Educational Comp-M,351 West 18 Street,DOE Owned,GYME,7260.0,Gymnasium,true,Inside,true,False
484,M,2,2,02M605,Humanities Preparatory Academy,High school,M440,Bayard Rustin Educational Comp-M,351 West 18 Street,DOE Owned,GYMW,5940.0,Gymnasium,true,Inside,true,False
485,M,2,2,02M615,Chelsea Career and Technical Education High School,High school,M615,Chelsea Voc Hs - Manhattan,131 Avenue Of The Americas,DOE Owned,102,1081.0,Weight Room,true,Inside,true,False
486,M,2,2,02M630,Art and Design High School,High school,M488,Midtown East Campus - Manhattan,231-249 East 56 Street,DOE Owned,426,1980.0,Weight Room,true,Inside,true,False
487,M,2,2,02M630,Art and Design High School,High school,M488,Midtown East Campus - Manhattan,231-249 East 56 Street,DOE Owned,502,3280.0,Gymnasium,true,Inside,true,False
488,M,2,2,02M630,Art and Design High School,High school,M488,Midtown East Campus - Manhattan,231-249 East 56 Street,DOE Owned,L223,2793.0,Gymnasium,true,Inside,true,False
489,M,2,2,02M630,Art and Design High School,High school,M488,Midtown East Campus - Manhattan,231-249 East 56 Street,DOE Owned,Outdoor Yard 1,4352.0,Outdoor Yard,true,Outdoor,true,False
490,M,2,2,02M655,Life Sciences Secondary School,Secondary School,M645,Old Manhattan Voc/Tech Hs - M,320 East 96 Street,DOE Owned,307,780.0,Weight Room,false,Inside,false,False
491,M,2,2,02M655,Life Sciences Secondary School,Secondary School,M645,Old Manhattan Voc/Tech Hs - M,320 East 96 Street,DOE Owned,316,1440.0,Dance Room,false,Inside,false,False
492,M,2,2,02M896,Lower Manhattan Community Middle School,Junior High-Intermediate-Middle,M282,Broadway Education Campus - M,26 Broadway,Tax Levy Lease,150,3168.0,Gymnasium,true,Inside,true,False
493,M,2,2,02M896,Lower Manhattan Community Middle School,Junior High-Intermediate-Middle,M282,Broadway Education Campus - M,26 Broadway,Tax Levy Lease,150A,1350.0,Weight Room,true,Inside,true,False
494,M,2,2,02M896,Lower Manhattan Community Middle School,Junior High-Intermediate-Middle,M282,Broadway Education Campus - M,26 Broadway,Tax Levy Lease,631,1014.0,Dance Room,true,Inside,true,False
495,M,2,2,02M896,Lower Manhattan Community Middle School,Junior High-Intermediate-Middle,M282,Broadway Education Campus - M,26 Broadway,Tax Levy Lease,727,940.0,Dance Room,true,Inside,true,False
496,M,2,2,02M933,City Knoll Middle School,Junior High-Intermediate-Middle,M933,I.S. 260 - Manhattan,425 West 33Rd Street,Tax Levy Lease,202,945.0,Multi-Purpose Classroom,false,Inside,false,True
497,M,2,2,02M933,City Knoll Middle School,Junior High-Intermediate-Middle,M933,I.S. 260 - Manhattan,425 West 33Rd Street,Tax Levy Lease,B06,1054.0,Multi-Purpose Classroom,false,Inside,false,True
498,M,2,2,02M933,City Knoll Middle School,Junior High-Intermediate-Middle,M933,I.S. 260 - Manhattan,425 West 33Rd Street,Tax Levy Lease,GYM,9729.0,Multi-Purpose Non Classroom,false,Inside,false,True
499,M,3,3,03M009,P.S. 009 Sarah Anderson,Elementary,M009,P.S. 9 - Manhattan,100 West 84 Street,DOE Owned,GYM,3886.0,Gymnasium,true,Inside,true,False
500,M,3,3,03M009,P.S. 009 Sarah Anderson,Elementary,M009,P.S. 9 - Manhattan,100 West 84 Street,DOE Owned,Outdoor Yard 1,33095.0,Outdoor Yard,true,Outdoor,true,False
501,M,3,3,03M054,J.H.S. 054 Booker T. Washington,Junior High-Intermediate-Middle,M054,I.S. 54 - Manhattan,103 West 107 Street,DOE Owned,GYM,5720.0,Gymnasium,false,Inside,false,False
502,M,3,3,03M054,J.H.S. 054 Booker T. Washington,Junior High-Intermediate-Middle,M054,I.S. 54 - Manhattan,103 West 107 Street,DOE Owned,Outdoor Yard 1,8316.0,Outdoor Yard,false,Outdoor,false,False
503,M,3,3,03M075,P.S. 075 Emily Dickinson,Elementary,M075,P.S. 75 - Manhattan,735 West End Avenue,DOE Owned,GYM,3740.0,Gymnasium,true,Inside,true,False
504,M,3,3,03M075,P.S. 075 Emily Dickinson,Elementary,M075,P.S. 75 - Manhattan,735 West End Avenue,DOE Owned,Outdoor Yard 1,3782.0,Outdoor Yard,true,Outdoor,true,False
505,M,3,3,03M075,P.S. 075 Emily Dickinson,Elementary,M075,P.S. 75 - Manhattan,735 West End Avenue,DOE Owned,Outdoor Yard 2,19617.0,Outdoor Yard,true,Outdoor,true,False
506,M,3,3,03M076,P.S. 076 A. Philip Randolph,Elementary,M076,P.S. 76 - Manhattan,220 West 121 Street,DOE Owned,GYM,3828.0,Gymnasium,true,Inside,true,False
507,M,3,3,03M076,P.S. 076 A. Philip Randolph,Elementary,M076,P.S. 76 - Manhattan,220 West 121 Street,DOE Owned,Outdoor Yard 1,15929.0,Outdoor Yard,true,Outdoor,true,False
508,M,3,3,03M084,P.S. 084 Lillian Weber,Elementary,M084,P.S. 84 - Manhattan,32 West 92 Street,DOE Owned,308,648.0,Dance Room,true,Inside,true,False
509,M,3,3,03M084,P.S. 084 Lillian Weber,Elementary,M084,P.S. 84 - Manhattan,32 West 92 Street,DOE Owned,GYM,3886.0,Gymnasium,true,Inside,true,False
510,M,3,3,03M084,P.S. 084 Lillian Weber,Elementary,M084,P.S. 84 - Manhattan,32 West 92 Street,DOE Owned,Outdoor Yard 1,3239.0,Outdoor Yard,true,Outdoor,true,False
511,M,3,3,03M087,P.S. 087 William Sherman,Elementary,M087,P.S. 87 - Manhattan,160 West 78 Street,DOE Owned,216,3808.0,Gymnasium,false,Inside,false,False
512,M,3,3,03M087,P.S. 087 William Sherman,Elementary,M087,P.S. 87 - Manhattan,160 West 78 Street,DOE Owned,Outdoor Yard 1,3490.0,Outdoor Yard,false,Outdoor,false,False
513,M,3,3,03M145,"P.S. 145, The Bloomingdale School",Elementary,M145,P.S. 145 - Manhattan,150 West 105 Street,DOE Owned,201,4060.0,Gymnasium,true,Inside,true,False
514,M,3,3,03M145,"P.S. 145, The Bloomingdale School",Elementary,M145,P.S. 145 - Manhattan,150 West 105 Street,DOE Owned,213,702.0,Dance Room,true,Inside,true,False
515,M,3,3,03M145,"P.S. 145, The Bloomingdale School",Elementary,M145,P.S. 145 - Manhattan,150 West 105 Street,DOE Owned,Outdoor Yard 1,1125.0,Outdoor Yard,true,Outdoor,true,False
516,M,3,3,03M145,"P.S. 145, The Bloomingdale School",Elementary,M145,P.S. 145 - Manhattan,150 West 105 Street,DOE Owned,Outdoor Yard 2,3479.0,Outdoor Yard,true,Outdoor,true,False
517,M,3,3,03M149,P.S. 149 Sojourner Truth,K-8,M207,P.S. 207 (Tandem M149),41 West 117 Street,DOE Owned,136,3009.0,Gymnasium,true,Inside,true,False
518,M,3,3,03M149,P.S. 149 Sojourner Truth,K-8,M207,P.S. 207 (Tandem M149),41 West 117 Street,DOE Owned,Outdoor Yard 1,18838.0,Outdoor Yard,true,Outdoor,true,False
519,M,3,3,03M149,P.S. 149 Sojourner Truth,K-8,M149,P.S. 149 (Tandem M207) - Manhattan,34 West 118 Street,DOE Owned,127,3840.0,Gymnasium,true,Inside,true,False
520,M,3,3,03M149,P.S. 149 Sojourner Truth,K-8,M149,P.S. 149 (Tandem M207) - Manhattan,34 West 118 Street,DOE Owned,201,728.0,Dance Room,true,Inside,true,False
521,M,3,3,03M149,P.S. 149 Sojourner Truth,K-8,M149,P.S. 149 (Tandem M207) - Manhattan,34 West 118 Street,DOE Owned,Outdoor Yard 1,9210.0,Outdoor Yard,true,Outdoor,true,False
522,M,3,3,03M163,P.S. 163 Alfred E. Smith,Elementary,M163,P.S. 163 - Manhattan,163 West 97 Street,DOE Owned,GYM,3752.0,Gymnasium,true,Inside,true,False
523,M,3,3,03M163,P.S. 163 Alfred E. Smith,Elementary,M919,P.S. 163 Transportable - M,163 West 97 Street,DOE Owned,Outdoor Yard 1,6998.0,Outdoor Yard,true,Outdoor,true,False
524,M,3,3,03M165,P.S. 165 Robert E. Simon,K-8,M165,P.S. 165 - Manhattan,234 West 109 Street,DOE Owned,100,9394.0,Gymnasium,true,Inside,true,False
525,M,3,3,03M165,P.S. 165 Robert E. Simon,K-8,M165,P.S. 165 - Manhattan,234 West 109 Street,DOE Owned,GYM,4712.0,Gymnasium,true,Inside,true,False
526,M,3,3,03M165,P.S. 165 Robert E. Simon,K-8,M165,P.S. 165 - Manhattan,234 West 109 Street,DOE Owned,Outdoor Yard 1,8491.0,Outdoor Yard,true,Outdoor,true,False
527,M,3,3,03M165,P.S. 165 Robert E. Simon,K-8,M165,P.S. 165 - Manhattan,234 West 109 Street,DOE Owned,Outdoor Yard 2,12783.0,Outdoor Yard,true,Outdoor,true,False
528,M,3,3,03M166,P.S. 166 The Richard Rodgers School of The Arts and Technology,Elementary,M166,P.S. 166 - Manhattan,132 West 89 Street,DOE Owned,504,552.0,Dance Room,false,Inside,false,False
529,M,3,3,03M166,P.S. 166 The Richard Rodgers School of The Arts and Technology,Elementary,M166,P.S. 166 - Manhattan,132 West 89 Street,DOE Owned,GYM,6014.0,Gymnasium,false,Inside,false,False
530,M,3,3,03M166,P.S. 166 The Richard Rodgers School of The Arts and Technology,Elementary,M166,P.S. 166 - Manhattan,132 West 89 Street,DOE Owned,Outdoor Yard 1,4664.0,Outdoor Yard,false,Outdoor,false,False
531,M,3,3,03M180,P.S. 180 Hugo Newman,K-8,M180,P.S. 180 - Manhattan,370 West 120Th Street,DOE Owned,GYM,3816.0,Gymnasium,false,Inside,false,False
532,M,3,3,03M180,P.S. 180 Hugo Newman,K-8,M180,P.S. 180 - Manhattan,370 West 120Th Street,DOE Owned,Outdoor Yard 1,20408.0,Outdoor Yard,false,Outdoor,false,False
533,M,3,3,03M180,P.S. 180 Hugo Newman,K-8,M180,P.S. 180 - Manhattan,370 West 120Th Street,DOE Owned,Outdoor Yard 2,6885.0,Outdoor Yard,false,Outdoor,false,False
534,M,3,3,03M185,P.S. 185 - The Early Childhood Discovery and Design Magnet School,Early Childhood,M185,P.S. 185 (Tandem M208) - Manhattan,20 West 112 Street,DOE Owned,158,529.0,Dance Room,true,Inside,true,False
535,M,3,3,03M185,P.S. 185 - The Early Childhood Discovery and Design Magnet School,Early Childhood,M185,P.S. 185 (Tandem M208) - Manhattan,20 West 112 Street,DOE Owned,266,576.0,Dance Room,true,Inside,true,False
536,M,3,3,03M185,P.S. 185 - The Early Childhood Discovery and Design Magnet School,Early Childhood,M185,P.S. 185 (Tandem M208) - Manhattan,20 West 112 Street,DOE Owned,Outdoor Yard 1,31183.0,Outdoor Yard,true,Outdoor,true,False
537,M,3,3,03M191,P.S. 191 Amsterdam,Elementary,M191,P.S. 191 - Manhattan,210 West 61 Street,DOE Owned,225,3944.0,Gymnasium,false,Inside,false,False
538,M,3,3,03M191,P.S. 191 Amsterdam,Elementary,M191,P.S. 191 - Manhattan,210 West 61 Street,DOE Owned,226,736.0,Dance Room,false,Inside,false,False
539,M,3,3,03M191,P.S. 191 Amsterdam,Elementary,M191,P.S. 191 - Manhattan,210 West 61 Street,DOE Owned,Outdoor Yard 1,17257.0,Outdoor Yard,false,Outdoor,false,False
540,M,3,3,03M199,P.S. 199 Jessie Isador Straus,Elementary,M199,P.S. 199 - Manhattan,270 West 70 Street,DOE Owned,GYM,4200.0,Gymnasium,false,Inside,false,False
541,Q,27,27,27Q043,P.S. 043,K-8,Q043,P.S. 43 - Queens,160 Beach 29 Street,DOE Owned,227,3102.0,Gymnasium,true,Inside,true,False
542,M,3,3,03M199,P.S. 199 Jessie Isador Straus,Elementary,M199,P.S. 199 - Manhattan,270 West 70 Street,DOE Owned,Outdoor Yard 1,1922.0,Outdoor Yard,false,Outdoor,false,False
543,M,3,3,03M208,P.S. 208 Alain L. Locke,Elementary,M208,P.S. 208 (Tandem M185) - Manhattan,21 West 111 Street,DOE Owned,GYM,2900.0,Gymnasium,true,Inside,true,False
544,M,3,3,03M208,P.S. 208 Alain L. Locke,Elementary,M208,P.S. 208 (Tandem M185) - Manhattan,21 West 111 Street,DOE Owned,Outdoor Yard 1,31108.0,Outdoor Yard,true,Outdoor,true,False
545,M,3,3,03M241,STEM Institute of Manhattan,K-8,M113,P.S. 241 - Manhattan,240 West 113 Street,DOE Owned,115,644.0,Dance Room,true,Inside,true,False
546,M,3,3,03M241,STEM Institute of Manhattan,K-8,M113,P.S. 241 - Manhattan,240 West 113 Street,DOE Owned,124,3135.0,Gymnasium,true,Inside,true,False
547,M,3,3,03M241,STEM Institute of Manhattan,K-8,M113,P.S. 241 - Manhattan,240 West 113 Street,DOE Owned,321,624.0,Dance Room,true,Inside,true,False
548,M,3,3,03M241,STEM Institute of Manhattan,K-8,M113,P.S. 241 - Manhattan,240 West 113 Street,DOE Owned,EL GYM,4392.0,Gymnasium,true,Inside,true,False
549,M,3,3,03M241,STEM Institute of Manhattan,K-8,M113,P.S. 241 - Manhattan,240 West 113 Street,DOE Owned,Outdoor Yard 1,26616.0,Outdoor Yard,true,Outdoor,true,False
550,M,3,3,03M242,P.S. 242 - The Young Diplomats Magnet Academy,Elementary,M144,P.S. 242 (Old P144) - Manhattan,134 West 122 Street,DOE Owned,GYM,4032.0,Gymnasium,true,Inside,true,False
551,M,3,3,03M242,P.S. 242 - The Young Diplomats Magnet Academy,Elementary,M144,P.S. 242 (Old P144) - Manhattan,134 West 122 Street,DOE Owned,Outdoor Yard 1,28550.0,Outdoor Yard,true,Outdoor,true,False
552,M,3,3,03M242,P.S. 242 - The Young Diplomats Magnet Academy,Elementary,M144,P.S. 242 (Old P144) - Manhattan,134 West 122 Street,DOE Owned,Outdoor Yard 2,6090.0,Outdoor Yard,true,Outdoor,true,False
553,M,3,3,03M243,M.S. 243 Center School,Junior High-Intermediate-Middle,M009,P.S. 9 - Manhattan,100 West 84 Street,DOE Owned,GYM,3886.0,Gymnasium,true,Inside,true,False
554,M,3,3,03M243,M.S. 243 Center School,Junior High-Intermediate-Middle,M009,P.S. 9 - Manhattan,100 West 84 Street,DOE Owned,Outdoor Yard 1,33095.0,Outdoor Yard,true,Outdoor,true,False
555,M,3,3,03M245,M.S. M245 The Computer School,Junior High-Intermediate-Middle,M044,I.S. 44 - Manhattan,100 West 77 Street,DOE Owned,237,960.0,Dance Room,true,Inside,true,False
556,M,3,3,03M245,M.S. M245 The Computer School,Junior High-Intermediate-Middle,M044,I.S. 44 - Manhattan,100 West 77 Street,DOE Owned,GYM,6222.0,Gymnasium,true,Inside,true,False
557,M,3,3,03M245,M.S. M245 The Computer School,Junior High-Intermediate-Middle,M044,I.S. 44 - Manhattan,100 West 77 Street,DOE Owned,Outdoor Yard 1,36197.0,Outdoor Yard,true,Outdoor,true,False
558,M,3,3,03M247,M.S. M247 Dual Language Middle School,Junior High-Intermediate-Middle,M084,P.S. 84 - Manhattan,32 West 92 Street,DOE Owned,308,648.0,Dance Room,true,Inside,true,False
559,M,3,3,03M247,M.S. M247 Dual Language Middle School,Junior High-Intermediate-Middle,M084,P.S. 84 - Manhattan,32 West 92 Street,DOE Owned,GYM,3886.0,Gymnasium,true,Inside,true,False
560,M,3,3,03M247,M.S. M247 Dual Language Middle School,Junior High-Intermediate-Middle,M084,P.S. 84 - Manhattan,32 West 92 Street,DOE Owned,Outdoor Yard 1,3239.0,Outdoor Yard,true,Outdoor,true,False
561,M,3,3,03M250,M.S. 250 West Side Collaborative Middle School,Junior High-Intermediate-Middle,M075,P.S. 75 - Manhattan,735 West End Avenue,DOE Owned,GYM,3740.0,Gymnasium,true,Inside,true,False
562,M,3,3,03M250,M.S. 250 West Side Collaborative Middle School,Junior High-Intermediate-Middle,M075,P.S. 75 - Manhattan,735 West End Avenue,DOE Owned,Outdoor Yard 1,3782.0,Outdoor Yard,true,Outdoor,true,False
563,M,3,3,03M250,M.S. 250 West Side Collaborative Middle School,Junior High-Intermediate-Middle,M075,P.S. 75 - Manhattan,735 West End Avenue,DOE Owned,Outdoor Yard 2,19617.0,Outdoor Yard,true,Outdoor,true,False
564,M,3,3,03M256,M.S. 256 Academic & Athletic Excellence,Junior High-Intermediate-Middle,M118,I.S. 118 - Manhattan,154 West 93 Street,DOE Owned,403,1254.0,Dance Room,true,Inside,true,False
565,M,3,3,03M256,M.S. 256 Academic & Athletic Excellence,Junior High-Intermediate-Middle,M118,I.S. 118 - Manhattan,154 West 93 Street,DOE Owned,GYM,4015.0,Gymnasium,true,Inside,true,False
566,M,3,3,03M256,M.S. 256 Academic & Athletic Excellence,Junior High-Intermediate-Middle,M118,I.S. 118 - Manhattan,154 West 93 Street,DOE Owned,GYM 2FL,4015.0,Gymnasium,true,Inside,true,False
567,M,3,3,03M256,M.S. 256 Academic & Athletic Excellence,Junior High-Intermediate-Middle,M118,I.S. 118 - Manhattan,154 West 93 Street,DOE Owned,Outdoor Yard 1,6888.0,Outdoor Yard,true,Outdoor,true,False
568,M,3,3,03M256,M.S. 256 Academic & Athletic Excellence,Junior High-Intermediate-Middle,M118,I.S. 118 - Manhattan,154 West 93 Street,DOE Owned,Outdoor Yard 2,15031.0,Outdoor Yard,true,Outdoor,true,False
569,M,3,3,03M258,Community Action School - MS 258,Junior High-Intermediate-Middle,M118,I.S. 118 - Manhattan,154 West 93 Street,DOE Owned,403,1254.0,Dance Room,true,Inside,true,False
570,M,3,3,03M258,Community Action School - MS 258,Junior High-Intermediate-Middle,M118,I.S. 118 - Manhattan,154 West 93 Street,DOE Owned,GYM,4015.0,Gymnasium,true,Inside,true,False
571,M,3,3,03M258,Community Action School - MS 258,Junior High-Intermediate-Middle,M118,I.S. 118 - Manhattan,154 West 93 Street,DOE Owned,GYM 2FL,4015.0,Gymnasium,true,Inside,true,False
572,M,3,3,03M258,Community Action School - MS 258,Junior High-Intermediate-Middle,M118,I.S. 118 - Manhattan,154 West 93 Street,DOE Owned,Outdoor Yard 1,6888.0,Outdoor Yard,true,Outdoor,true,False
573,M,3,3,03M258,Community Action School - MS 258,Junior High-Intermediate-Middle,M118,I.S. 118 - Manhattan,154 West 93 Street,DOE Owned,Outdoor Yard 2,15031.0,Outdoor Yard,true,Outdoor,true,False
574,M,3,3,03M299,The Maxine Greene HS for Imaginative Inquiry,High school,M490,"Martin Luther King, Jr. Hs - M",122 Amsterdam Avenue,DOE Owned,G10,1716.0,Swimming Pool,true,Inside,true,False
575,M,3,3,03M299,The Maxine Greene HS for Imaginative Inquiry,High school,M490,"Martin Luther King, Jr. Hs - M",122 Amsterdam Avenue,DOE Owned,G1E,1210.0,Weight Room,true,Inside,true,False
576,M,3,3,03M299,The Maxine Greene HS for Imaginative Inquiry,High school,M490,"Martin Luther King, Jr. Hs - M",122 Amsterdam Avenue,DOE Owned,G9,1210.0,Dance Room,true,Inside,true,False
577,M,3,3,03M299,The Maxine Greene HS for Imaginative Inquiry,High school,M490,"Martin Luther King, Jr. Hs - M",122 Amsterdam Avenue,DOE Owned,GYM-1,4559.0,Gymnasium,true,Inside,true,False
578,M,3,3,03M299,The Maxine Greene HS for Imaginative Inquiry,High school,M490,"Martin Luther King, Jr. Hs - M",122 Amsterdam Avenue,DOE Owned,GYM-2,8827.0,Gymnasium,true,Inside,true,False
579,M,3,3,03M307,"Urban Assembly School for Media Studies, The",High school,M490,"Martin Luther King, Jr. Hs - M",122 Amsterdam Avenue,DOE Owned,G10,1716.0,Swimming Pool,true,Inside,true,False
580,M,3,3,03M307,"Urban Assembly School for Media Studies, The",High school,M490,"Martin Luther King, Jr. Hs - M",122 Amsterdam Avenue,DOE Owned,G1E,1210.0,Weight Room,true,Inside,true,False
581,M,3,3,03M307,"Urban Assembly School for Media Studies, The",High school,M490,"Martin Luther King, Jr. Hs - M",122 Amsterdam Avenue,DOE Owned,G9,1210.0,Dance Room,true,Inside,true,False
582,M,3,3,03M307,"Urban Assembly School for Media Studies, The",High school,M490,"Martin Luther King, Jr. Hs - M",122 Amsterdam Avenue,DOE Owned,GYM-1,4559.0,Gymnasium,true,Inside,true,False
583,M,3,3,03M307,"Urban Assembly School for Media Studies, The",High school,M490,"Martin Luther King, Jr. Hs - M",122 Amsterdam Avenue,DOE Owned,GYM-2,8827.0,Gymnasium,true,Inside,true,False
584,M,3,3,03M333,P.S. 333 Manhattan School for Children,K-8,M118,I.S. 118 - Manhattan,154 West 93 Street,DOE Owned,403,1254.0,Dance Room,true,Inside,true,False
585,M,3,3,03M333,P.S. 333 Manhattan School for Children,K-8,M118,I.S. 118 - Manhattan,154 West 93 Street,DOE Owned,GYM,4015.0,Gymnasium,true,Inside,true,False
586,M,3,3,03M333,P.S. 333 Manhattan School for Children,K-8,M118,I.S. 118 - Manhattan,154 West 93 Street,DOE Owned,GYM 2FL,4015.0,Gymnasium,true,Inside,true,False
587,M,3,3,03M333,P.S. 333 Manhattan School for Children,K-8,M118,I.S. 118 - Manhattan,154 West 93 Street,DOE Owned,Outdoor Yard 1,6888.0,Outdoor Yard,true,Outdoor,true,False
588,M,3,3,03M333,P.S. 333 Manhattan School for Children,K-8,M118,I.S. 118 - Manhattan,154 West 93 Street,DOE Owned,Outdoor Yard 2,15031.0,Outdoor Yard,true,Outdoor,true,False
589,M,3,3,03M334,The Anderson School,K-8,M044,I.S. 44 - Manhattan,100 West 77 Street,DOE Owned,Outdoor Yard 1,36197.0,Outdoor Yard,true,Outdoor,true,False
590,M,3,3,03M402,The Urban Assembly School for Green Careers,High school,M470,Louis D. Brandeis Hs - Manhattan,145 West 84 Street,DOE Owned,B1,1000.0,Weight Room,true,Inside,true,False
591,M,3,3,03M402,The Urban Assembly School for Green Careers,High school,M470,Louis D. Brandeis Hs - Manhattan,145 West 84 Street,DOE Owned,B7SC,720.0,Weight Room,true,Inside,true,False
592,M,3,3,03M402,The Urban Assembly School for Green Careers,High school,M470,Louis D. Brandeis Hs - Manhattan,145 West 84 Street,DOE Owned,C1,2408.0,Gymnasium,true,Inside,true,False
593,M,3,3,03M402,The Urban Assembly School for Green Careers,High school,M470,Louis D. Brandeis Hs - Manhattan,145 West 84 Street,DOE Owned,C14,7920.0,Gymnasium,true,Inside,true,False
594,M,3,3,03M402,The Urban Assembly School for Green Careers,High school,M470,Louis D. Brandeis Hs - Manhattan,145 West 84 Street,DOE Owned,C16,741.0,Dance Room,true,Inside,true,False
595,M,3,3,03M402,The Urban Assembly School for Green Careers,High school,M470,Louis D. Brandeis Hs - Manhattan,145 West 84 Street,DOE Owned,C2,2408.0,Gymnasium,true,Inside,true,False
596,M,3,3,03M403,The Global Learning Collaborative,High school,M470,Louis D. Brandeis Hs - Manhattan,145 West 84 Street,DOE Owned,B1,1000.0,Weight Room,true,Inside,true,False
597,M,3,3,03M403,The Global Learning Collaborative,High school,M470,Louis D. Brandeis Hs - Manhattan,145 West 84 Street,DOE Owned,B7SC,720.0,Weight Room,true,Inside,true,False
598,M,3,3,03M403,The Global Learning Collaborative,High school,M470,Louis D. Brandeis Hs - Manhattan,145 West 84 Street,DOE Owned,C1,2408.0,Gymnasium,true,Inside,true,False
599,M,3,3,03M403,The Global Learning Collaborative,High school,M470,Louis D. Brandeis Hs - Manhattan,145 West 84 Street,DOE Owned,C14,7920.0,Gymnasium,true,Inside,true,False
600,M,3,3,03M403,The Global Learning Collaborative,High school,M470,Louis D. Brandeis Hs - Manhattan,145 West 84 Street,DOE Owned,C16,741.0,Dance Room,true,Inside,true,False
601,M,3,3,03M403,The Global Learning Collaborative,High school,M470,Louis D. Brandeis Hs - Manhattan,145 West 84 Street,DOE Owned,C2,2408.0,Gymnasium,true,Inside,true,False
602,M,3,3,03M404,Innovation Diploma Plus,High school,M470,Louis D. Brandeis Hs - Manhattan,145 West 84 Street,DOE Owned,B1,1000.0,Weight Room,true,Inside,true,False
603,M,3,3,03M404,Innovation Diploma Plus,High school,M470,Louis D. Brandeis Hs - Manhattan,145 West 84 Street,DOE Owned,B7SC,720.0,Weight Room,true,Inside,true,False
604,M,3,3,03M404,Innovation Diploma Plus,High school,M470,Louis D. Brandeis Hs - Manhattan,145 West 84 Street,DOE Owned,C1,2408.0,Gymnasium,true,Inside,true,False
605,M,3,3,03M404,Innovation Diploma Plus,High school,M470,Louis D. Brandeis Hs - Manhattan,145 West 84 Street,DOE Owned,C14,7920.0,Gymnasium,true,Inside,true,False
606,M,3,3,03M404,Innovation Diploma Plus,High school,M470,Louis D. Brandeis Hs - Manhattan,145 West 84 Street,DOE Owned,C16,741.0,Dance Room,true,Inside,true,False
607,M,3,3,03M404,Innovation Diploma Plus,High school,M470,Louis D. Brandeis Hs - Manhattan,145 West 84 Street,DOE Owned,C2,2408.0,Gymnasium,true,Inside,true,False
608,M,3,3,03M415,Wadleigh Secondary School for the Performing & Visual Arts,Secondary School,M088,I.S. 88 - Manhattan,215 West 114 Street,DOE Owned,108,962.0,Dance Room,true,Inside,true,False
609,M,3,3,03M415,Wadleigh Secondary School for the Performing & Visual Arts,Secondary School,M088,I.S. 88 - Manhattan,215 West 114 Street,DOE Owned,1-GYM,2409.0,Gymnasium,true,Inside,true,False
610,M,3,3,03M415,Wadleigh Secondary School for the Performing & Visual Arts,Secondary School,M088,I.S. 88 - Manhattan,215 West 114 Street,DOE Owned,2-GYM,7200.0,Gymnasium,true,Inside,true,False
611,M,3,3,03M415,Wadleigh Secondary School for the Performing & Visual Arts,Secondary School,M088,I.S. 88 - Manhattan,215 West 114 Street,DOE Owned,Outdoor Yard 1,5766.0,Outdoor Yard,true,Outdoor,true,False
612,M,3,3,03M415,Wadleigh Secondary School for the Performing & Visual Arts,Secondary School,M088,I.S. 88 - Manhattan,215 West 114 Street,DOE Owned,Outdoor Yard 2,2082.0,Outdoor Yard,true,Outdoor,true,False
613,M,3,3,03M415,Wadleigh Secondary School for the Performing & Visual Arts,Secondary School,M088,I.S. 88 - Manhattan,215 West 114 Street,DOE Owned,Outdoor Yard 3,1282.0,Outdoor Yard,true,Outdoor,true,False
614,M,3,3,03M417,Frank Mccourt High School,High school,M470,Louis D. Brandeis Hs - Manhattan,145 West 84 Street,DOE Owned,B1,1000.0,Weight Room,true,Inside,true,False
615,M,3,3,03M417,Frank Mccourt High School,High school,M470,Louis D. Brandeis Hs - Manhattan,145 West 84 Street,DOE Owned,B7SC,720.0,Weight Room,true,Inside,true,False
616,M,3,3,03M417,Frank Mccourt High School,High school,M470,Louis D. Brandeis Hs - Manhattan,145 West 84 Street,DOE Owned,C1,2408.0,Gymnasium,true,Inside,true,False
617,M,3,3,03M417,Frank Mccourt High School,High school,M470,Louis D. Brandeis Hs - Manhattan,145 West 84 Street,DOE Owned,C14,7920.0,Gymnasium,true,Inside,true,False
618,M,3,3,03M417,Frank Mccourt High School,High school,M470,Louis D. Brandeis Hs - Manhattan,145 West 84 Street,DOE Owned,C16,741.0,Dance Room,true,Inside,true,False
619,M,3,3,03M417,Frank Mccourt High School,High school,M470,Louis D. Brandeis Hs - Manhattan,145 West 84 Street,DOE Owned,C2,2408.0,Gymnasium,true,Inside,true,False
620,M,3,3,03M421,West Prep Academy,Junior High-Intermediate-Middle,M145,P.S. 145 - Manhattan,150 West 105 Street,DOE Owned,201,4060.0,Gymnasium,true,Inside,true,False
621,M,3,3,03M421,West Prep Academy,Junior High-Intermediate-Middle,M145,P.S. 145 - Manhattan,150 West 105 Street,DOE Owned,213,702.0,Dance Room,true,Inside,true,False
622,M,3,3,03M421,West Prep Academy,Junior High-Intermediate-Middle,M145,P.S. 145 - Manhattan,150 West 105 Street,DOE Owned,Outdoor Yard 1,1125.0,Outdoor Yard,true,Outdoor,true,False
623,M,3,3,03M421,West Prep Academy,Junior High-Intermediate-Middle,M145,P.S. 145 - Manhattan,150 West 105 Street,DOE Owned,Outdoor Yard 2,3479.0,Outdoor Yard,true,Outdoor,true,False
624,M,3,3,03M452,P.S. 452,Elementary,M044,I.S. 44 - Manhattan,100 West 77 Street,DOE Owned,GYM,6222.0,Gymnasium,true,Inside,true,False
625,M,3,3,03M452,P.S. 452,Elementary,M044,I.S. 44 - Manhattan,100 West 77 Street,DOE Owned,Outdoor Yard 1,36197.0,Outdoor Yard,true,Outdoor,true,False
626,M,2,2,03M479,Beacon High School,High school,M912,Beacon High School - Manhattan,522 West 44Th Street,DOE Owned,226,2200.0,Auxiliary Exercise Room,true,Inside,true,False
627,M,2,2,03M479,Beacon High School,High school,M912,Beacon High School - Manhattan,522 West 44Th Street,DOE Owned,608,2613.0,Dance Room,true,Inside,true,False
628,M,2,2,03M479,Beacon High School,High school,M912,Beacon High School - Manhattan,522 West 44Th Street,DOE Owned,611,510.0,Auxiliary Exercise Room,true,Inside,true,False
629,M,2,2,03M479,Beacon High School,High school,M912,Beacon High School - Manhattan,522 West 44Th Street,DOE Owned,702,6324.0,Gymnasium,true,Inside,true,False
630,M,3,3,03M485,Fiorello H. LaGuardia High School of Music & Art and Performing Arts,High school,M485,Fiorello Laguardia Hs - Manhattan,100 Amsterdam Avenue,DOE Owned,308,8585.0,Gymnasium,false,Inside,false,False
631,M,3,3,03M485,Fiorello H. LaGuardia High School of Music & Art and Performing Arts,High school,M485,Fiorello Laguardia Hs - Manhattan,100 Amsterdam Avenue,DOE Owned,343/345,1450.0,Weight Room,false,Inside,false,False
632,M,3,3,03M485,Fiorello H. LaGuardia High School of Music & Art and Performing Arts,High school,M485,Fiorello Laguardia Hs - Manhattan,100 Amsterdam Avenue,DOE Owned,806,2200.0,Dance Room,false,Inside,false,False
633,M,3,3,03M485,Fiorello H. LaGuardia High School of Music & Art and Performing Arts,High school,M485,Fiorello Laguardia Hs - Manhattan,100 Amsterdam Avenue,DOE Owned,808,2100.0,Dance Room,false,Inside,false,False
634,M,3,3,03M485,Fiorello H. LaGuardia High School of Music & Art and Performing Arts,High school,M485,Fiorello Laguardia Hs - Manhattan,100 Amsterdam Avenue,DOE Owned,838,2200.0,Dance Room,false,Inside,false,False
635,M,3,3,03M485,Fiorello H. LaGuardia High School of Music & Art and Performing Arts,High school,M485,Fiorello Laguardia Hs - Manhattan,100 Amsterdam Avenue,DOE Owned,840,2100.0,Dance Room,false,Inside,false,False
636,M,3,3,03M485,Fiorello H. LaGuardia High School of Music & Art and Performing Arts,High school,M485,Fiorello Laguardia Hs - Manhattan,100 Amsterdam Avenue,DOE Owned,857,744.0,Dance Room,false,Inside,false,False
637,M,3,3,03M492,"High School for Law, Advocacy and Community Justice",High school,M490,"Martin Luther King, Jr. Hs - M",122 Amsterdam Avenue,DOE Owned,G10,1716.0,Swimming Pool,true,Inside,true,False
638,M,3,3,03M492,"High School for Law, Advocacy and Community Justice",High school,M490,"Martin Luther King, Jr. Hs - M",122 Amsterdam Avenue,DOE Owned,G1E,1210.0,Weight Room,true,Inside,true,False
639,M,3,3,03M492,"High School for Law, Advocacy and Community Justice",High school,M490,"Martin Luther King, Jr. Hs - M",122 Amsterdam Avenue,DOE Owned,G9,1210.0,Dance Room,true,Inside,true,False
640,M,3,3,03M492,"High School for Law, Advocacy and Community Justice",High school,M490,"Martin Luther King, Jr. Hs - M",122 Amsterdam Avenue,DOE Owned,GYM-1,4559.0,Gymnasium,true,Inside,true,False
641,M,3,3,03M492,"High School for Law, Advocacy and Community Justice",High school,M490,"Martin Luther King, Jr. Hs - M",122 Amsterdam Avenue,DOE Owned,GYM-2,8827.0,Gymnasium,true,Inside,true,False
642,M,3,3,03M494,High School of Arts and Technology,High school,M490,"Martin Luther King, Jr. Hs - M",122 Amsterdam Avenue,DOE Owned,G10,1716.0,Swimming Pool,true,Inside,true,False
643,M,3,3,03M494,High School of Arts and Technology,High school,M490,"Martin Luther King, Jr. Hs - M",122 Amsterdam Avenue,DOE Owned,G1E,1210.0,Weight Room,true,Inside,true,False
644,M,3,3,03M494,High School of Arts and Technology,High school,M490,"Martin Luther King, Jr. Hs - M",122 Amsterdam Avenue,DOE Owned,G9,1210.0,Dance Room,true,Inside,true,False
645,M,3,3,03M494,High School of Arts and Technology,High school,M490,"Martin Luther King, Jr. Hs - M",122 Amsterdam Avenue,DOE Owned,GYM-1,4559.0,Gymnasium,true,Inside,true,False
646,M,3,3,03M494,High School of Arts and Technology,High school,M490,"Martin Luther King, Jr. Hs - M",122 Amsterdam Avenue,DOE Owned,GYM-2,8827.0,Gymnasium,true,Inside,true,False
647,M,3,3,03M505,Edward A. Reynolds West Side High School,High school,M506,Edward A. Reynolds West Side Hs- M,140 West 102 Street,DOE Owned,B19,522.0,Weight Room,false,Inside,false,False
648,M,3,3,03M505,Edward A. Reynolds West Side High School,High school,M506,Edward A. Reynolds West Side Hs- M,140 West 102 Street,DOE Owned,GYM,7254.0,Gymnasium,false,Inside,false,False
649,M,3,3,03M541,Manhattan / Hunter Science High School,High school,M490,"Martin Luther King, Jr. Hs - M",122 Amsterdam Avenue,DOE Owned,G10,1716.0,Swimming Pool,true,Inside,true,False
650,M,3,3,03M541,Manhattan / Hunter Science High School,High school,M490,"Martin Luther King, Jr. Hs - M",122 Amsterdam Avenue,DOE Owned,G1E,1210.0,Weight Room,true,Inside,true,False
651,M,3,3,03M541,Manhattan / Hunter Science High School,High school,M490,"Martin Luther King, Jr. Hs - M",122 Amsterdam Avenue,DOE Owned,G9,1210.0,Dance Room,true,Inside,true,False
652,M,3,3,03M541,Manhattan / Hunter Science High School,High school,M490,"Martin Luther King, Jr. Hs - M",122 Amsterdam Avenue,DOE Owned,GYM-1,4559.0,Gymnasium,true,Inside,true,False
653,M,3,3,03M541,Manhattan / Hunter Science High School,High school,M490,"Martin Luther King, Jr. Hs - M",122 Amsterdam Avenue,DOE Owned,GYM-2,8827.0,Gymnasium,true,Inside,true,False
654,M,3,3,03M859,Special Music School,K-8,M932,P.S. 199 Annex - Manhattan,129 West 67 Street,Tax Levy Lease,309,528.0,Gymnasium,true,Inside,true,False
655,M,3,3,03M859,Special Music School,K-8,M932,P.S. 199 Annex - Manhattan,129 West 67 Street,Tax Levy Lease,409,858.0,Gymnasium,true,Inside,true,False
656,M,3,3,03M859,Special Music School,K-8,M490,"Martin Luther King, Jr. Hs - M",122 Amsterdam Avenue,DOE Owned,G10,1716.0,Swimming Pool,true,Inside,true,False
657,M,3,3,03M859,Special Music School,K-8,M490,"Martin Luther King, Jr. Hs - M",122 Amsterdam Avenue,DOE Owned,G1E,1210.0,Weight Room,true,Inside,true,False
658,M,3,3,03M859,Special Music School,K-8,M490,"Martin Luther King, Jr. Hs - M",122 Amsterdam Avenue,DOE Owned,G9,1210.0,Dance Room,true,Inside,true,False
659,M,3,3,03M859,Special Music School,K-8,M490,"Martin Luther King, Jr. Hs - M",122 Amsterdam Avenue,DOE Owned,GYM-1,4559.0,Gymnasium,true,Inside,true,False
660,M,3,3,03M859,Special Music School,K-8,M490,"Martin Luther King, Jr. Hs - M",122 Amsterdam Avenue,DOE Owned,GYM-2,8827.0,Gymnasium,true,Inside,true,False
661,M,3,3,03M860,Frederick Douglass Academy II Secondary School,Secondary School,M088,I.S. 88 - Manhattan,215 West 114 Street,DOE Owned,108,962.0,Dance Room,true,Inside,true,False
662,M,3,3,03M860,Frederick Douglass Academy II Secondary School,Secondary School,M088,I.S. 88 - Manhattan,215 West 114 Street,DOE Owned,1-GYM,2409.0,Gymnasium,true,Inside,true,False
663,M,3,3,03M860,Frederick Douglass Academy II Secondary School,Secondary School,M088,I.S. 88 - Manhattan,215 West 114 Street,DOE Owned,2-GYM,7200.0,Gymnasium,true,Inside,true,False
664,M,4,4,04M409,Coalition School for Social Change,High school,M045,I.S. 45 - Manhattan,2351 First Avenue,DOE Owned,250,6500.0,Gymnasium,true,Inside,true,False
665,M,3,3,03M860,Frederick Douglass Academy II Secondary School,Secondary School,M088,I.S. 88 - Manhattan,215 West 114 Street,DOE Owned,Outdoor Yard 1,5766.0,Outdoor Yard,true,Outdoor,true,False
666,M,3,3,03M860,Frederick Douglass Academy II Secondary School,Secondary School,M088,I.S. 88 - Manhattan,215 West 114 Street,DOE Owned,Outdoor Yard 2,2082.0,Outdoor Yard,true,Outdoor,true,False
667,M,3,3,03M860,Frederick Douglass Academy II Secondary School,Secondary School,M088,I.S. 88 - Manhattan,215 West 114 Street,DOE Owned,Outdoor Yard 3,1282.0,Outdoor Yard,true,Outdoor,true,False
668,M,3,3,03M862,Mott Hall II,Junior High-Intermediate-Middle,M165,P.S. 165 - Manhattan,234 West 109 Street,DOE Owned,100,9394.0,Gymnasium,true,Inside,true,False
669,M,3,3,03M862,Mott Hall II,Junior High-Intermediate-Middle,M165,P.S. 165 - Manhattan,234 West 109 Street,DOE Owned,GYM,4712.0,Gymnasium,true,Inside,true,False
670,M,3,3,03M862,Mott Hall II,Junior High-Intermediate-Middle,M165,P.S. 165 - Manhattan,234 West 109 Street,DOE Owned,Outdoor Yard 1,8491.0,Outdoor Yard,true,Outdoor,true,False
671,M,3,3,03M862,Mott Hall II,Junior High-Intermediate-Middle,M165,P.S. 165 - Manhattan,234 West 109 Street,DOE Owned,Outdoor Yard 2,12783.0,Outdoor Yard,true,Outdoor,true,False
672,M,4,4,04M007,P.S. 007 Samuel Stern,K-8,M007,P.S. 7 - Manhattan,160 East 120 Street,DOE Owned,Outdoor Yard 1,17057.0,Outdoor Yard,true,Outdoor,true,False
673,M,4,4,04M012,Tag Young Scholars,K-8,M117,J.H.S. 117 - Manhattan,240 East 109 Street,DOE Owned,GYM,7056.0,Gymnasium,true,Inside,true,False
674,M,4,4,04M037,River East Elementary,Elementary,M206,P.S. 206 (Tandem M112) - Manhattan,508 East 120 Street,DOE Owned,243,675.0,Dance Room,true,Inside,true,False
675,M,4,4,04M037,River East Elementary,Elementary,M206,P.S. 206 (Tandem M112) - Manhattan,508 East 120 Street,DOE Owned,245,675.0,Dance Room,true,Inside,true,False
676,M,4,4,04M038,P.S. 38 Roberto Clemente,Elementary,M121,P.S. 38 (Old M121) - Manhattan,232 East 103 Street,DOE Owned,133,3700.0,Gymnasium,true,Inside,true,False
677,M,4,4,04M050,P.S. 050 Vito Marcantonio,K-8,M050,P.S. 50 (Udc) - Manhattan,433 East 100 Street,DOE Owned,307,2820.0,Dance Room,true,Inside,true,False
678,M,4,4,04M050,P.S. 050 Vito Marcantonio,K-8,M050,P.S. 50 (Udc) - Manhattan,433 East 100 Street,DOE Owned,G11,930.0,Gymnasium,true,Inside,true,False
679,M,4,4,04M050,P.S. 050 Vito Marcantonio,K-8,M050,P.S. 50 (Udc) - Manhattan,433 East 100 Street,DOE Owned,GYM,3233.0,Gymnasium,true,Inside,true,False
680,M,4,4,04M050,P.S. 050 Vito Marcantonio,K-8,M050,P.S. 50 (Udc) - Manhattan,433 East 100 Street,DOE Owned,Outdoor Yard 1,7724.0,Outdoor Yard,true,Outdoor,true,False
681,M,4,4,04M050,P.S. 050 Vito Marcantonio,K-8,M050,P.S. 50 (Udc) - Manhattan,433 East 100 Street,DOE Owned,Outdoor Yard 2,25778.0,Outdoor Yard,true,Outdoor,true,False
682,M,4,4,04M057,James Weldon Johnson,K-8,M057,P.S. 57 - Manhattan,176 East 115 Street,DOE Owned,202,4565.0,Gymnasium,false,Inside,false,False
683,M,4,4,04M057,James Weldon Johnson,K-8,M057,P.S. 57 - Manhattan,176 East 115 Street,DOE Owned,202A,357.0,Weight Room,false,Inside,false,False
684,M,4,4,04M072,The Lexington Academy,Elementary,M072,P.S. 72 - Manhattan,131 East 104 Street,DOE Owned,211,1232.0,Gymnasium,false,Inside,false,False
685,M,4,4,04M072,The Lexington Academy,Elementary,M072,P.S. 72 - Manhattan,131 East 104 Street,DOE Owned,Outdoor Yard 1,9898.0,Outdoor Yard,false,Outdoor,false,False
686,M,4,4,04M083,P.S. 083 Luis Munoz Rivera,Elementary,M083,P.S. 83 - Manhattan,219 East 109 Street,DOE Owned,GYM,4050.0,Gymnasium,true,Inside,true,False
687,M,4,4,04M083,P.S. 083 Luis Munoz Rivera,Elementary,M083,P.S. 83 - Manhattan,219 East 109 Street,DOE Owned,Outdoor Yard 1,32235.0,Outdoor Yard,true,Outdoor,true,False
688,M,4,4,04M096,P.S. 096 Joseph Lanzetta,K-8,M096,P.S. 96 - Manhattan,216 East 120 Street,DOE Owned,311,625.0,Dance Room,true,Inside,true,False
689,M,4,4,04M096,P.S. 096 Joseph Lanzetta,K-8,M096,P.S. 96 - Manhattan,216 East 120 Street,DOE Owned,GYM,4050.0,Gymnasium,true,Inside,true,False
690,M,4,4,04M096,P.S. 096 Joseph Lanzetta,K-8,M096,P.S. 96 - Manhattan,216 East 120 Street,DOE Owned,Outdoor Yard 1,28077.0,Outdoor Yard,true,Outdoor,true,False
691,M,4,4,04M102,P.S. 102 Jacques Cartier,Elementary,M102,P.S. 102 - Manhattan,315 East 113 Street,DOE Owned,GYM,3864.0,Gymnasium,true,Inside,true,False
692,M,4,4,04M108,P.S. 108 Assemblyman Angelo Del Toro Educational Complex,K-8,M108,P.S. 108 - Manhattan,1615 Madison Avenue,DOE Owned,GYM,3975.0,Gymnasium,true,Inside,true,False
693,M,4,4,04M108,P.S. 108 Assemblyman Angelo Del Toro Educational Complex,K-8,M108,P.S. 108 - Manhattan,1615 Madison Avenue,DOE Owned,Outdoor Yard 1,1899.0,Outdoor Yard,true,Outdoor,true,False
694,M,4,4,04M108,P.S. 108 Assemblyman Angelo Del Toro Educational Complex,K-8,M108,P.S. 108 - Manhattan,1615 Madison Avenue,DOE Owned,Outdoor Yard 2,5733.0,Outdoor Yard,true,Outdoor,true,False
695,M,4,4,04M112,P.S. 112 Jose Celso Barbosa,Early Childhood,M112,P.S. 112 (Tandem M206) - Manhattan,535 East 119 Street,DOE Owned,126,690.0,Dance Room,true,Inside,true,False
696,M,4,4,04M112,P.S. 112 Jose Celso Barbosa,Early Childhood,M112,P.S. 112 (Tandem M206) - Manhattan,535 East 119 Street,DOE Owned,Outdoor Yard 1,7796.0,Outdoor Yard,true,Outdoor,true,False
697,M,4,4,04M146,P.S. 146 Ann M. Short,Elementary,M146,P.S. 146 - Manhattan,421 East 106 Street,DOE Owned,GYM,3900.0,Gymnasium,true,Inside,true,False
698,M,4,4,04M146,P.S. 146 Ann M. Short,Elementary,M146,P.S. 146 - Manhattan,421 East 106 Street,DOE Owned,Outdoor Yard 1,3009.0,Outdoor Yard,true,Outdoor,true,False
699,M,4,4,04M155,P.S. 155 William Paca,Elementary,M155,P.S. 155 - Manhattan,319 East 117 Street,DOE Owned,325/327,1400.0,Dance Room,true,Inside,true,False
700,M,4,4,04M155,P.S. 155 William Paca,Elementary,M155,P.S. 155 - Manhattan,319 East 117 Street,DOE Owned,GYM,3795.0,Gymnasium,true,Inside,true,False
701,M,4,4,04M155,P.S. 155 William Paca,Elementary,M155,P.S. 155 - Manhattan,319 East 117 Street,DOE Owned,Outdoor Yard 1,5808.0,Outdoor Yard,true,Outdoor,true,False
702,M,4,4,04M171,P.S. 171 Patrick Henry,K-8,M171,P.S. 171 - Manhattan,19 East 103 Street,DOE Owned,GYM,5355.0,Gymnasium,true,Inside,true,False
703,M,4,4,04M171,P.S. 171 Patrick Henry,K-8,M171,P.S. 171 - Manhattan,19 East 103 Street,DOE Owned,Outdoor Yard 2,14827.0,Outdoor Yard,true,Outdoor,true,False
704,M,4,4,04M182,The Bilingual Bicultural School,Elementary,M083,P.S. 83 - Manhattan,219 East 109 Street,DOE Owned,GYM,4050.0,Gymnasium,true,Inside,true,False
705,M,4,4,04M182,The Bilingual Bicultural School,Elementary,M083,P.S. 83 - Manhattan,219 East 109 Street,DOE Owned,Outdoor Yard 1,32235.0,Outdoor Yard,true,Outdoor,true,False
706,M,4,4,04M206,P.S. 206 Jose Celso Barbosa,Elementary,M206,P.S. 206 (Tandem M112) - Manhattan,508 East 120 Street,DOE Owned,243,675.0,Dance Room,true,Inside,true,False
707,M,4,4,04M206,P.S. 206 Jose Celso Barbosa,Elementary,M206,P.S. 206 (Tandem M112) - Manhattan,508 East 120 Street,DOE Owned,245,675.0,Dance Room,true,Inside,true,False
708,M,4,4,04M224,M.S. 224 Manhattan East School for Arts & Academics,Junior High-Intermediate-Middle,M099,I.S. 99 - Manhattan,410 East 100 Street,DOE Owned,416,588.0,Auxiliary Exercise Room,true,Inside,true,False
709,M,4,4,04M224,M.S. 224 Manhattan East School for Arts & Academics,Junior High-Intermediate-Middle,M099,I.S. 99 - Manhattan,410 East 100 Street,DOE Owned,GYM A,2968.0,Gymnasium,true,Inside,true,False
710,M,4,4,04M224,M.S. 224 Manhattan East School for Arts & Academics,Junior High-Intermediate-Middle,M099,I.S. 99 - Manhattan,410 East 100 Street,DOE Owned,GYM B,4505.0,Gymnasium,true,Inside,true,False
711,M,4,4,04M224,M.S. 224 Manhattan East School for Arts & Academics,Junior High-Intermediate-Middle,M099,I.S. 99 - Manhattan,410 East 100 Street,DOE Owned,Outdoor Yard 1,24497.0,Outdoor Yard,true,Outdoor,true,False
712,M,4,4,04M372,Esperanza Preparatory Academy,Secondary School,M117,J.H.S. 117 - Manhattan,240 East 109 Street,DOE Owned,GYM,7056.0,Gymnasium,true,Inside,true,False
713,M,4,4,04M375,Mosaic Preparatory Academy,Elementary,M101,P.S. 101 - Manhattan,141 East 111 Street,DOE Owned,316,667.0,Dance Room,true,Inside,true,False
714,M,4,4,04M375,Mosaic Preparatory Academy,Elementary,M101,P.S. 101 - Manhattan,141 East 111 Street,DOE Owned,426,2860.0,Gymnasium,true,Inside,true,False
715,M,4,4,04M375,Mosaic Preparatory Academy,Elementary,M101,P.S. 101 - Manhattan,141 East 111 Street,DOE Owned,562,2860.0,Gymnasium,true,Inside,true,False
716,M,4,4,04M375,Mosaic Preparatory Academy,Elementary,M101,P.S. 101 - Manhattan,141 East 111 Street,DOE Owned,Outdoor Yard 1,18553.0,Outdoor Yard,true,Outdoor,true,False
717,M,4,4,04M377,Renaissance School of the Arts,Junior High-Intermediate-Middle,M155,P.S. 155 - Manhattan,319 East 117 Street,DOE Owned,325/327,1400.0,Dance Room,true,Inside,true,False
718,M,4,4,04M377,Renaissance School of the Arts,Junior High-Intermediate-Middle,M155,P.S. 155 - Manhattan,319 East 117 Street,DOE Owned,GYM,3795.0,Gymnasium,true,Inside,true,False
719,M,4,4,04M377,Renaissance School of the Arts,Junior High-Intermediate-Middle,M155,P.S. 155 - Manhattan,319 East 117 Street,DOE Owned,Outdoor Yard 1,5808.0,Outdoor Yard,true,Outdoor,true,False
720,M,4,4,04M406,Global Technology Preparatory,Junior High-Intermediate-Middle,M007,P.S. 7 - Manhattan,160 East 120 Street,DOE Owned,GYM,3723.0,Gymnasium,true,Inside,true,False
721,M,4,4,04M406,Global Technology Preparatory,Junior High-Intermediate-Middle,M007,P.S. 7 - Manhattan,160 East 120 Street,DOE Owned,Outdoor Yard 1,17057.0,Outdoor Yard,true,Outdoor,true,False
722,M,4,4,04M409,Coalition School for Social Change,High school,M045,I.S. 45 - Manhattan,2351 First Avenue,DOE Owned,253,500.0,Dance Room,true,Inside,true,False
723,M,4,4,04M409,Coalition School for Social Change,High school,M045,I.S. 45 - Manhattan,2351 First Avenue,DOE Owned,255,1080.0,Auxiliary Exercise Room,true,Inside,true,False
724,M,4,4,04M409,Coalition School for Social Change,High school,M045,I.S. 45 - Manhattan,2351 First Avenue,DOE Owned,POOL,6900.0,Swimming Pool,true,Inside,true,False
725,M,4,4,04M435,Manhattan Center for Science and Mathematics,High school,M435,Manhtn Ct For Math & Sci. Hs - M,260 Pleasant Avenue,DOE Owned,136,924.0,Dance Room,true,Inside,true,False
726,M,4,4,04M435,Manhattan Center for Science and Mathematics,High school,M435,Manhtn Ct For Math & Sci. Hs - M,260 Pleasant Avenue,DOE Owned,B12,4125.0,Gymnasium,true,Inside,true,False
727,M,4,4,04M435,Manhattan Center for Science and Mathematics,High school,M435,Manhtn Ct For Math & Sci. Hs - M,260 Pleasant Avenue,DOE Owned,B34,1652.0,Weight Room,true,Inside,true,False
728,M,4,4,04M435,Manhattan Center for Science and Mathematics,High school,M435,Manhtn Ct For Math & Sci. Hs - M,260 Pleasant Avenue,DOE Owned,GYM,8664.0,Gymnasium,true,Inside,true,False
729,M,4,4,04M495,Park East High School,High school,M495,Park East Hs - Manhattan,230 East 105 Street,DOE Owned,114,676.0,Weight Room,false,Inside,false,False
730,M,4,4,04M495,Park East High School,High school,M495,Park East Hs - Manhattan,230 East 105 Street,DOE Owned,GYM,2840.0,Gymnasium,false,Inside,false,False
731,M,4,4,04M497,Central Park East I,Elementary,M013,I.S. 13 - Manhattan,1573 Madison Avenue,DOE Owned,214/218,1242.0,Auxiliary Exercise Room,true,Inside,true,False
732,M,4,4,04M497,Central Park East I,Elementary,M013,I.S. 13 - Manhattan,1573 Madison Avenue,DOE Owned,GYM,6500.0,Gymnasium,true,Inside,true,False
733,M,4,4,04M497,Central Park East I,Elementary,M013,I.S. 13 - Manhattan,1573 Madison Avenue,DOE Owned,Outdoor Yard 1,23810.0,Outdoor Yard,true,Outdoor,true,False
734,M,4,4,04M555,Central Park East High School,High school,M013,I.S. 13 - Manhattan,1573 Madison Avenue,DOE Owned,214/218,1242.0,Auxiliary Exercise Room,true,Inside,true,False
735,M,4,4,04M555,Central Park East High School,High school,M013,I.S. 13 - Manhattan,1573 Madison Avenue,DOE Owned,GYM,6500.0,Gymnasium,true,Inside,true,False
736,M,4,4,04M555,Central Park East High School,High school,M013,I.S. 13 - Manhattan,1573 Madison Avenue,DOE Owned,Outdoor Yard 1,23810.0,Outdoor Yard,true,Outdoor,true,False
737,M,4,4,04M610,Young Women's Leadership School,Secondary School,M895,Young Women'S Leadership Hs - M,105 East 106Th Street,Tax Levy Lease,708,1475.0,Gymnasium,false,Inside,false,False
738,M,4,4,04M680,"Heritage School, The",High school,M107,The Heritage School - Manhattan,1680 Lexington Avenue,DOE Owned,CAFE,2016.0,Gymnasium/Cafeteria,false,Inside,false,True
739,M,4,4,04M825,Isaac Newton Middle School for Math & Science,Junior High-Intermediate-Middle,M435,Manhtn Ct For Math & Sci. Hs - M,260 Pleasant Avenue,DOE Owned,136,924.0,Dance Room,true,Inside,true,False
740,M,4,4,04M825,Isaac Newton Middle School for Math & Science,Junior High-Intermediate-Middle,M435,Manhtn Ct For Math & Sci. Hs - M,260 Pleasant Avenue,DOE Owned,B12,4125.0,Gymnasium,true,Inside,true,False
741,M,4,4,04M825,Isaac Newton Middle School for Math & Science,Junior High-Intermediate-Middle,M435,Manhtn Ct For Math & Sci. Hs - M,260 Pleasant Avenue,DOE Owned,B34,1652.0,Weight Room,true,Inside,true,False
742,M,4,4,04M825,Isaac Newton Middle School for Math & Science,Junior High-Intermediate-Middle,M435,Manhtn Ct For Math & Sci. Hs - M,260 Pleasant Avenue,DOE Owned,GYM,8664.0,Gymnasium,true,Inside,true,False
743,M,4,4,04M964,Central Park East II,Elementary,M171,P.S. 171 - Manhattan,19 East 103 Street,DOE Owned,GYM,5355.0,Gymnasium,true,Inside,true,False
744,M,4,4,04M964,Central Park East II,Elementary,M171,P.S. 171 - Manhattan,19 East 103 Street,DOE Owned,Outdoor Yard 2,14827.0,Outdoor Yard,true,Outdoor,true,False
745,M,4,4,04M964,Central Park East II,Elementary,M108,P.S. 108 - Manhattan,1615 Madison Avenue,DOE Owned,GYM,3975.0,Gymnasium,true,Inside,true,False
746,M,4,4,04M964,Central Park East II,Elementary,M108,P.S. 108 - Manhattan,1615 Madison Avenue,DOE Owned,Outdoor Yard 1,1899.0,Outdoor Yard,true,Outdoor,true,False
747,M,4,4,04M964,Central Park East II,Elementary,M108,P.S. 108 - Manhattan,1615 Madison Avenue,DOE Owned,Outdoor Yard 2,5733.0,Outdoor Yard,true,Outdoor,true,False
748,M,5,5,05M030,P.S. 030 Hernandez/Hughes,Elementary,M030,P.S. 30 - Manhattan,144-176 East 128 Street,DOE Owned,311,960.0,Auxiliary Exercise Room,true,Inside,true,False
749,M,5,5,05M030,P.S. 030 Hernandez/Hughes,Elementary,M030,P.S. 30 - Manhattan,144-176 East 128 Street,DOE Owned,ASSEM,9660.0,Gymnasium/Auditorium/Cafeteria,true,Inside,true,True
750,M,5,5,05M030,P.S. 030 Hernandez/Hughes,Elementary,M030,P.S. 30 - Manhattan,144-176 East 128 Street,DOE Owned,Outdoor Yard 1,9836.0,Outdoor Yard,true,Outdoor,true,False
751,M,5,5,05M030,P.S. 030 Hernandez/Hughes,Elementary,M030,P.S. 30 - Manhattan,144-176 East 128 Street,DOE Owned,Outdoor Yard 2,620.0,Outdoor Yard,true,Outdoor,true,False
752,M,5,5,05M030,P.S. 030 Hernandez/Hughes,Elementary,M030,P.S. 30 - Manhattan,144-176 East 128 Street,DOE Owned,Outdoor Yard 3,6806.0,Outdoor Yard,true,Outdoor,true,False
753,M,5,5,05M036,P.S. 036 Margaret Douglas,Elementary,M036,P.S. 36 - Manhattan,123 Morningside Drive,DOE Owned,258,672.0,Dance Room,false,Inside,false,False
754,M,5,5,05M036,P.S. 036 Margaret Douglas,Elementary,M036,P.S. 36 - Manhattan,123 Morningside Drive,DOE Owned,Outdoor Yard 1,1085.0,Outdoor Yard,false,Outdoor,false,False
755,M,5,5,05M036,P.S. 036 Margaret Douglas,Elementary,M036,P.S. 36 - Manhattan,123 Morningside Drive,DOE Owned,Outdoor Yard 2,5913.0,Outdoor Yard,false,Outdoor,false,False
756,M,5,5,05M036,P.S. 036 Margaret Douglas,Elementary,M036,P.S. 36 - Manhattan,123 Morningside Drive,DOE Owned,Outdoor Yard 3,1324.0,Outdoor Yard,false,Outdoor,false,False
757,M,5,5,05M046,P.S. 046 Arthur Tappan,Elementary,M046,P.S. 46 - Manhattan,2987 Frederick Douglass Boulevard,DOE Owned,150,3888.0,Gymnasium,false,Inside,false,False
758,M,5,5,05M046,P.S. 046 Arthur Tappan,Elementary,M046,P.S. 46 - Manhattan,2987 Frederick Douglass Boulevard,DOE Owned,Outdoor Yard 1,1452.0,Outdoor Yard,false,Outdoor,false,False
759,M,5,5,05M046,P.S. 046 Arthur Tappan,Elementary,M846,P.S. 46 Minischool - Manhattan,2987 Frederick Douglas Blvd,DOE Owned,Outdoor Yard 1,13972.0,Outdoor Yard,false,Outdoor,false,False
760,M,5,5,05M092,P.S. 092 Mary McLeod Bethune,Elementary,M092,P.S. 92 - Manhattan,222 West 134 Street,DOE Owned,GYM,4032.0,Gymnasium,true,Inside,true,False
761,M,5,5,05M092,P.S. 092 Mary McLeod Bethune,Elementary,M092,P.S. 92 - Manhattan,222 West 134 Street,DOE Owned,Outdoor Yard 1,14008.0,Outdoor Yard,true,Outdoor,true,False
762,M,5,5,05M123,P.S. 123 Mahalia Jackson,K-8,M123,P.S. 123 - Manhattan,301 West 140 Street,DOE Owned,GYM,4144.0,Gymnasium,true,Inside,true,False
763,M,5,5,05M123,P.S. 123 Mahalia Jackson,K-8,M123,P.S. 123 - Manhattan,301 West 140 Street,DOE Owned,Outdoor Yard 1,14301.0,Outdoor Yard,true,Outdoor,true,False
764,M,5,5,05M125,P.S. 125 Ralph Bunche,Elementary,M125,P.S. 125 - Manhattan,425 West 123 Street,DOE Owned,E.GYM,3825.0,Gymnasium,true,Inside,true,False
765,M,5,5,05M125,P.S. 125 Ralph Bunche,Elementary,M125,P.S. 125 - Manhattan,425 West 123 Street,DOE Owned,POOL,3720.0,Swimming Pool,true,Inside,true,False
766,M,5,5,05M125,P.S. 125 Ralph Bunche,Elementary,M125,P.S. 125 - Manhattan,425 West 123 Street,DOE Owned,W.GYM,3825.0,Gymnasium,true,Inside,true,False
767,M,5,5,05M129,P.S. 129 John H. Finley,K-8,M129,P.S. 129 - Manhattan,425 West 130 Street,DOE Owned,GYM,4032.0,Gymnasium,false,Inside,false,False
768,M,5,5,05M129,P.S. 129 John H. Finley,K-8,M129,P.S. 129 - Manhattan,425 West 130 Street,DOE Owned,Outdoor Yard 1,6728.0,Outdoor Yard,false,Outdoor,false,False
769,M,5,5,05M133,P.S. 133 Fred R Moore,Elementary,M133,P.S. 133 - Manhattan,2121 5 Avenue,DOE Owned,241,693.0,Dance Room,false,Inside,false,False
770,M,5,5,05M133,P.S. 133 Fred R Moore,Elementary,M133,P.S. 133 - Manhattan,2121 5 Avenue,DOE Owned,GYM,3600.0,Gymnasium,false,Inside,false,False
771,M,5,5,05M133,P.S. 133 Fred R Moore,Elementary,M133,P.S. 133 - Manhattan,2121 5 Avenue,DOE Owned,Outdoor Yard 1,4968.0,Outdoor Yard,false,Outdoor,false,False
772,M,5,5,05M148,Eagle Academy for Young Men of Harlem,Secondary School,M136,I.S. 136 - Manhattan,6 Edgecombe Avenue,DOE Owned,GYM3FL,4505.0,Gymnasium,true,Inside,true,False
773,M,5,5,05M148,Eagle Academy for Young Men of Harlem,Secondary School,M136,I.S. 136 - Manhattan,6 Edgecombe Avenue,DOE Owned,GYM5FL,3021.0,Gymnasium,true,Inside,true,False
774,M,5,5,05M154,P.S. 154 Harriet Tubman,Elementary,M154,P.S. 154 - Manhattan,250 West 127 Street,DOE Owned,223,378.0,Auxiliary Exercise Room,true,Inside,true,False
775,M,5,5,05M154,P.S. 154 Harriet Tubman,Elementary,M154,P.S. 154 - Manhattan,250 West 127 Street,DOE Owned,GYM,4730.0,Gymnasium,true,Inside,true,False
776,M,5,5,05M154,P.S. 154 Harriet Tubman,Elementary,M154,P.S. 154 - Manhattan,250 West 127 Street,DOE Owned,Outdoor Yard 1,29634.0,Outdoor Yard,true,Outdoor,true,False
777,M,5,5,05M157,The Urban Assembly School for Global Commerce,High school,M501,Arthur Schomburg Hs (Is 201) - M,2005 Madison Avenue,DOE Owned,B13,861.0,Dance Room,true,Inside,true,False
778,M,5,5,05M157,The Urban Assembly School for Global Commerce,High school,M501,Arthur Schomburg Hs (Is 201) - M,2005 Madison Avenue,DOE Owned,B38,1056.0,Gymnasium/Auditorium,true,Inside,true,True
779,M,5,5,05M157,The Urban Assembly School for Global Commerce,High school,M501,Arthur Schomburg Hs (Is 201) - M,2005 Madison Avenue,DOE Owned,B45,729.0,Dance Room,true,Inside,true,False
780,M,5,5,05M157,The Urban Assembly School for Global Commerce,High school,M501,Arthur Schomburg Hs (Is 201) - M,2005 Madison Avenue,DOE Owned,GYM2FL,6500.0,Gymnasium,true,Inside,true,False
781,M,5,5,05M161,P.S. 161 Pedro Albizu Campos,K-8,M161,P.S. 161 - Manhattan,499 West 133 Street,DOE Owned,GYM,3685.0,Gymnasium,false,Inside,false,False
782,M,5,5,05M161,P.S. 161 Pedro Albizu Campos,K-8,M161,P.S. 161 - Manhattan,499 West 133 Street,DOE Owned,Outdoor Yard 1,28118.0,Outdoor Yard,false,Outdoor,false,False
783,M,5,5,05M175,P.S. 175 Henry H Garnet,Elementary,M175,P.S. 175 - Manhattan,175 West 134 Street,DOE Owned,GYM.,3740.0,Gymnasium,true,Inside,true,False
784,M,5,5,05M175,P.S. 175 Henry H Garnet,Elementary,M175,P.S. 175 - Manhattan,175 West 134 Street,DOE Owned,Outdoor Yard 1,18500.0,Outdoor Yard,true,Outdoor,true,False
785,M,5,5,05M194,P.S. 194 Countee Cullen,Elementary,M194,P.S. 194 - Manhattan,244 West 144 Street,DOE Owned,GYM,4176.0,Gymnasium,true,Inside,true,False
786,M,5,5,05M194,P.S. 194 Countee Cullen,Elementary,M194,P.S. 194 - Manhattan,244 West 144 Street,DOE Owned,Outdoor Yard 1,14446.0,Outdoor Yard,true,Outdoor,true,False
787,M,5,5,05M197,P.S. 197 John B. Russwurm,Elementary,M197,P.S. 197 - Manhattan,2230 5 Avenue,DOE Owned,GYM,3942.0,Gymnasium,true,Inside,true,False
788,M,5,5,05M197,P.S. 197 John B. Russwurm,Elementary,M197,P.S. 197 - Manhattan,2230 5 Avenue,DOE Owned,Outdoor Yard 1,4515.0,Outdoor Yard,true,Outdoor,true,False
789,M,5,5,05M200,P.S. 200- The James Mccune Smith School,Elementary,M010,P.S. 200 (Tandem M010) - Manhattan,2589 7 Avenue,DOE Owned,GYM,2535.0,Gymnasium,true,Inside,true,False
790,M,5,5,05M285,Harlem Renaissance High School,High school,M911,Harlem Renaissance Hs (Old M24)-M,22 East 128 Street,DOE Owned,503/505,1188.0,Gymnasium,true,Inside,true,False
791,M,5,5,05M286,Urban Assembly Academy for Future Leaders,Junior High-Intermediate-Middle,M043,I.S. 172 (Old 43) - Manhattan,509 West 129 Street,DOE Owned,343,4275.0,Gymnasium,true,Inside,true,False
792,M,5,5,05M286,Urban Assembly Academy for Future Leaders,Junior High-Intermediate-Middle,M043,I.S. 172 (Old 43) - Manhattan,509 West 129 Street,DOE Owned,443,4161.0,Gymnasium,true,Inside,true,False
793,M,5,5,05M286,Urban Assembly Academy for Future Leaders,Junior High-Intermediate-Middle,M043,I.S. 172 (Old 43) - Manhattan,509 West 129 Street,DOE Owned,B12,1080.0,Dance Room,true,Inside,true,False
794,M,5,5,05M286,Urban Assembly Academy for Future Leaders,Junior High-Intermediate-Middle,M043,I.S. 172 (Old 43) - Manhattan,509 West 129 Street,DOE Owned,Outdoor Yard 1,9540.0,Outdoor Yard,true,Outdoor,true,False
795,M,5,5,05M302,KAPPA IV,Junior High-Intermediate-Middle,M136,I.S. 136 - Manhattan,6 Edgecombe Avenue,DOE Owned,GYM3FL,4505.0,Gymnasium,true,Inside,true,False
796,M,5,5,05M302,KAPPA IV,Junior High-Intermediate-Middle,M136,I.S. 136 - Manhattan,6 Edgecombe Avenue,DOE Owned,GYM5FL,3021.0,Gymnasium,true,Inside,true,False
797,M,5,5,05M304,Mott Hall High School,High school,M136,I.S. 136 - Manhattan,6 Edgecombe Avenue,DOE Owned,GYM3FL,4505.0,Gymnasium,true,Inside,true,False
798,M,5,5,05M304,Mott Hall High School,High school,M136,I.S. 136 - Manhattan,6 Edgecombe Avenue,DOE Owned,GYM5FL,3021.0,Gymnasium,true,Inside,true,False
799,M,5,5,05M362,Columbia Secondary School,Junior High-Intermediate-Middle,M125,P.S. 125 - Manhattan,425 West 123 Street,DOE Owned,E.GYM,3825.0,Gymnasium,true,Inside,true,False
800,M,5,5,05M362,Columbia Secondary School,Junior High-Intermediate-Middle,M125,P.S. 125 - Manhattan,425 West 123 Street,DOE Owned,POOL,3720.0,Swimming Pool,true,Inside,true,False
801,M,5,5,05M362,Columbia Secondary School,Junior High-Intermediate-Middle,M125,P.S. 125 - Manhattan,425 West 123 Street,DOE Owned,W.GYM,3825.0,Gymnasium,true,Inside,true,False
802,M,5,5,05M367,Academy for Social Action,Secondary School,M043,I.S. 172 (Old 43) - Manhattan,509 West 129 Street,DOE Owned,343,4275.0,Gymnasium,true,Inside,true,False
803,M,5,5,05M367,Academy for Social Action,Secondary School,M043,I.S. 172 (Old 43) - Manhattan,509 West 129 Street,DOE Owned,443,4161.0,Gymnasium,true,Inside,true,False
804,M,5,5,05M367,Academy for Social Action,Secondary School,M043,I.S. 172 (Old 43) - Manhattan,509 West 129 Street,DOE Owned,B12,1080.0,Dance Room,true,Inside,true,False
805,M,5,5,05M367,Academy for Social Action,Secondary School,M043,I.S. 172 (Old 43) - Manhattan,509 West 129 Street,DOE Owned,Outdoor Yard 1,9540.0,Outdoor Yard,true,Outdoor,true,False
806,M,5,5,05M369,Urban Assembly School for the Performing Arts,High school,M043,I.S. 172 (Old 43) - Manhattan,509 West 129 Street,DOE Owned,343,4275.0,Gymnasium,true,Inside,true,False
807,M,5,5,05M369,Urban Assembly School for the Performing Arts,High school,M043,I.S. 172 (Old 43) - Manhattan,509 West 129 Street,DOE Owned,443,4161.0,Gymnasium,true,Inside,true,False
808,M,5,5,05M369,Urban Assembly School for the Performing Arts,High school,M043,I.S. 172 (Old 43) - Manhattan,509 West 129 Street,DOE Owned,B12,1080.0,Dance Room,true,Inside,true,False
809,M,5,5,05M369,Urban Assembly School for the Performing Arts,High school,M043,I.S. 172 (Old 43) - Manhattan,509 West 129 Street,DOE Owned,Outdoor Yard 1,9540.0,Outdoor Yard,true,Outdoor,true,False
810,M,5,5,05M499,Frederick Douglass Academy,Secondary School,M010,I.S. 10 (Tandem M200) - Manhattan,2581 7Th Avenue,DOE Owned,102,1209.0,Weight Room,true,Inside,true,False
811,M,5,5,05M499,Frederick Douglass Academy,Secondary School,M010,I.S. 10 (Tandem M200) - Manhattan,2581 7Th Avenue,DOE Owned,110,1120.0,Auxiliary Exercise Room,true,Inside,true,False
812,M,5,5,05M499,Frederick Douglass Academy,Secondary School,M010,I.S. 10 (Tandem M200) - Manhattan,2581 7Th Avenue,DOE Owned,380/384,1500.0,Dance Room,true,Inside,true,False
813,M,5,5,05M499,Frederick Douglass Academy,Secondary School,M010,I.S. 10 (Tandem M200) - Manhattan,2581 7Th Avenue,DOE Owned,GYM,2535.0,Gymnasium,true,Inside,true,False
814,M,5,5,05M499,Frederick Douglass Academy,Secondary School,M010,I.S. 10 (Tandem M200) - Manhattan,2581 7Th Avenue,DOE Owned,Outdoor Yard 1,67000.0,Outdoor Yard,true,Outdoor,true,False
815,M,5,5,05M514,New Design Middle School,Junior High-Intermediate-Middle,M195,Terence D. Tolbert Education Complex - Manhattan,625 West 133 Street,DOE Owned,270,5400.0,Gymnasium,true,Inside,true,False
816,M,5,5,05M514,New Design Middle School,Junior High-Intermediate-Middle,M195,Terence D. Tolbert Education Complex - Manhattan,625 West 133 Street,DOE Owned,274,986.0,Dance Room,true,Inside,true,False
817,M,5,5,05M514,New Design Middle School,Junior High-Intermediate-Middle,M195,Terence D. Tolbert Education Complex - Manhattan,625 West 133 Street,DOE Owned,280,1170.0,Auxiliary Exercise Room,true,Inside,true,False
818,M,5,5,05M514,New Design Middle School,Junior High-Intermediate-Middle,M195,Terence D. Tolbert Education Complex - Manhattan,625 West 133 Street,DOE Owned,368,756.0,Auxiliary Exercise Room,true,Inside,true,False
819,M,5,5,05M514,New Design Middle School,Junior High-Intermediate-Middle,M195,Terence D. Tolbert Education Complex - Manhattan,625 West 133 Street,DOE Owned,Outdoor Yard 1,36326.0,Outdoor Yard,true,Outdoor,true,False
820,M,5,5,05M517,Teachers College Community School,Elementary,M916,Teachers College Community School - Manhattan,168 Morningside Avenue,Tax Levy Lease,105,4042.0,Gymnasium/Auditorium,false,Inside,false,True
821,M,5,5,05M670,Thurgood Marshall Academy for Learning and Social Change,Secondary School,M970,Thurgood Marshall Acad. - M,200-214 West 135Th Street,Tax Levy Lease,607,4590.0,Gymnasium,false,Inside,false,False
822,M,5,5,05M692,"High School for Mathematics, Science and Engineering at City College",High school,M812,"Hs For Math, Sci & Engineering-M",240 Convent Ave,Tax Levy Lease,108,726.0,Multi-Purpose Room,false,Inside,false,True
823,M,6,6,06M004,P.S. 004 Duke Ellington,Elementary,M004,P.S. 4 - Manhattan,500 West 160 Street,DOE Owned,122,2668.0,Gymnasium,false,Inside,false,False
824,M,6,6,06M004,P.S. 004 Duke Ellington,Elementary,M004,P.S. 4 - Manhattan,500 West 160 Street,DOE Owned,Outdoor Yard 1,6727.0,Outdoor Yard,false,Outdoor,false,False
825,M,6,6,06M004,P.S. 004 Duke Ellington,Elementary,M004,P.S. 4 - Manhattan,500 West 160 Street,DOE Owned,Outdoor Yard 2,6071.0,Outdoor Yard,false,Outdoor,false,False
826,M,6,6,06M005,P.S. 005 Ellen Lurie,Elementary,M005,P.S. 5 - Manhattan,3703 Tenth Avenue,DOE Owned,129,3306.0,Gymnasium,false,Inside,false,False
827,M,6,6,06M008,P.S. 008 Luis Belliard,Elementary,M008,P.S. 8 - Manhattan,465 West 167 Street,DOE Owned,121/GYM,2592.0,Gymnasium,false,Inside,false,False
828,M,6,6,06M018,P.S. 018 Park Terrace,K-8,M898,P.S. 18 - Manhattan,4124 9 Avenue,Tax Levy Lease,Outdoor Yard 1,7790.0,Outdoor Yard,false,Outdoor,false,False
829,M,6,6,06M018,P.S. 018 Park Terrace,K-8,M884,P.S. 18 Annex (Gym) - Manhattan,4130 9 Avenue,Tax Levy Lease,112,2112.0,Gymnasium,false,Inside,true,False
830,M,6,6,06M028,P.S. 028 Wright Brothers,Elementary,M028,P.S. 28 - Manhattan,475 West 155 Street,DOE Owned,145,3990.0,Gymnasium,false,Inside,false,False
831,M,6,6,06M028,P.S. 028 Wright Brothers,Elementary,M028,P.S. 28 - Manhattan,475 West 155 Street,DOE Owned,Outdoor Yard 1,8177.0,Outdoor Yard,false,Outdoor,false,False
832,M,6,6,06M048,P.S. 048 P.O. Michael J. Buczek,Elementary,M048,P.S. 48 - Manhattan,4360-78 Broadway,DOE Owned,200,550.0,Dance Room,true,Inside,true,False
833,M,6,6,06M048,P.S. 048 P.O. Michael J. Buczek,Elementary,M048,P.S. 48 - Manhattan,4360-78 Broadway,DOE Owned,219,2166.0,Gymnasium,true,Inside,true,False
834,M,6,6,06M048,P.S. 048 P.O. Michael J. Buczek,Elementary,M048,P.S. 48 - Manhattan,4360-78 Broadway,DOE Owned,Outdoor Yard 1,13821.0,Outdoor Yard,true,Outdoor,true,False
835,M,6,6,06M048,P.S. 048 P.O. Michael J. Buczek,Elementary,M048,P.S. 48 - Manhattan,4360-78 Broadway,DOE Owned,Outdoor Yard 2,19823.0,Outdoor Yard,true,Outdoor,true,False
836,M,6,6,06M052,J.H.S. 052 Inwood,Junior High-Intermediate-Middle,M052,I.S. 52 - Manhattan,650 Academy Street,DOE Owned,239,6592.0,Gymnasium,true,Inside,true,False
837,M,6,6,06M052,J.H.S. 052 Inwood,Junior High-Intermediate-Middle,M052,I.S. 52 - Manhattan,650 Academy Street,DOE Owned,244B,391.0,Auxiliary Exercise Room,true,Inside,true,False
838,M,6,6,06M052,J.H.S. 052 Inwood,Junior High-Intermediate-Middle,M052,I.S. 52 - Manhattan,650 Academy Street,DOE Owned,244C,575.0,Auxiliary Exercise Room,true,Inside,true,False
839,M,6,6,06M052,J.H.S. 052 Inwood,Junior High-Intermediate-Middle,M052,I.S. 52 - Manhattan,650 Academy Street,DOE Owned,511,2912.0,Gymnasium,true,Inside,true,False
840,M,6,6,06M098,P.S. 098 Shorac Kappock,Elementary,M098,P.S. 98 - Manhattan,512 West 212 Street,DOE Owned,DANCERM,4482.0,Gymnasium,false,Inside,false,False
841,M,6,6,06M098,P.S. 098 Shorac Kappock,Elementary,M098,P.S. 98 - Manhattan,512 West 212 Street,DOE Owned,GYM,2915.0,Gymnasium,false,Inside,false,False
842,M,6,6,06M098,P.S. 098 Shorac Kappock,Elementary,M098,P.S. 98 - Manhattan,512 West 212 Street,DOE Owned,Outdoor Yard 1,10968.0,Outdoor Yard,false,Outdoor,false,False
843,M,6,6,06M103,Dos Puentes Elementary School,Elementary,M132,P.S. 132 - Manhattan,185 Wadsworth Avenue,DOE Owned,511,1155.0,Gymnasium,true,Inside,true,False
844,M,6,6,06M103,Dos Puentes Elementary School,Elementary,M132,P.S. 132 - Manhattan,185 Wadsworth Avenue,DOE Owned,Outdoor Yard 1,2111.0,Outdoor Yard,true,Outdoor,true,False
845,M,6,6,06M103,Dos Puentes Elementary School,Elementary,M132,P.S. 132 - Manhattan,185 Wadsworth Avenue,DOE Owned,Outdoor Yard 2,2058.0,Outdoor Yard,true,Outdoor,true,False
846,M,6,6,06M115,P.S. 115 Alexander Humboldt,Elementary,M115,P.S. 115 - Manhattan,586 West 177 Street,DOE Owned,408,575.0,Dance Room,true,Inside,true,False
847,M,6,6,06M115,P.S. 115 Alexander Humboldt,Elementary,M115,P.S. 115 - Manhattan,586 West 177 Street,DOE Owned,GYM-FR,1472.0,Gymnasium,true,Inside,true,False
848,M,6,6,06M115,P.S. 115 Alexander Humboldt,Elementary,M115,P.S. 115 - Manhattan,586 West 177 Street,DOE Owned,GYM-RE,3799.0,Gymnasium,true,Inside,true,False
849,M,6,6,06M115,P.S. 115 Alexander Humboldt,Elementary,M115,P.S. 115 - Manhattan,586 West 177 Street,DOE Owned,Outdoor Yard 1,7408.0,Outdoor Yard,true,Outdoor,true,False
850,M,6,6,06M128,P.S. 128 Audubon,Elementary,M128,P.S. 128 - Manhattan,560 West 169 Street,DOE Owned,120,624.0,Dance Room,true,Inside,true,False
851,M,6,6,06M128,P.S. 128 Audubon,Elementary,M128,P.S. 128 - Manhattan,560 West 169 Street,DOE Owned,123,3850.0,Gymnasium,true,Inside,true,False
852,M,6,6,06M128,P.S. 128 Audubon,Elementary,M128,P.S. 128 - Manhattan,560 West 169 Street,DOE Owned,Outdoor Yard 1,3150.0,Outdoor Yard,true,Outdoor,true,False
853,M,6,6,06M128,P.S. 128 Audubon,Elementary,M128,P.S. 128 - Manhattan,560 West 169 Street,DOE Owned,Outdoor Yard 2,3250.0,Outdoor Yard,true,Outdoor,true,False
854,M,6,6,06M132,P.S. 132 Juan Pablo Duarte,Elementary,M132,P.S. 132 - Manhattan,185 Wadsworth Avenue,DOE Owned,511,1155.0,Gymnasium,true,Inside,true,False
855,M,6,6,06M132,P.S. 132 Juan Pablo Duarte,Elementary,M132,P.S. 132 - Manhattan,185 Wadsworth Avenue,DOE Owned,Outdoor Yard 1,2111.0,Outdoor Yard,true,Outdoor,true,False
856,M,6,6,06M132,P.S. 132 Juan Pablo Duarte,Elementary,M132,P.S. 132 - Manhattan,185 Wadsworth Avenue,DOE Owned,Outdoor Yard 2,2058.0,Outdoor Yard,true,Outdoor,true,False
857,M,6,6,06M143,J.H.S. 143 Eleanor Roosevelt,Junior High-Intermediate-Middle,M143,I.S. 143 - Manhattan,511 West 182Nd Street,DOE Owned,139,672.0,Dance Room,true,Inside,true,False
858,M,6,6,06M143,J.H.S. 143 Eleanor Roosevelt,Junior High-Intermediate-Middle,M143,I.S. 143 - Manhattan,511 West 182Nd Street,DOE Owned,GYM B,6370.0,Gymnasium,true,Inside,true,False
859,M,6,6,06M152,P.S. 152 Dyckman Valley,Elementary,M152,P.S. 152 - Manhattan,93 Nagle Avenue,DOE Owned,354,4234.0,Gymnasium,false,Inside,false,False
860,M,6,6,06M152,P.S. 152 Dyckman Valley,Elementary,M152,P.S. 152 - Manhattan,93 Nagle Avenue,DOE Owned,GYM,4234.0,Gymnasium,false,Inside,false,False
861,M,6,6,06M152,P.S. 152 Dyckman Valley,Elementary,M152,P.S. 152 - Manhattan,93 Nagle Avenue,DOE Owned,Outdoor Yard 1,13206.0,Outdoor Yard,false,Outdoor,false,False
862,M,6,6,06M153,P.S. 153 Adam Clayton Powell,Elementary,M153,P.S. 153 - Manhattan,1750 Amsterdam Avenue,DOE Owned,146,1232.0,Dance Room,true,Inside,true,False
863,M,6,6,06M153,P.S. 153 Adam Clayton Powell,Elementary,M153,P.S. 153 - Manhattan,1750 Amsterdam Avenue,DOE Owned,GYM.,2623.0,Gymnasium,true,Inside,true,False
864,M,6,6,06M153,P.S. 153 Adam Clayton Powell,Elementary,M153,P.S. 153 - Manhattan,1750 Amsterdam Avenue,DOE Owned,Outdoor Yard 1,3550.0,Outdoor Yard,true,Outdoor,true,False
865,M,6,6,06M173,P.S. 173,Elementary,M173,P.S. 173 - Manhattan,306 Fort Washington Avenue,DOE Owned,101,918.0,Dance Room,true,Inside,true,False
866,M,6,6,06M173,P.S. 173,Elementary,M173,P.S. 173 - Manhattan,306 Fort Washington Avenue,DOE Owned,300,4452.0,Gymnasium,true,Inside,true,False
867,M,6,6,06M178,Professor Juan Bosch Public School,Elementary,M178,P.S. 178 - Manhattan,12-18 Ellwood Street,DOE Owned,501,2550.0,Gymnasium,false,Inside,false,False
868,M,6,6,06M178,Professor Juan Bosch Public School,Elementary,M178,P.S. 178 - Manhattan,12-18 Ellwood Street,DOE Owned,Outdoor Yard 1,3480.0,Outdoor Yard,false,Outdoor,false,False
869,M,6,6,06M187,P.S./I.S. 187 Hudson Cliffs,K-8,M187,P.S./I.S. 187 - Manhattan,349 Cabrini Boulevard,DOE Owned,GYM,4234.0,Gymnasium,false,Inside,false,False
870,M,6,6,06M187,P.S./I.S. 187 Hudson Cliffs,K-8,M187,P.S./I.S. 187 - Manhattan,349 Cabrini Boulevard,DOE Owned,Outdoor Yard 1,39016.0,Outdoor Yard,false,Outdoor,false,False
871,M,6,6,06M189,P.S. 189,Elementary,M189,P.S. 189 - Manhattan,2580 Amsterdam Avenue,DOE Owned,CAF/OLD,1798.0,Gymnasium,false,Inside,false,False
872,M,6,6,06M189,P.S. 189,Elementary,M189,P.S. 189 - Manhattan,2580 Amsterdam Avenue,DOE Owned,GYM,1792.0,Gymnasium,false,Inside,false,False
873,M,6,6,06M189,P.S. 189,Elementary,M189,P.S. 189 - Manhattan,2580 Amsterdam Avenue,DOE Owned,Outdoor Yard 1,1447.0,Outdoor Yard,false,Outdoor,false,False
874,M,6,6,06M189,P.S. 189,Elementary,M189,P.S. 189 - Manhattan,2580 Amsterdam Avenue,DOE Owned,Outdoor Yard 2,11282.0,Outdoor Yard,false,Outdoor,false,False
875,M,6,6,06M192,P.S. 192 Jacob H. Schiff,Elementary,M192,P.S. 192 - Manhattan,500 West 138 Street,DOE Owned,GYM,4810.0,Gymnasium,true,Inside,true,False
876,M,6,6,06M192,P.S. 192 Jacob H. Schiff,Elementary,M192,P.S. 192 - Manhattan,500 West 138 Street,DOE Owned,Outdoor Yard 1,65967.0,Outdoor Yard,true,Outdoor,true,False
877,M,6,6,06M209,Hamilton Grange Middle School,Junior High-Intermediate-Middle,M192,P.S. 192 - Manhattan,500 West 138 Street,DOE Owned,GYM,4810.0,Gymnasium,true,Inside,true,False
878,M,6,6,06M209,Hamilton Grange Middle School,Junior High-Intermediate-Middle,M192,P.S. 192 - Manhattan,500 West 138 Street,DOE Owned,Outdoor Yard 1,65967.0,Outdoor Yard,true,Outdoor,true,False
879,M,6,6,06M210,P.S./I.S. 210 - Twenty-first Century Academy for Community Leadership,K-8,M093,P.S./I.S. 210 - Manhattan,501-503 West 152 Street,DOE Owned,B03S,6156.0,Gymnasium,false,Inside,false,False
880,M,6,6,06M210,P.S./I.S. 210 - Twenty-first Century Academy for Community Leadership,K-8,M093,P.S./I.S. 210 - Manhattan,501-503 West 152 Street,DOE Owned,GYM,4455.0,Gymnasium,false,Inside,false,False
881,M,6,6,06M210,P.S./I.S. 210 - Twenty-first Century Academy for Community Leadership,K-8,M093,P.S./I.S. 210 - Manhattan,501-503 West 152 Street,DOE Owned,Outdoor Yard 1,2848.0,Outdoor Yard,false,Outdoor,false,False
882,M,6,6,06M211,Inwood Early College for Health and Information Technologies,High school,M052,I.S. 52 - Manhattan,650 Academy Street,DOE Owned,239,6592.0,Gymnasium,true,Inside,true,False
883,M,6,6,06M211,Inwood Early College for Health and Information Technologies,High school,M052,I.S. 52 - Manhattan,650 Academy Street,DOE Owned,244B,391.0,Auxiliary Exercise Room,true,Inside,true,False
884,M,6,6,06M211,Inwood Early College for Health and Information Technologies,High school,M052,I.S. 52 - Manhattan,650 Academy Street,DOE Owned,244C,575.0,Auxiliary Exercise Room,true,Inside,true,False
885,M,6,6,06M211,Inwood Early College for Health and Information Technologies,High school,M052,I.S. 52 - Manhattan,650 Academy Street,DOE Owned,511,2912.0,Gymnasium,true,Inside,true,False
886,M,6,6,06M218,I.S. 218 Salome Urena,Junior High-Intermediate-Middle,M218,I.S. 218 - Manhattan,4600 Broadway,DOE Owned,230,1344.0,Dance Room,true,Inside,true,False
887,M,6,6,06M218,I.S. 218 Salome Urena,Junior High-Intermediate-Middle,M218,I.S. 218 - Manhattan,4600 Broadway,DOE Owned,254,5251.0,Gymnasium,true,Inside,true,False
888,M,6,6,06M218,I.S. 218 Salome Urena,Junior High-Intermediate-Middle,M218,I.S. 218 - Manhattan,4600 Broadway,DOE Owned,Outdoor Yard 1,38305.0,Outdoor Yard,true,Outdoor,true,False
889,M,6,6,06M223,The Mott Hall School,Junior High-Intermediate-Middle,M223,I.S. 223 (Mott Hall) - Manhattan,71-111 Convent Ave,Gratis Lease,Outdoor Yard 1,3149.0,Outdoor Yard,false,Outdoor,false,False
890,M,6,6,06M223,The Mott Hall School,Junior High-Intermediate-Middle,M223,I.S. 223 (Mott Hall) - Manhattan,71-111 Convent Ave,Gratis Lease,209,726.0,Multi-Purpose Non Classroom,false,Inside,false,True
891,M,6,6,06M293,City College Academy of the Arts,Secondary School,M218,I.S. 218 - Manhattan,4600 Broadway,DOE Owned,230,1344.0,Dance Room,true,Inside,true,False
892,M,6,6,06M293,City College Academy of the Arts,Secondary School,M218,I.S. 218 - Manhattan,4600 Broadway,DOE Owned,254,5251.0,Gymnasium,true,Inside,true,False
893,M,6,6,06M293,City College Academy of the Arts,Secondary School,M218,I.S. 218 - Manhattan,4600 Broadway,DOE Owned,Outdoor Yard 1,38305.0,Outdoor Yard,true,Outdoor,true,False
894,M,6,6,06M311,Amistad Dual Language School,K-8,M176,P.S./I.S. 176 - Manhattan,4862 Broadway,DOE Owned,125,2596.0,Gymnasium,true,Inside,true,False
895,M,6,6,06M311,Amistad Dual Language School,K-8,M176,P.S./I.S. 176 - Manhattan,4862 Broadway,DOE Owned,Outdoor Yard 1,7986.0,Outdoor Yard,true,Outdoor,true,False
896,M,6,6,06M314,Muscota,Elementary,M176,P.S./I.S. 176 - Manhattan,4862 Broadway,DOE Owned,125,2596.0,Gymnasium,true,Inside,true,False
897,M,6,6,06M314,Muscota,Elementary,M176,P.S./I.S. 176 - Manhattan,4862 Broadway,DOE Owned,Outdoor Yard 1,7986.0,Outdoor Yard,true,Outdoor,true,False
898,M,6,6,06M319,M.S. 319 - Maria Teresa,Junior High-Intermediate-Middle,M090,I.S. 90 - Manhattan,21 Jumel Place,DOE Owned,A320,946.0,Dance Room,true,Inside,true,False
899,M,6,6,06M319,M.S. 319 - Maria Teresa,Junior High-Intermediate-Middle,M090,I.S. 90 - Manhattan,21 Jumel Place,DOE Owned,GYM,4620.0,Gymnasium,true,Inside,true,False
900,M,6,6,06M319,M.S. 319 - Maria Teresa,Junior High-Intermediate-Middle,M090,I.S. 90 - Manhattan,21 Jumel Place,DOE Owned,Outdoor Yard 1,38900.0,Outdoor Yard,true,Outdoor,true,False
901,M,6,6,06M319,M.S. 319 - Maria Teresa,Junior High-Intermediate-Middle,M090,I.S. 90 - Manhattan,21 Jumel Place,DOE Owned,Outdoor Yard 2,7198.0,Outdoor Yard,true,Outdoor,true,False
902,M,6,6,06M322,Middle School 322,Junior High-Intermediate-Middle,M218,I.S. 218 - Manhattan,4600 Broadway,DOE Owned,230,1344.0,Dance Room,true,Inside,true,False
903,M,6,6,06M322,Middle School 322,Junior High-Intermediate-Middle,M218,I.S. 218 - Manhattan,4600 Broadway,DOE Owned,254,5251.0,Gymnasium,true,Inside,true,False
904,M,6,6,06M322,Middle School 322,Junior High-Intermediate-Middle,M218,I.S. 218 - Manhattan,4600 Broadway,DOE Owned,Outdoor Yard 1,38305.0,Outdoor Yard,true,Outdoor,true,False
905,M,6,6,06M324,M.S. 324 - Patria Mirabal,Junior High-Intermediate-Middle,M090,I.S. 90 - Manhattan,21 Jumel Place,DOE Owned,A320,946.0,Dance Room,true,Inside,true,False
906,M,6,6,06M324,M.S. 324 - Patria Mirabal,Junior High-Intermediate-Middle,M090,I.S. 90 - Manhattan,21 Jumel Place,DOE Owned,GYM,4620.0,Gymnasium,true,Inside,true,False
907,M,6,6,06M324,M.S. 324 - Patria Mirabal,Junior High-Intermediate-Middle,M090,I.S. 90 - Manhattan,21 Jumel Place,DOE Owned,Outdoor Yard 1,38900.0,Outdoor Yard,true,Outdoor,true,False
908,M,6,6,06M324,M.S. 324 - Patria Mirabal,Junior High-Intermediate-Middle,M090,I.S. 90 - Manhattan,21 Jumel Place,DOE Owned,Outdoor Yard 2,7198.0,Outdoor Yard,true,Outdoor,true,False
909,M,6,6,06M325,P.S. 325,Elementary,M192,P.S. 192 - Manhattan,500 West 138 Street,DOE Owned,GYM,4810.0,Gymnasium,true,Inside,true,False
910,M,6,6,06M325,P.S. 325,Elementary,M192,P.S. 192 - Manhattan,500 West 138 Street,DOE Owned,Outdoor Yard 1,65967.0,Outdoor Yard,true,Outdoor,true,False
911,M,6,6,06M328,M.S. 328 - Manhattan Middle School for Scientific Inquiry,Junior High-Intermediate-Middle,M164,I.S. 164 - Manhattan,401 West 164 Street,DOE Owned,BGGYM,4374.0,Gymnasium,true,Inside,true,False
912,M,6,6,06M328,M.S. 328 - Manhattan Middle School for Scientific Inquiry,Junior High-Intermediate-Middle,M164,I.S. 164 - Manhattan,401 West 164 Street,DOE Owned,COED GY,4320.0,Gymnasium,true,Inside,true,False
913,M,6,6,06M328,M.S. 328 - Manhattan Middle School for Scientific Inquiry,Junior High-Intermediate-Middle,M164,I.S. 164 - Manhattan,401 West 164 Street,DOE Owned,Outdoor Yard 1,5717.0,Outdoor Yard,true,Outdoor,true,False
914,M,6,6,06M346,Community Health Academy of the Heights,Secondary School,M814,The Community Health Academy Of The Heights - M,504 West 158Th Street,DOE Owned,520,4730.0,Gymnasium,false,Inside,false,False
915,M,6,6,06M348,Washington Heights Expeditionary Learning School,Secondary School,M143,I.S. 143 - Manhattan,511 West 182Nd Street,DOE Owned,139,672.0,Dance Room,true,Inside,true,False
916,M,6,6,06M348,Washington Heights Expeditionary Learning School,Secondary School,M143,I.S. 143 - Manhattan,511 West 182Nd Street,DOE Owned,GYM B,6370.0,Gymnasium,true,Inside,true,False
917,M,6,6,06M348,Washington Heights Expeditionary Learning School,Secondary School,M859,I.S. 143 Minischool - Manhattan,512 West 182 St,DOE Owned,8,560.0,Dance Room,true,Inside,true,False
918,M,6,6,06M348,Washington Heights Expeditionary Learning School,Secondary School,M859,I.S. 143 Minischool - Manhattan,512 West 182 St,DOE Owned,Outdoor Yard 1,4011.0,Outdoor Yard,true,Outdoor,true,False
919,M,6,6,06M349,Harbor Heights,Junior High-Intermediate-Middle,M173,P.S. 173 - Manhattan,306 Fort Washington Avenue,DOE Owned,101,918.0,Dance Room,true,Inside,true,False
920,M,6,6,06M349,Harbor Heights,Junior High-Intermediate-Middle,M173,P.S. 173 - Manhattan,306 Fort Washington Avenue,DOE Owned,300,4452.0,Gymnasium,true,Inside,true,False
921,M,6,6,06M366,Washington Heights Academy,Elementary,M263,Ps/Is 263 - Manhattan,202 Sherman Ave,DOE Owned,C16A,5368.0,Gymnasium/Auditorium,false,Inside,false,True
922,M,6,6,06M368,Hamilton Heights School,Elementary,M153,P.S. 153 - Manhattan,1750 Amsterdam Avenue,DOE Owned,146,1232.0,Dance Room,true,Inside,true,False
923,M,6,6,06M368,Hamilton Heights School,Elementary,M153,P.S. 153 - Manhattan,1750 Amsterdam Avenue,DOE Owned,GYM.,2623.0,Gymnasium,true,Inside,true,False
924,M,6,6,06M368,Hamilton Heights School,Elementary,M153,P.S. 153 - Manhattan,1750 Amsterdam Avenue,DOE Owned,Outdoor Yard 1,3550.0,Outdoor Yard,true,Outdoor,true,False
925,M,6,6,06M423,High School for Excellence and Innovation,High school,M052,I.S. 52 - Manhattan,650 Academy Street,DOE Owned,239,6592.0,Gymnasium,true,Inside,true,False
926,M,6,6,06M423,High School for Excellence and Innovation,High school,M052,I.S. 52 - Manhattan,650 Academy Street,DOE Owned,244B,391.0,Auxiliary Exercise Room,true,Inside,true,False
927,M,6,6,06M423,High School for Excellence and Innovation,High school,M052,I.S. 52 - Manhattan,650 Academy Street,DOE Owned,244C,575.0,Auxiliary Exercise Room,true,Inside,true,False
928,M,6,6,06M423,High School for Excellence and Innovation,High school,M052,I.S. 52 - Manhattan,650 Academy Street,DOE Owned,511,2912.0,Gymnasium,true,Inside,true,False
929,M,6,6,06M462,The College Academy,High school,M465,G. Washington Hs Educ. Campus - M,549 Audubon Avenue,DOE Owned,GYM1,6767.0,Gymnasium,true,Inside,true,False
930,M,6,6,06M462,The College Academy,High school,M465,G. Washington Hs Educ. Campus - M,549 Audubon Avenue,DOE Owned,GYM2,6767.0,Gymnasium,true,Inside,true,False
931,M,6,6,06M462,The College Academy,High school,M465,G. Washington Hs Educ. Campus - M,549 Audubon Avenue,DOE Owned,POOL1,6175.0,Swimming Pool,true,Inside,true,False
932,M,6,6,06M462,The College Academy,High school,M465,G. Washington Hs Educ. Campus - M,549 Audubon Avenue,DOE Owned,POOL2,5130.0,Swimming Pool,true,Inside,true,False
933,M,6,6,06M463,High School for Media and Communications,High school,M465,G. Washington Hs Educ. Campus - M,549 Audubon Avenue,DOE Owned,GYM1,6767.0,Gymnasium,true,Inside,true,False
934,M,6,6,06M463,High School for Media and Communications,High school,M465,G. Washington Hs Educ. Campus - M,549 Audubon Avenue,DOE Owned,GYM2,6767.0,Gymnasium,true,Inside,true,False
935,M,6,6,06M463,High School for Media and Communications,High school,M465,G. Washington Hs Educ. Campus - M,549 Audubon Avenue,DOE Owned,POOL1,6175.0,Swimming Pool,true,Inside,true,False
936,M,6,6,06M463,High School for Media and Communications,High school,M465,G. Washington Hs Educ. Campus - M,549 Audubon Avenue,DOE Owned,POOL2,5130.0,Swimming Pool,true,Inside,true,False
937,M,6,6,06M467,High School for Law and Public Service,High school,M465,G. Washington Hs Educ. Campus - M,549 Audubon Avenue,DOE Owned,GYM1,6767.0,Gymnasium,true,Inside,true,False
938,M,6,6,06M467,High School for Law and Public Service,High school,M465,G. Washington Hs Educ. Campus - M,549 Audubon Avenue,DOE Owned,GYM2,6767.0,Gymnasium,true,Inside,true,False
939,M,6,6,06M467,High School for Law and Public Service,High school,M465,G. Washington Hs Educ. Campus - M,549 Audubon Avenue,DOE Owned,POOL1,6175.0,Swimming Pool,true,Inside,true,False
940,M,6,6,06M467,High School for Law and Public Service,High school,M465,G. Washington Hs Educ. Campus - M,549 Audubon Avenue,DOE Owned,POOL2,5130.0,Swimming Pool,true,Inside,true,False
941,M,6,6,06M468,High School for Health Careers and Sciences,High school,M465,G. Washington Hs Educ. Campus - M,549 Audubon Avenue,DOE Owned,GYM1,6767.0,Gymnasium,true,Inside,true,False
942,M,6,6,06M468,High School for Health Careers and Sciences,High school,M465,G. Washington Hs Educ. Campus - M,549 Audubon Avenue,DOE Owned,GYM2,6767.0,Gymnasium,true,Inside,true,False
943,M,6,6,06M468,High School for Health Careers and Sciences,High school,M465,G. Washington Hs Educ. Campus - M,549 Audubon Avenue,DOE Owned,POOL1,6175.0,Swimming Pool,true,Inside,true,False
944,M,6,6,06M468,High School for Health Careers and Sciences,High school,M465,G. Washington Hs Educ. Campus - M,549 Audubon Avenue,DOE Owned,POOL2,5130.0,Swimming Pool,true,Inside,true,False
945,M,6,6,06M513,Castle Bridge School,Elementary,M128,P.S. 128 - Manhattan,560 West 169 Street,DOE Owned,120,624.0,Dance Room,true,Inside,true,False
946,M,6,6,06M513,Castle Bridge School,Elementary,M128,P.S. 128 - Manhattan,560 West 169 Street,DOE Owned,123,3850.0,Gymnasium,true,Inside,true,False
947,M,6,6,06M513,Castle Bridge School,Elementary,M128,P.S. 128 - Manhattan,560 West 169 Street,DOE Owned,Outdoor Yard 1,3150.0,Outdoor Yard,true,Outdoor,true,False
948,M,6,6,06M513,Castle Bridge School,Elementary,M128,P.S. 128 - Manhattan,560 West 169 Street,DOE Owned,Outdoor Yard 2,3250.0,Outdoor Yard,true,Outdoor,true,False
949,M,6,6,06M528,I.S. 528 Bea Fuller Rodgers School,Junior High-Intermediate-Middle,M528,I.S. 528 - Manhattan,180 Wadsworth Avenue,DOE Owned,206,1302.0,Dance Room,false,Inside,false,False
950,M,6,6,06M540,A. Philip Randolph Campus High School,High school,M540,A. Phillip Randolph Hs - Manhattan,443 West 135 Street,DOE Owned,320,684.0,Weight Room,false,Inside,false,False
951,M,6,6,06M540,A. Philip Randolph Campus High School,High school,M540,A. Phillip Randolph Hs - Manhattan,443 West 135 Street,DOE Owned,320A,1344.0,Weight Room,false,Inside,false,False
952,M,6,6,06M540,A. Philip Randolph Campus High School,High school,M540,A. Phillip Randolph Hs - Manhattan,443 West 135 Street,DOE Owned,404,2052.0,Dance Room,false,Inside,false,False
953,M,6,6,06M540,A. Philip Randolph Campus High School,High school,M540,A. Phillip Randolph Hs - Manhattan,443 West 135 Street,DOE Owned,419,754.0,Weight Room,false,Inside,false,False
954,M,6,6,06M540,A. Philip Randolph Campus High School,High school,M540,A. Phillip Randolph Hs - Manhattan,443 West 135 Street,DOE Owned,477,6615.0,Gymnasium,false,Inside,false,False
955,M,6,6,06M552,Gregorio Luperon High School for Science and Mathematics,High school,M876,Gregorio Luperon Prep. School - M,501 West 165Th Street,DOE Owned,406,6762.0,Gymnasium,false,Inside,false,False
956,X,7,7,07X001,P.S. 001 Courtlandt School,Elementary,X001,P.S. 1 - Bronx,335 East 152 Street,DOE Owned,GYM.,3920.0,Gymnasium,false,Inside,false,False
957,X,7,7,07X001,P.S. 001 Courtlandt School,Elementary,X001,P.S. 1 - Bronx,335 East 152 Street,DOE Owned,Outdoor Yard 1,14162.0,Outdoor Yard,false,Outdoor,false,False
958,X,7,7,07X005,P.S. 5 Port Morris,Elementary,X005,P.S. 5 - Bronx,564 Jackson Avenue,DOE Owned,GYM,3816.0,Gymnasium,false,Inside,false,False
959,X,7,7,07X005,P.S. 5 Port Morris,Elementary,X005,P.S. 5 - Bronx,564 Jackson Avenue,DOE Owned,Outdoor Yard 1,6355.0,Outdoor Yard,false,Outdoor,false,False
960,X,7,7,07X018,P.S. 018 John Peter Zenger,Elementary,X018,P.S. 18 - Bronx,502 Morris Avenue,DOE Owned,GYM,3900.0,Gymnasium,false,Inside,false,False
961,X,7,7,07X018,P.S. 018 John Peter Zenger,Elementary,X018,P.S. 18 - Bronx,502 Morris Avenue,DOE Owned,Outdoor Yard 1,23000.0,Outdoor Yard,false,Outdoor,false,False
962,X,7,7,07X025,P.S. 025 Bilingual School,Elementary,X025,P.S. 25 - Bronx,811 East 149 Street,DOE Owned,GYM,1798.0,Gymnasium,false,Inside,false,False
963,X,7,7,07X025,P.S. 025 Bilingual School,Elementary,X025,P.S. 25 - Bronx,811 East 149 Street,DOE Owned,Outdoor Yard 1,6083.0,Outdoor Yard,false,Outdoor,false,False
964,X,7,7,07X029,P.S./M.S. 029 Melrose School,K-8,X029,P.S. 29 - Bronx,758 Courtlandt Avenue,DOE Owned,B8,600.0,Dance Room,false,Inside,false,False
965,X,7,7,07X029,P.S./M.S. 029 Melrose School,K-8,X029,P.S. 29 - Bronx,758 Courtlandt Avenue,DOE Owned,GYM.,3960.0,Gymnasium,false,Inside,false,False
966,X,7,7,07X029,P.S./M.S. 029 Melrose School,K-8,X029,P.S. 29 - Bronx,758 Courtlandt Avenue,DOE Owned,Outdoor Yard 1,22865.0,Outdoor Yard,false,Outdoor,false,False
967,X,7,7,07X030,P.S. 030 Wilton,Elementary,X030,P.S. 30 - Bronx,510 East 141 Street,DOE Owned,GYM.,3869.0,Gymnasium,true,Inside,true,False
968,X,7,7,07X030,P.S. 030 Wilton,Elementary,X030,P.S. 30 - Bronx,510 East 141 Street,DOE Owned,Outdoor Yard 1,11475.0,Outdoor Yard,true,Outdoor,true,False
969,X,7,7,07X031,P.S./M.S. 031 The William Lloyd Garrison,K-8,X151,I.S. 151 - Bronx,250 East 156 Street,DOE Owned,G.GYM,6500.0,Gymnasium,true,Inside,true,False
970,X,7,7,07X031,P.S./M.S. 031 The William Lloyd Garrison,K-8,X151,I.S. 151 - Bronx,250 East 156 Street,DOE Owned,Outdoor Yard 1,87803.0,Outdoor Yard,true,Outdoor,true,False
971,X,7,7,07X043,P.S. 043 Jonas Bronck,Elementary,X043,P.S. 43 - Bronx,165 Brown Place,DOE Owned,312,798.0,Dance Room,true,Inside,true,False
972,X,7,7,07X043,P.S. 043 Jonas Bronck,Elementary,X043,P.S. 43 - Bronx,165 Brown Place,DOE Owned,401A,902.0,Gymnasium,true,Inside,true,False
973,X,7,7,07X043,P.S. 043 Jonas Bronck,Elementary,X043,P.S. 43 - Bronx,165 Brown Place,DOE Owned,GYM,1536.0,Gymnasium,true,Inside,true,False
974,X,7,7,07X043,P.S. 043 Jonas Bronck,Elementary,X043,P.S. 43 - Bronx,165 Brown Place,DOE Owned,Outdoor Yard 1,9024.0,Outdoor Yard,true,Outdoor,true,False
975,X,7,7,07X049,P.S. 049 Willis Avenue,Elementary,X049,P.S. 49 - Bronx,383 East 139 Street,DOE Owned,321,756.0,Dance Room,true,Inside,true,False
976,X,7,7,07X049,P.S. 049 Willis Avenue,Elementary,X049,P.S. 49 - Bronx,383 East 139 Street,DOE Owned,Outdoor Yard 1,17461.0,Outdoor Yard,true,Outdoor,true,False
977,X,7,7,07X065,P.S. 065 Mother Hale Academy,Elementary,X065,P.S. 65 - Bronx,677 East 141 Street,DOE Owned,Outdoor Yard 1,48000.0,Outdoor Yard,true,Outdoor,true,False
978,X,7,7,07X065,P.S. 065 Mother Hale Academy,Elementary,X065,P.S. 65 - Bronx,677 East 141 Street,DOE Owned,GYM,1705.0,Multi-Purpose Non Classroom,true,Inside,true,True
979,X,7,7,07X065,P.S. 065 Mother Hale Academy,Elementary,X065,P.S. 65 - Bronx,677 East 141 Street,DOE Owned,GYM1,1705.0,Multi-Purpose Non Classroom,true,Inside,true,True
980,X,7,7,07X151,J.H.S. 151 Lou Gehrig,Junior High-Intermediate-Middle,X151,I.S. 151 - Bronx,250 East 156 Street,DOE Owned,G.GYM,6500.0,Gymnasium,true,Inside,true,False
981,X,7,7,07X151,J.H.S. 151 Lou Gehrig,Junior High-Intermediate-Middle,X151,I.S. 151 - Bronx,250 East 156 Street,DOE Owned,Outdoor Yard 1,87803.0,Outdoor Yard,true,Outdoor,true,False
982,X,7,7,07X154,P.S. 154 Jonathan D. Hyatt,Elementary,X154,P.S. 154 - Bronx,333 East 135 Street,DOE Owned,217,1040.0,Dance Room,true,Inside,true,False
983,X,7,7,07X154,P.S. 154 Jonathan D. Hyatt,Elementary,X154,P.S. 154 - Bronx,333 East 135 Street,DOE Owned,GYM.,3886.0,Gymnasium,true,Inside,true,False
984,X,7,7,07X154,P.S. 154 Jonathan D. Hyatt,Elementary,X154,P.S. 154 - Bronx,333 East 135 Street,DOE Owned,Outdoor Yard 1,2847.0,Outdoor Yard,true,Outdoor,true,False
985,X,7,7,07X157,P.S. 157 Grove Hill,Elementary,X157,P.S. 157 - Bronx,757 Cauldwell Avenue,DOE Owned,123,675.0,Dance Room,false,Inside,false,False
986,X,7,7,07X157,P.S. 157 Grove Hill,Elementary,X157,P.S. 157 - Bronx,757 Cauldwell Avenue,DOE Owned,149,3780.0,Gymnasium,false,Inside,false,False
987,X,7,7,07X161,P.S. 161 Juan Ponce De Leon School,Elementary,X161,P.S. 161 - Bronx,628 Tinton Avenue,DOE Owned,GYM,3024.0,Gymnasium,true,Inside,true,False
988,X,7,7,07X162,J.H.S. 162 Lola Rodriguez De Tio,Junior High-Intermediate-Middle,X162,I.S. 162 - Bronx,600 Saint Ann'S Avenue,DOE Owned,147,1148.0,Auxiliary Exercise Room,true,Inside,true,False
989,X,7,7,07X162,J.H.S. 162 Lola Rodriguez De Tio,Junior High-Intermediate-Middle,X162,I.S. 162 - Bronx,600 Saint Ann'S Avenue,DOE Owned,359,910.0,Auxiliary Exercise Room,true,Inside,true,False
990,X,7,7,07X162,J.H.S. 162 Lola Rodriguez De Tio,Junior High-Intermediate-Middle,X162,I.S. 162 - Bronx,600 Saint Ann'S Avenue,DOE Owned,GYM,6500.0,Gymnasium,true,Inside,true,False
991,X,7,7,07X162,J.H.S. 162 Lola Rodriguez De Tio,Junior High-Intermediate-Middle,X162,I.S. 162 - Bronx,600 Saint Ann'S Avenue,DOE Owned,Outdoor Yard 1,33293.0,Outdoor Yard,true,Outdoor,true,False
992,X,7,7,07X162,J.H.S. 162 Lola Rodriguez De Tio,Junior High-Intermediate-Middle,X162,I.S. 162 - Bronx,600 Saint Ann'S Avenue,DOE Owned,Outdoor Yard 2,11301.0,Outdoor Yard,true,Outdoor,true,False
993,X,7,7,07X179,P.S. 179,Elementary,X040,P.S. 220 - Bronx,468 East 140 Street,DOE Owned,MULTI,2912.0,Gymnasium/Auditorium/Caferteria/Multi-Purpose,true,Inside,true,True
994,X,7,7,07X221,South Bronx Preparatory: A College Board School,Secondary School,X149,J.H.S. 149 - Bronx,360 East 145 Street,DOE Owned,C13_C,1200.0,Auxiliary Exercise Room,true,Inside,true,False
995,X,7,7,07X221,South Bronx Preparatory: A College Board School,Secondary School,X149,J.H.S. 149 - Bronx,360 East 145 Street,DOE Owned,GYM.,6270.0,Gymnasium,true,Inside,true,False
996,X,7,7,07X223,M.S. 223 The Laboratory School of Finance and Technology,Junior High-Intermediate-Middle,X149,J.H.S. 149 - Bronx,360 East 145 Street,DOE Owned,C13_C,1200.0,Auxiliary Exercise Room,true,Inside,true,False
997,X,7,7,07X223,M.S. 223 The Laboratory School of Finance and Technology,Junior High-Intermediate-Middle,X149,J.H.S. 149 - Bronx,360 East 145 Street,DOE Owned,GYM.,6270.0,Gymnasium,true,Inside,true,False
998,X,7,7,07X224,P.S./I.S. 224,Junior High-Intermediate-Middle,X139,J.H.S. 222 - Bronx,345 Brook Avenue,DOE Owned,GYM,6045.0,Gymnasium,true,Inside,true,False
999,X,7,7,07X224,P.S./I.S. 224,Junior High-Intermediate-Middle,X139,J.H.S. 222 - Bronx,345 Brook Avenue,DOE Owned,GYM1,169.0,Weight Room,true,Inside,true,False
