,complaintid,buildingid,boroughid,borough,housenumber,streetname,zip,block,lot,apartment,communityboard,receiveddate,statusid,status,statusdate
0,6573046,949821,4,QUEENS,177-14,129 AVENUE,11434,12538,156,1FLR,12,2013-11-07T00:00:00.000,2,CLOSE,2015-04-03T00:00:00.000
1,6684157,843381,4,QUEENS,35-01,101 STREET,11368,1742,1,1FL,3,2014-01-03T00:00:00.000,2,CLOSE,2015-04-04T00:00:00.000
2,6714273,612583,4,QUEENS,133-14,226 STREET,11413,12964,254,1FL,13,2014-01-11T00:00:00.000,2,CLOSE,2015-04-22T00:00:00.000
3,6718256,674042,4,QUEENS,96-01,LIBERTY AVENUE,11417,9119,43,3FL,10,2014-01-14T00:00:00.000,2,CLOSE,2015-04-02T00:00:00.000
4,6719783,545149,4,QUEENS,121-11,133 AVENUE,11420,11728,5,BSMT,10,2014-01-15T00:00:00.000,2,CLOSE,2015-04-22T00:00:00.000
5,6754677,381873,3,BROOKLYN,245,TROUTMAN STREET,11237,3174,38,3L,4,2014-01-28T00:00:00.000,2,CLOSE,2015-04-14T00:00:00.000
6,6761135,459818,4,QUEENS,98-01,67 AVENUE,11374,3155,27,6B,6,2014-01-30T00:00:00.000,2,CLOSE,2015-04-10T00:00:00.000
7,6775273,496892,4,QUEENS,85-23,88 STREET,11421,8863,136,ATTIC,9,2014-02-05T00:00:00.000,2,CLOSE,2015-04-17T00:00:00.000
8,6780594,517919,4,QUEENS,145-02,107 AVENUE,11435,10080,10,2FL,12,2014-02-08T00:00:00.000,2,CLOSE,2015-04-21T00:00:00.000
9,6806599,526032,4,QUEENS,95-69,113 STREET,11419,9415,61,2,9,2014-02-21T00:00:00.000,2,CLOSE,2015-04-15T00:00:00.000
10,6819531,425718,4,QUEENS,149-19,38 AVENUE,11354,5017,31,2D,7,2014-03-01T00:00:00.000,2,CLOSE,2015-04-10T00:00:00.000
11,8320154,46208,2,BRONX,2325,ARTHUR AVENUE,10458,3065,70,20,6,2016-12-28T00:00:00.000,2,CLOSE,2017-01-24T00:00:00.000
12,6843568,523727,4,QUEENS,94-31,111 STREET,11419,9397,37,1,9,2014-03-14T00:00:00.000,2,CLOSE,2015-04-28T00:00:00.000
13,6847589,474751,4,QUEENS,41-41,76 STREET,11373,1496,56,BLDG,4,2014-03-18T00:00:00.000,2,CLOSE,2015-04-15T00:00:00.000
14,6855151,348534,3,BROOKLYN,3017,OCEAN PARKWAY,11235,8669,77,7A,13,2014-03-23T00:00:00.000,2,CLOSE,2015-04-25T00:00:00.000
15,6855873,491190,4,QUEENS,85-21,85 STREET,11421,8864,31,1FL,9,2014-03-24T00:00:00.000,2,CLOSE,2015-04-23T00:00:00.000
16,6856158,374252,3,BROOKLYN,972,ST JOHNS PLACE,11213,1256,16,2,8,2014-03-24T00:00:00.000,2,CLOSE,2015-04-20T00:00:00.000
17,6863089,222873,3,BROOKLYN,447,CLINTON AVENUE,11238,1961,8,1R,2,2014-03-28T00:00:00.000,2,CLOSE,2015-04-24T00:00:00.000
18,6867537,445293,4,QUEENS,86-31,57 AVENUE,11373,2869,26,2C,4,2014-04-01T00:00:00.000,2,CLOSE,2015-04-22T00:00:00.000
19,6867696,558908,4,QUEENS,29-01,148 STREET,11354,4807,49,1E,7,2014-04-01T00:00:00.000,2,CLOSE,2015-04-21T00:00:00.000
20,6868004,692492,4,QUEENS,143-51,ROOSEVELT AVENUE,11354,5022,7502,BLDG,7,2014-04-02T00:00:00.000,2,CLOSE,2015-04-21T00:00:00.000
21,6876481,222859,3,BROOKLYN,410,CLINTON AVENUE,11238,1960,45,E1,2,2014-04-07T00:00:00.000,2,CLOSE,2015-04-24T00:00:00.000
22,6881157,288941,3,BROOKLYN,308,ELLERY STREET,11206,1579,21,4R,3,2014-04-11T00:00:00.000,2,CLOSE,2015-04-08T00:00:00.000
23,6881184,246857,3,BROOKLYN,191,EAST 17 STREET,11226,5121,60,5E,14,2014-04-11T00:00:00.000,2,CLOSE,2015-04-15T00:00:00.000
24,6882064,560920,4,QUEENS,2-19,150 STREET,11357,4493,82,BLDG,7,2014-04-12T00:00:00.000,2,CLOSE,2015-04-25T00:00:00.000
25,6891726,530514,4,QUEENS,83-19,116 STREET,11418,3321,63,5J,9,2014-04-22T00:00:00.000,2,CLOSE,2015-04-14T00:00:00.000
26,6899496,513944,4,QUEENS,108-12,103 AVENUE,11419,9513,6,2FL,10,2014-04-25T00:00:00.000,2,CLOSE,2015-04-21T00:00:00.000
27,6901184,119698,2,BRONX,1292,WASHINGTON AVENUE,10456,2373,23,21,3,2014-04-28T00:00:00.000,2,CLOSE,2015-04-28T00:00:00.000
28,6904037,314124,3,BROOKLYN,44,HOWARD AVENUE,11221,1485,40,3R,3,2014-04-30T00:00:00.000,2,CLOSE,2015-04-07T00:00:00.000
29,6905816,681119,4,QUEENS,213-19,MURDOCK AVENUE,11429,11136,45,1FL,13,2014-05-01T00:00:00.000,2,CLOSE,2015-04-23T00:00:00.000
30,8320155,104592,2,BRONX,910,PROSPECT AVENUE,10459,2690,22,20,2,2016-12-28T00:00:00.000,2,CLOSE,2017-01-02T00:00:00.000
31,6914040,932951,4,QUEENS,31-12,UNION STREET,11354,4414,7506,6A,7,2014-05-12T00:00:00.000,2,CLOSE,2015-04-07T00:00:00.000
32,6915308,424243,4,QUEENS,136-37,37 AVENUE,11354,4977,90,5E,7,2014-05-13T00:00:00.000,2,CLOSE,2015-04-06T00:00:00.000
33,6920731,474751,4,QUEENS,41-41,76 STREET,11373,1496,56,BLDG,4,2014-05-15T00:00:00.000,2,CLOSE,2015-04-15T00:00:00.000
34,6921352,103669,2,BRONX,1471,POPHAM AVENUE,10453,2877,202,6D,5,2014-05-16T00:00:00.000,2,CLOSE,2015-04-05T00:00:00.000
35,6921467,687034,4,QUEENS,14-11,PARSONS BOULEVARD,11357,4622,10,BLDG,7,2014-05-16T00:00:00.000,2,CLOSE,2015-04-14T00:00:00.000
36,6923267,102933,2,BRONX,3245,PERRY AVENUE,10467,3343,76,3F,7,2014-05-19T00:00:00.000,2,CLOSE,2015-04-03T00:00:00.000
37,6927270,116580,2,BRONX,1553,UNIONPORT ROAD,10462,3938,7501,TB,9,2014-05-26T00:00:00.000,2,CLOSE,2015-04-07T00:00:00.000
38,6927304,687101,4,QUEENS,20-15,PARSONS BOULEVARD,11357,4631,10,BLDG,7,2014-05-26T00:00:00.000,2,CLOSE,2015-04-07T00:00:00.000
39,6928292,120414,2,BRONX,2825,WEBB AVENUE,10468,3250,46,5F,8,2014-05-28T00:00:00.000,2,CLOSE,2015-04-03T00:00:00.000
40,6928770,97523,2,BRONX,2200,MORRIS AVENUE,10453,3170,21,C3,5,2014-05-28T00:00:00.000,2,CLOSE,2015-04-03T00:00:00.000
41,6929236,94587,2,BRONX,4391,MARTHA AVENUE,10470,3390,31,BSMT,12,2014-05-29T00:00:00.000,2,CLOSE,2015-04-03T00:00:00.000
42,6932547,477406,4,QUEENS,42-49,77 STREET,11373,1523,66,1FLREA,4,2014-06-03T00:00:00.000,2,CLOSE,2015-04-04T00:00:00.000
43,6933475,60535,2,BRONX,2487,DAVIDSON AVENUE,10468,3203,38,1D,7,2014-06-04T00:00:00.000,2,CLOSE,2015-04-09T00:00:00.000
44,8320162,115643,2,BRONX,1450,TOWNSEND AVENUE,10452,2844,38,BLDG,4,2016-12-28T00:00:00.000,2,CLOSE,2017-01-01T00:00:00.000
45,6938177,116683,2,BRONX,2600,UNIVERSITY AVENUE,10468,3215,1,4F,7,2014-06-06T00:00:00.000,2,CLOSE,2015-04-03T00:00:00.000
46,6938318,108457,2,BRONX,2265,SEDGWICK AVENUE,10468,3234,42,A5,7,2014-06-06T00:00:00.000,2,CLOSE,2015-04-03T00:00:00.000
47,6939022,932084,4,QUEENS,86-48,122 STREET,11418,9275,61,2FL,9,2014-06-08T00:00:00.000,2,CLOSE,2015-04-02T00:00:00.000
48,6940661,65197,2,BRONX,635,EAST 169 STREET,10456,2933,67,4A,3,2014-06-10T00:00:00.000,2,CLOSE,2015-04-07T00:00:00.000
49,6941086,902032,3,BROOKLYN,818,DEAN STREET,11238,1140,22,1A,8,2014-06-11T00:00:00.000,2,CLOSE,2015-04-23T00:00:00.000
50,6941452,580614,4,QUEENS,115-32,180 STREET,11434,10314,35,2FL,12,2014-06-11T00:00:00.000,2,CLOSE,2015-04-06T00:00:00.000
51,6943319,683597,4,QUEENS,146-80,GUY R BREWER BOULEVARD,11434,13307,91,219A,13,2014-06-14T00:00:00.000,2,CLOSE,2015-04-06T00:00:00.000
52,6943999,66670,2,BRONX,317,EAST 187 STREET,10458,3147,70,1W,5,2014-06-16T00:00:00.000,2,CLOSE,2015-04-03T00:00:00.000
53,6944135,810289,4,QUEENS,209-39,23 AVENUE,11360,5878,50,BLDG,7,2014-06-16T00:00:00.000,2,CLOSE,2015-04-10T00:00:00.000
54,6944625,94458,2,BRONX,2976,MARION AVENUE,10458,3285,19,2E,7,2014-06-17T00:00:00.000,2,CLOSE,2015-04-03T00:00:00.000
55,6945034,875328,2,BRONX,1434,OGDEN AVENUE,10452,2522,70,5R,4,2014-06-17T00:00:00.000,2,CLOSE,2015-04-04T00:00:00.000
56,6947281,348041,3,BROOKLYN,1510,OCEAN PARKWAY,11230,6612,1,3FL,12,2014-06-20T00:00:00.000,2,CLOSE,2015-04-25T00:00:00.000
57,6947548,424230,4,QUEENS,135-22,37 AVENUE,11354,4974,20,BLDG,7,2014-06-20T00:00:00.000,2,CLOSE,2015-04-25T00:00:00.000
58,8320164,96758,2,BRONX,2082,MOHEGAN AVENUE,10460,3123,44,4F,6,2016-12-28T00:00:00.000,2,CLOSE,2017-01-05T00:00:00.000
59,6948298,59321,2,BRONX,2850,CRESTON AVENUE,10468,3319,8,4B,7,2014-06-23T00:00:00.000,2,CLOSE,2015-04-03T00:00:00.000
60,6949893,108415,2,BRONX,1520,SEDGWICK AVENUE,10453,2880,17,15F,5,2014-06-25T00:00:00.000,2,CLOSE,2015-04-04T00:00:00.000
61,6950057,63479,2,BRONX,337,EAST 146 STREET,10451,2329,96,26,1,2014-06-25T00:00:00.000,2,CLOSE,2015-04-23T00:00:00.000
62,6950445,107089,2,BRONX,3191,ROCHAMBEAU AVENUE,10467,3335,118,5A,7,2014-06-25T00:00:00.000,2,CLOSE,2015-04-03T00:00:00.000
63,6954046,688177,4,QUEENS,141-30,PERSHING CRESCENT,11435,9715,146,BLDG,8,2014-06-26T00:00:00.000,2,CLOSE,2015-04-18T00:00:00.000
64,6954470,202422,3,BROOKLYN,210,BAY 34 STREET,11214,6888,52,BLDG,11,2014-06-26T00:00:00.000,2,CLOSE,2015-04-10T00:00:00.000
65,6954508,100295,2,BRONX,2418,OLINVILLE AVENUE,10467,4426,10,2J,11,2014-06-26T00:00:00.000,2,CLOSE,2015-04-03T00:00:00.000
66,6954985,55179,2,BRONX,4053,CARPENTER AVENUE,10466,4822,1,4D,12,2014-06-27T00:00:00.000,2,CLOSE,2015-04-07T00:00:00.000
67,6955533,48090,2,BRONX,831,BARTHOLDI STREET,10467,4633,1,4H,12,2014-06-29T00:00:00.000,2,CLOSE,2015-04-07T00:00:00.000
68,6955957,96734,2,BRONX,219,MIRIAM STREET,10458,3304,180,3B,7,2014-06-30T00:00:00.000,2,CLOSE,2015-04-07T00:00:00.000
69,7419244,73474,2,BRONX,261,EAST KINGSBRIDGE ROAD,10458,3293,113,35N,7,2015-04-01T00:00:00.000,2,CLOSE,2015-04-02T00:00:00.000
70,7419245,183665,3,BROOKLYN,319,ALBANY AVENUE,11213,1388,4,3B,8,2015-04-01T00:00:00.000,2,CLOSE,2015-04-04T00:00:00.000
71,7419246,693440,4,QUEENS,136-05,SANFORD AVENUE,11355,5043,7501,6C,7,2015-04-01T00:00:00.000,2,CLOSE,2015-04-06T00:00:00.000
72,7419247,51000,2,BRONX,1025,BOYNTON AVENUE,10472,3714,54,BLDG,9,2015-04-01T00:00:00.000,2,CLOSE,2015-04-08T00:00:00.000
73,7419248,43103,1,MANHATTAN,515,WEST 168 STREET,10032,2125,53,5C,12,2015-04-01T00:00:00.000,2,CLOSE,2015-04-13T00:00:00.000
74,7419249,873762,2,BRONX,776,EAST 213 STREET,10467,4660,159,2,12,2015-04-01T00:00:00.000,2,CLOSE,2015-04-10T00:00:00.000
75,7419250,55303,2,BRONX,4429,CARPENTER AVENUE,10470,5066,56,2,12,2015-04-01T00:00:00.000,2,CLOSE,2015-04-03T00:00:00.000
76,7419251,8283,1,MANHATTAN,4441,BROADWAY,10040,2180,505,BLDG,12,2015-04-01T00:00:00.000,2,CLOSE,2015-04-03T00:00:00.000
77,8320171,19122,1,MANHATTAN,328,EAST 106 STREET,10029,1677,40,1R,11,2016-12-28T00:00:00.000,2,CLOSE,2017-01-20T00:00:00.000
78,7419253,80097,2,BRONX,691,GERARD AVENUE,10451,2482,60,1D,4,2015-04-01T00:00:00.000,2,CLOSE,2015-04-04T00:00:00.000
79,7419254,226520,3,BROOKLYN,2401,CORTELYOU ROAD,11226,5168,7,11,17,2015-04-01T00:00:00.000,2,CLOSE,2015-04-04T00:00:00.000
80,7419255,109776,2,BRONX,975,SIMPSON STREET,10459,2724,5,2D,2,2015-04-01T00:00:00.000,2,CLOSE,2015-04-03T00:00:00.000
81,8320175,430758,4,QUEENS,102-48,43 AVENUE,11368,1978,23,3,4,2016-12-28T00:00:00.000,2,CLOSE,2017-01-01T00:00:00.000
82,7419257,97603,2,BRONX,2683,MORRIS AVENUE,10468,3317,53,1H,7,2015-04-01T00:00:00.000,2,CLOSE,2015-04-01T00:00:00.000
83,7419258,314794,3,BROOKLYN,214,HULL STREET,11233,1540,23,3L,16,2015-04-01T00:00:00.000,2,CLOSE,2015-04-06T00:00:00.000
84,7419259,118817,2,BRONX,2074,WALLACE AVENUE,10462,4292,1,BLDG,11,2015-04-01T00:00:00.000,2,CLOSE,2015-04-04T00:00:00.000
85,7419260,27333,1,MANHATTAN,684,RIVERSIDE DRIVE,10031,2092,46,3D,9,2015-04-01T00:00:00.000,2,CLOSE,2015-04-10T00:00:00.000
86,7419261,268599,3,BROOKLYN,462,EAST 52 STREET,11203,4723,19,1F,17,2015-04-01T00:00:00.000,2,CLOSE,2015-04-03T00:00:00.000
87,7419262,347895,3,BROOKLYN,1119,OCEAN PARKWAY,11230,6532,76,BLDG,12,2015-04-01T00:00:00.000,2,CLOSE,2015-04-08T00:00:00.000
88,7419263,703806,4,QUEENS,64-85,WETHEROLE STREET,11374,3097,38,BLDG,6,2015-04-01T00:00:00.000,2,CLOSE,2015-04-03T00:00:00.000
89,7419264,311915,3,BROOKLYN,530,HERZL STREET,11212,3620,38,B6,16,2015-04-01T00:00:00.000,2,CLOSE,2015-04-07T00:00:00.000
90,7419265,42166,1,MANHATTAN,515,WEST 147 STREET,10031,2079,21,1,9,2015-04-01T00:00:00.000,2,CLOSE,2015-04-02T00:00:00.000
91,7419266,51000,2,BRONX,1025,BOYNTON AVENUE,10472,3714,54,4C,9,2015-04-01T00:00:00.000,2,CLOSE,2015-04-03T00:00:00.000
92,7419267,326303,3,BROOKLYN,1309,LINCOLN PLACE,11213,1384,76,3R,8,2015-04-01T00:00:00.000,2,CLOSE,2015-04-04T00:00:00.000
93,7419268,326303,3,BROOKLYN,1309,LINCOLN PLACE,11213,1384,76,BLDG,8,2015-04-01T00:00:00.000,2,CLOSE,2015-04-07T00:00:00.000
94,7419269,115540,2,BRONX,1701,TOPPING AVENUE,10457,2791,49,2FL,4,2015-04-01T00:00:00.000,2,CLOSE,2015-04-02T00:00:00.000
95,7419270,326303,3,BROOKLYN,1309,LINCOLN PLACE,11213,1384,76,3L,8,2015-04-01T00:00:00.000,2,CLOSE,2015-04-14T00:00:00.000
96,7419271,86158,2,BRONX,1432,HOLLYWOOD AVENUE,10461,5403,60,1FL,10,2015-04-01T00:00:00.000,2,CLOSE,2015-04-03T00:00:00.000
97,7419272,71576,2,BRONX,711,EAST 231 STREET,10466,4845,31,5D,12,2015-04-01T00:00:00.000,2,CLOSE,2015-04-01T00:00:00.000
98,7419273,86158,2,BRONX,1432,HOLLYWOOD AVENUE,10461,5403,60,1FL,10,2015-04-01T00:00:00.000,2,CLOSE,2015-04-04T00:00:00.000
99,7419274,50422,2,BRONX,1390,BOSTON ROAD,10456,2962,17,BLDG,3,2015-04-01T00:00:00.000,2,CLOSE,2015-04-03T00:00:00.000
100,7419275,226520,3,BROOKLYN,2401,CORTELYOU ROAD,11226,5168,7,11,17,2015-04-01T00:00:00.000,2,CLOSE,2015-04-03T00:00:00.000
101,7419276,51000,2,BRONX,1025,BOYNTON AVENUE,10472,3714,54,BLDG,9,2015-04-01T00:00:00.000,2,CLOSE,2015-04-03T00:00:00.000
102,8320180,317800,3,BROOKLYN,305,JEFFERSON STREET,11237,3166,47,3R,4,2016-12-28T00:00:00.000,2,CLOSE,2017-01-07T00:00:00.000
103,7419278,67001,2,BRONX,230,EAST 196 STREET,10458,3300,44,28,7,2015-04-01T00:00:00.000,2,CLOSE,2015-04-03T00:00:00.000
104,7419279,51000,2,BRONX,1025,BOYNTON AVENUE,10472,3714,54,4C,9,2015-04-01T00:00:00.000,2,CLOSE,2015-04-03T00:00:00.000
105,7419280,330788,3,BROOKLYN,212,MADISON STREET,11216,1822,55,1A,3,2015-04-01T00:00:00.000,2,CLOSE,2015-04-04T00:00:00.000
106,7419281,60383,2,BRONX,2138,DALY AVENUE,10460,3129,4,5F,6,2015-04-01T00:00:00.000,2,CLOSE,2015-04-03T00:00:00.000
107,7419282,413265,4,QUEENS,21-63,27 STREET,11105,857,9,A2,1,2015-04-01T00:00:00.000,2,CLOSE,2015-04-02T00:00:00.000
108,7419283,51000,2,BRONX,1025,BOYNTON AVENUE,10472,3714,54,6B,9,2015-04-01T00:00:00.000,2,CLOSE,2015-04-03T00:00:00.000
109,7419284,51000,2,BRONX,1025,BOYNTON AVENUE,10472,3714,54,BLDG,9,2015-04-01T00:00:00.000,2,CLOSE,2015-04-03T00:00:00.000
110,7419285,51000,2,BRONX,1025,BOYNTON AVENUE,10472,3714,54,BLDG,9,2015-04-01T00:00:00.000,2,CLOSE,2015-04-03T00:00:00.000
111,7419286,27333,1,MANHATTAN,684,RIVERSIDE DRIVE,10031,2092,46,BLDG,9,2015-04-01T00:00:00.000,2,CLOSE,2015-04-10T00:00:00.000
112,7419287,268552,3,BROOKLYN,369,EAST 52 STREET,11203,4700,66,2F,17,2015-04-01T00:00:00.000,2,CLOSE,2015-04-04T00:00:00.000
113,7419288,118817,2,BRONX,2074,WALLACE AVENUE,10462,4292,1,BLDG,11,2015-04-01T00:00:00.000,2,CLOSE,2015-04-04T00:00:00.000
114,7419289,75968,2,BRONX,1121,ELDER AVENUE,10472,3739,67,BLDG,9,2015-04-01T00:00:00.000,2,CLOSE,2015-04-01T00:00:00.000
115,7419290,689230,4,QUEENS,115-08,POPPENHUSEN AVENUE,11356,3933,44,TOPFL,7,2015-04-01T00:00:00.000,2,CLOSE,2015-04-06T00:00:00.000
116,7419291,61016,2,BRONX,3343,DECATUR AVENUE,10467,3352,66,3C,7,2015-04-01T00:00:00.000,2,CLOSE,2015-04-03T00:00:00.000
117,7419293,81910,2,BRONX,2955,GRAND CONCOURSE,10468,3310,81,B54,7,2015-04-01T00:00:00.000,2,CLOSE,2015-04-03T00:00:00.000
118,7419294,47783,2,BRONX,4007,BARNES AVENUE,10466,4840,8,2FL,12,2015-04-01T00:00:00.000,2,CLOSE,2015-04-15T00:00:00.000
119,7419295,292358,3,BROOKLYN,1655,FLATBUSH AVENUE,11210,7579,10,604,18,2015-04-01T00:00:00.000,2,CLOSE,2015-04-04T00:00:00.000
120,7419296,31123,1,MANHATTAN,309,WEST 21 STREET,10011,745,29,1A,4,2015-04-01T00:00:00.000,2,CLOSE,2015-04-02T00:00:00.000
121,7419297,652848,4,QUEENS,88-35,ELMHURST AVENUE,11373,1512,26,6A,4,2015-04-01T00:00:00.000,2,CLOSE,2015-04-04T00:00:00.000
122,7419298,87408,2,BRONX,3053,HULL AVENUE,10467,3333,59,1N,7,2015-04-01T00:00:00.000,2,CLOSE,2015-04-03T00:00:00.000
123,7419299,42167,1,MANHATTAN,519,WEST 147 STREET,10031,2079,19,3,9,2015-04-01T00:00:00.000,2,CLOSE,2015-04-03T00:00:00.000
124,7419300,118817,2,BRONX,2074,WALLACE AVENUE,10462,4292,1,BLDG,11,2015-04-01T00:00:00.000,2,CLOSE,2015-04-04T00:00:00.000
125,7419301,55144,2,BRONX,3975,CARPENTER AVENUE,10466,4820,12,2C,12,2015-04-01T00:00:00.000,2,CLOSE,2015-04-03T00:00:00.000
126,7419302,324794,3,BROOKLYN,213,LEWIS AVENUE,11221,1625,7,BLDG,3,2015-04-01T00:00:00.000,2,CLOSE,2015-04-07T00:00:00.000
127,7419303,120425,2,BRONX,2856,WEBB AVENUE,10468,3250,71,BLDG,8,2015-04-01T00:00:00.000,2,CLOSE,2015-04-02T00:00:00.000
128,7419304,120425,2,BRONX,2856,WEBB AVENUE,10468,3250,71,BLDG,8,2015-04-01T00:00:00.000,2,CLOSE,2015-04-02T00:00:00.000
129,7419305,820850,3,BROOKLYN,1514,PACIFIC STREET,11213,1210,133,BLDG,8,2015-04-01T00:00:00.000,2,CLOSE,2015-04-02T00:00:00.000
130,7419306,209753,3,BROOKLYN,1803,BEVERLY ROAD,11226,5122,41,4B,14,2015-04-01T00:00:00.000,2,CLOSE,2015-04-07T00:00:00.000
131,7419307,27333,1,MANHATTAN,684,RIVERSIDE DRIVE,10031,2092,46,1E,9,2015-04-01T00:00:00.000,2,CLOSE,2015-04-10T00:00:00.000
132,7419308,78263,2,BRONX,1064,FINDLAY AVENUE,10456,2433,49,1,4,2015-04-01T00:00:00.000,2,CLOSE,2015-04-04T00:00:00.000
133,7419309,88388,2,BRONX,3422,IRWIN AVENUE,10463,5763,523,1STFL,8,2015-04-01T00:00:00.000,2,CLOSE,2015-04-04T00:00:00.000
134,7419310,78263,2,BRONX,1064,FINDLAY AVENUE,10456,2433,49,1,4,2015-04-01T00:00:00.000,2,CLOSE,2015-04-10T00:00:00.000
135,7419311,40560,1,MANHATTAN,138,WEST 133 STREET,10030,1917,48,A3D,10,2015-04-01T00:00:00.000,2,CLOSE,2015-04-02T00:00:00.000
136,7419312,847069,4,QUEENS,118-06,95 AVENUE,11419,9454,2,3FLR,9,2015-04-01T00:00:00.000,2,CLOSE,2015-04-03T00:00:00.000
137,7419313,339341,3,BROOKLYN,128,MONTAGUE STREET,11201,249,25,BLDG,2,2015-04-01T00:00:00.000,2,CLOSE,2015-04-06T00:00:00.000
138,7419314,21215,1,MANHATTAN,149,EDGECOMBE AVENUE,10030,2051,91,D1,9,2015-04-01T00:00:00.000,2,CLOSE,2015-04-03T00:00:00.000
139,7419292,383395,3,BROOKLYN,1654,UNION STREET,11213,1402,9,6,9,2015-04-01T00:00:00.000,2,CLOSE,2015-08-08T00:00:00.000
140,7419316,120425,2,BRONX,2856,WEBB AVENUE,10468,3250,71,BLDG,8,2015-04-01T00:00:00.000,2,CLOSE,2015-04-02T00:00:00.000
141,7419317,42167,1,MANHATTAN,519,WEST 147 STREET,10031,2079,19,3,9,2015-04-01T00:00:00.000,2,CLOSE,2015-04-03T00:00:00.000
142,7419318,396049,3,BROOKLYN,1091,WILLMOHR STREET,11212,4670,7,5A,17,2015-04-01T00:00:00.000,2,CLOSE,2015-04-02T00:00:00.000
143,7419319,951742,4,QUEENS,55-15,99 STREET,11368,1909,1,5E,4,2015-04-01T00:00:00.000,2,CLOSE,2015-04-08T00:00:00.000
144,7419320,55615,2,BRONX,1381,CASTLE HILL AVENUE,10462,3935,53,A6,9,2015-04-01T00:00:00.000,2,CLOSE,2015-04-04T00:00:00.000
145,7419321,107176,2,BRONX,2816,ROEBLING AVENUE,10461,5385,13,BLDG,10,2015-04-01T00:00:00.000,2,CLOSE,2015-04-03T00:00:00.000
146,7419322,60074,2,BRONX,2150,CROTONA PARKWAY,10460,3119,58,BLDG,6,2015-04-01T00:00:00.000,2,CLOSE,2015-04-03T00:00:00.000
147,7419323,192087,3,BROOKLYN,1122,AVENUE N,11230,6749,5,5C,14,2015-04-01T00:00:00.000,2,CLOSE,2015-04-21T00:00:00.000
148,7419324,692619,4,QUEENS,53-25,ROOSEVELT AVENUE,11377,1316,65,2LR,2,2015-04-01T00:00:00.000,2,CLOSE,2015-04-05T00:00:00.000
149,7419325,112023,2,BRONX,1015,SUMMIT AVENUE,10452,2523,150,6A,4,2015-04-01T00:00:00.000,2,CLOSE,2015-04-08T00:00:00.000
150,7419326,345401,3,BROOKLYN,109,NORTH 7 STREET,11249,2318,29,4L,1,2015-04-01T00:00:00.000,2,CLOSE,2015-04-05T00:00:00.000
151,7419327,65767,2,BRONX,806,EAST 175 STREET,10460,2952,46,2G,6,2015-04-01T00:00:00.000,2,CLOSE,2015-04-16T00:00:00.000
152,7419328,51001,2,BRONX,1030,BOYNTON AVENUE,10472,3715,17,BLDG,9,2015-04-01T00:00:00.000,2,CLOSE,2015-04-03T00:00:00.000
153,7419329,100520,2,BRONX,392,OLIVER PLACE,10458,3279,13,BLDG,7,2015-04-01T00:00:00.000,2,CLOSE,2015-04-03T00:00:00.000
154,7419330,198659,3,BROOKLYN,1002,BARBEY STREET,11207,4399,14,1,5,2015-04-01T00:00:00.000,2,CLOSE,2015-04-05T00:00:00.000
155,7419331,46502,2,BRONX,2800,BAILEY AVENUE,10463,3259,6,51D,8,2015-04-01T00:00:00.000,2,CLOSE,2015-04-06T00:00:00.000
156,7419332,51001,2,BRONX,1030,BOYNTON AVENUE,10472,3715,17,2J,9,2015-04-01T00:00:00.000,2,CLOSE,2015-04-03T00:00:00.000
157,7419333,55615,2,BRONX,1381,CASTLE HILL AVENUE,10462,3935,53,B15,9,2015-04-01T00:00:00.000,2,CLOSE,2015-04-04T00:00:00.000
158,8320188,197847,3,BROOKLYN,125,BAINBRIDGE STREET,11233,1680,53,1,3,2016-12-28T00:00:00.000,2,CLOSE,2017-01-04T00:00:00.000
159,7419335,52471,2,BRONX,3603,BRONXWOOD AVENUE,10469,4672,107,BLDG,12,2015-04-01T00:00:00.000,2,CLOSE,2015-04-03T00:00:00.000
160,7419336,4869,1,MANHATTAN,746,9 AVENUE,10019,1041,3,2RN,4,2015-04-01T00:00:00.000,2,CLOSE,2015-04-03T00:00:00.000
161,7419337,12716,1,MANHATTAN,234,EAST 25 STREET,10010,905,40,12,6,2015-04-01T00:00:00.000,2,CLOSE,2015-04-09T00:00:00.000
162,7419338,55615,2,BRONX,1381,CASTLE HILL AVENUE,10462,3935,53,B15,9,2015-04-01T00:00:00.000,2,CLOSE,2015-04-04T00:00:00.000
163,7419339,27412,1,MANHATTAN,106,RIVINGTON STREET,10002,411,72,3FL,3,2015-04-01T00:00:00.000,2,CLOSE,2015-04-03T00:00:00.000
164,7419340,42871,1,MANHATTAN,550,WEST 160 STREET,10032,2118,18,2A,12,2015-04-01T00:00:00.000,2,CLOSE,2015-04-04T00:00:00.000
165,7419341,202634,3,BROOKLYN,22,BAY 37 STREET,11214,6864,52,3D,11,2015-04-01T00:00:00.000,2,CLOSE,2015-04-04T00:00:00.000
166,7419342,43366,1,MANHATTAN,705,WEST 179 STREET,10033,2176,26,BLDG,12,2015-04-01T00:00:00.000,2,CLOSE,2015-04-04T00:00:00.000
167,7419343,112487,2,BRONX,1513,TAYLOR AVENUE,10460,3920,21,7,9,2015-04-01T00:00:00.000,2,CLOSE,2015-04-07T00:00:00.000
168,7419345,53832,2,BRONX,30,BUCHANAN PLACE,10453,3196,10,1A,5,2015-04-01T00:00:00.000,2,CLOSE,2015-04-09T00:00:00.000
169,7419346,293371,3,BROOKLYN,9205,FLATLANDS AVENUE,11236,8180,10,TOPFL,18,2015-04-01T00:00:00.000,2,CLOSE,2015-04-03T00:00:00.000
170,7419347,559851,4,QUEENS,259-34,149 ROAD,11422,13698,28,BSMNT,13,2015-04-01T00:00:00.000,2,CLOSE,2015-04-02T00:00:00.000
171,7419348,288358,3,BROOKLYN,234,ECKFORD STREET,11222,2622,51,1L,1,2015-04-01T00:00:00.000,2,CLOSE,2015-04-07T00:00:00.000
172,7419349,362208,3,BROOKLYN,503,RIDGEWOOD AVENUE,11208,4121,7,1FL,5,2015-04-01T00:00:00.000,2,CLOSE,2015-04-12T00:00:00.000
173,7419351,60073,2,BRONX,2144,CROTONA PARKWAY,10460,3119,52,4E,6,2015-04-01T00:00:00.000,2,CLOSE,2015-04-04T00:00:00.000
174,7419352,100520,2,BRONX,392,OLIVER PLACE,10458,3279,13,BLDG,7,2015-04-01T00:00:00.000,2,CLOSE,2015-04-03T00:00:00.000
175,7419353,91639,2,BRONX,1570,LELAND AVENUE,10460,3927,27,BLDG,9,2015-04-01T00:00:00.000,2,CLOSE,2015-04-04T00:00:00.000
176,7419354,383872,3,BROOKLYN,751,UNION STREET,11215,953,76,3R,6,2015-04-01T00:00:00.000,2,CLOSE,2015-04-06T00:00:00.000
177,7419355,12559,1,MANHATTAN,217,EAST 22 STREET,10010,903,13,24,6,2015-04-01T00:00:00.000,2,CLOSE,2015-04-11T00:00:00.000
178,7419356,101472,2,BRONX,3273,PARKSIDE PLACE,10467,3355,43,4A,7,2015-04-01T00:00:00.000,2,CLOSE,2015-04-04T00:00:00.000
179,7419357,55615,2,BRONX,1381,CASTLE HILL AVENUE,10462,3935,53,E11,9,2015-04-01T00:00:00.000,2,CLOSE,2015-04-04T00:00:00.000
180,7419358,412264,4,QUEENS,18-12,26 AVENUE,11102,886,33,2,1,2015-04-01T00:00:00.000,2,CLOSE,2015-04-02T00:00:00.000
181,7419359,363013,3,BROOKLYN,178,ROCKAWAY PARKWAY,11212,4632,11,4C,17,2015-04-01T00:00:00.000,2,CLOSE,2015-04-03T00:00:00.000
182,7419360,8300,1,MANHATTAN,4523,BROADWAY,10040,2180,633,4C,12,2015-04-01T00:00:00.000,2,CLOSE,2015-04-04T00:00:00.000
183,7419361,221400,3,BROOKLYN,305,CLARKSON AVENUE,11226,4828,75,9,9,2015-04-01T00:00:00.000,2,CLOSE,2015-04-05T00:00:00.000
184,7419362,343418,3,BROOKLYN,1122,NEW YORK AVENUE,11203,4917,26,1C,17,2015-04-01T00:00:00.000,2,CLOSE,2015-04-03T00:00:00.000
185,7419364,115715,2,BRONX,2431,TRATMAN AVENUE,10461,3975,40,BLDG,10,2015-04-01T00:00:00.000,2,CLOSE,2015-04-03T00:00:00.000
186,7419365,22786,1,MANHATTAN,174,HESTER STREET,10013,205,18,BLDG,2,2015-04-01T00:00:00.000,2,CLOSE,2015-04-14T00:00:00.000
187,7419366,46071,2,BRONX,733,ARNOW AVENUE,10467,4547,1,BLDG,11,2015-04-01T00:00:00.000,2,CLOSE,2015-04-02T00:00:00.000
188,7419367,376486,3,BROOKLYN,1555,STERLING PLACE,11213,1374,67,BSMT,8,2015-04-01T00:00:00.000,2,CLOSE,2015-04-04T00:00:00.000
189,7419368,376486,3,BROOKLYN,1555,STERLING PLACE,11213,1374,67,BSMT,8,2015-04-01T00:00:00.000,2,CLOSE,2015-04-12T00:00:00.000
190,7419369,217278,3,BROOKLYN,1014,CARROLL STREET,11225,1287,27,BLDG,9,2015-04-01T00:00:00.000,2,CLOSE,2015-04-06T00:00:00.000
191,7419370,37341,1,MANHATTAN,16,WEST 101 STREET,10025,1836,43,21,7,2015-04-01T00:00:00.000,2,CLOSE,2015-04-06T00:00:00.000
192,7419371,19233,1,MANHATTAN,24,EAST 109 STREET,10029,1614,58,4C,11,2015-04-01T00:00:00.000,2,CLOSE,2015-04-02T00:00:00.000
193,7419372,116852,2,BRONX,1841,DR M L KING JR BOULEVARD,10453,2879,45,5B,5,2015-04-01T00:00:00.000,2,CLOSE,2015-04-02T00:00:00.000
194,7419373,51791,2,BRONX,3940,BRONX BOULEVARD,10466,4819,42,6N,12,2015-04-01T00:00:00.000,2,CLOSE,2015-04-03T00:00:00.000
195,7419374,217278,3,BROOKLYN,1014,CARROLL STREET,11225,1287,27,2A,9,2015-04-01T00:00:00.000,2,CLOSE,2015-04-06T00:00:00.000
196,7419375,41494,1,MANHATTAN,137,WEST 141 STREET,10030,2010,6,56,10,2015-04-01T00:00:00.000,2,CLOSE,2015-04-04T00:00:00.000
197,7419376,675959,4,QUEENS,109-11,LIVERPOOL STREET,11435,11947,249,3,12,2015-04-01T00:00:00.000,2,CLOSE,2015-04-02T00:00:00.000
198,7419378,198107,3,BROOKLYN,447,BAINBRIDGE STREET,11233,1505,62,3F,3,2015-04-01T00:00:00.000,2,CLOSE,2015-04-06T00:00:00.000
199,7419379,806031,1,MANHATTAN,16,WEST 102 STREET,10025,1837,21,4B,7,2015-04-01T00:00:00.000,2,CLOSE,2015-04-03T00:00:00.000
200,7419382,87527,2,BRONX,3351,HULL AVENUE,10467,3348,54,1B,7,2015-04-01T00:00:00.000,2,CLOSE,2015-04-04T00:00:00.000
201,7419387,102863,2,BRONX,2968,PERRY AVENUE,10458,3292,19,BLDG,7,2015-04-01T00:00:00.000,2,CLOSE,2015-04-03T00:00:00.000
202,7419389,41668,1,MANHATTAN,541,WEST 142 STREET,10031,2074,7,43,9,2015-04-01T00:00:00.000,2,CLOSE,2015-04-04T00:00:00.000
203,7419390,306891,3,BROOKLYN,243,HANCOCK STREET,11216,1834,72,1,3,2015-04-01T00:00:00.000,2,CLOSE,2015-04-07T00:00:00.000
204,7419391,349509,3,BROOKLYN,1302,PACIFIC STREET,11216,1207,25,3D,8,2015-04-01T00:00:00.000,2,CLOSE,2015-04-02T00:00:00.000
205,7419395,28141,1,MANHATTAN,574,ST NICHOLAS AVENUE,10030,2048,16,33,10,2015-04-01T00:00:00.000,2,CLOSE,2015-04-14T00:00:00.000
206,7419396,118818,2,BRONX,2075,WALLACE AVENUE,10462,4291,1,464,11,2015-04-01T00:00:00.000,2,CLOSE,2015-04-04T00:00:00.000
207,7419397,811186,4,QUEENS,120,BEACH 19 STREET,11691,15638,1,6B,14,2015-04-01T00:00:00.000,2,CLOSE,2015-04-04T00:00:00.000
208,7419398,21850,1,MANHATTAN,660,FT WASHINGTON AVENUE,10040,2180,406,6A,12,2015-04-01T00:00:00.000,2,CLOSE,2015-04-01T00:00:00.000
209,7419399,948155,3,BROOKLYN,642,ELDERT LANE,11208,4257,1,6C,5,2015-04-01T00:00:00.000,2,CLOSE,2015-04-02T00:00:00.000
210,7419403,883806,2,BRONX,3121,VILLA AVENUE,10468,3322,57,11A,7,2015-04-01T00:00:00.000,2,CLOSE,2015-04-14T00:00:00.000
211,7419405,53832,2,BRONX,30,BUCHANAN PLACE,10453,3196,10,BLDG,5,2015-04-01T00:00:00.000,2,CLOSE,2015-04-09T00:00:00.000
212,7419407,288358,3,BROOKLYN,234,ECKFORD STREET,11222,2622,51,1L,1,2015-04-01T00:00:00.000,2,CLOSE,2015-04-07T00:00:00.000
213,7419408,89740,2,BRONX,3246,KINGSBRIDGE AVENUE,10463,5755,28,31,8,2015-04-01T00:00:00.000,2,CLOSE,2015-04-04T00:00:00.000
214,7419409,16961,1,MANHATTAN,334,EAST 81 STREET,10028,1543,38,4G,8,2015-04-01T00:00:00.000,2,CLOSE,2015-04-24T00:00:00.000
215,8320190,26996,1,MANHATTAN,22,POST AVENUE,10034,2220,41,55,12,2016-12-28T00:00:00.000,2,CLOSE,2017-01-29T00:00:00.000
216,7419412,693440,4,QUEENS,136-05,SANFORD AVENUE,11355,5043,7501,5,7,2015-04-01T00:00:00.000,2,CLOSE,2015-04-04T00:00:00.000
217,7419414,429215,4,QUEENS,25-62,41 STREET,11103,684,69,5C,1,2015-04-01T00:00:00.000,2,CLOSE,2015-04-02T00:00:00.000
218,7419415,60444,2,BRONX,1815,DAVIDSON AVENUE,10453,2867,139,BLDG,5,2015-04-01T00:00:00.000,2,CLOSE,2015-04-02T00:00:00.000
219,7419416,248689,3,BROOKLYN,65,EAST 19 STREET,11226,5100,91,4C,14,2015-04-01T00:00:00.000,2,CLOSE,2015-04-07T00:00:00.000
220,7419418,382514,3,BROOKLYN,332,TROY AVENUE,11213,1400,49,2R,9,2015-04-01T00:00:00.000,2,CLOSE,2015-04-17T00:00:00.000
221,7419419,49513,2,BRONX,2480,BELMONT AVENUE,10458,3091,1,10,6,2015-04-01T00:00:00.000,2,CLOSE,2015-04-03T00:00:00.000
222,7419420,67249,2,BRONX,357,EAST 201 STREET,10458,3281,40,5D,7,2015-04-01T00:00:00.000,2,CLOSE,2015-04-03T00:00:00.000
223,8320191,41510,1,MANHATTAN,224,WEST 141 STREET,10030,2026,51,5B,10,2016-12-28T00:00:00.000,2,CLOSE,2017-01-10T00:00:00.000
224,7419423,116542,2,BRONX,925,UNION AVENUE,10459,2668,33,3E,3,2015-04-01T00:00:00.000,2,CLOSE,2015-04-03T00:00:00.000
225,7419424,52885,2,BRONX,2001,BRUCKNER BOULEVARD,10472,3797,1,BLDG,9,2015-04-01T00:00:00.000,2,CLOSE,2015-04-02T00:00:00.000
226,7419425,21596,1,MANHATTAN,75,FAIRVIEW AVENUE,10040,2170,505,BLDG,12,2015-04-01T00:00:00.000,2,CLOSE,2015-04-03T00:00:00.000
227,7419427,14696,1,MANHATTAN,26,EAST 60 STREET,10022,1374,46,3C,8,2015-04-01T00:00:00.000,2,CLOSE,2015-04-06T00:00:00.000
228,8320192,42780,1,MANHATTAN,536,WEST 158 STREET,10032,2116,17,43,12,2016-12-28T00:00:00.000,2,CLOSE,2017-01-02T00:00:00.000
229,7419433,944539,2,BRONX,323,BEEKMAN AVENUE,10454,2555,124,UNIT2,1,2015-04-01T00:00:00.000,2,CLOSE,2015-04-03T00:00:00.000
230,7419435,65778,2,BRONX,870,EAST 175 STREET,10460,2957,34,5F,6,2015-04-01T00:00:00.000,2,CLOSE,2015-04-11T00:00:00.000
231,7419421,40518,1,MANHATTAN,45,WEST 132 STREET,10037,1730,9,11A,10,2015-04-01T00:00:00.000,2,CLOSE,2015-09-09T00:00:00.000
232,7419438,873260,3,BROOKLYN,2313,PACIFIC STREET,11233,1435,54,1,16,2015-04-01T00:00:00.000,2,CLOSE,2015-04-14T00:00:00.000
233,7419440,348492,3,BROOKLYN,269,OCEAN PARKWAY,11218,5358,86,BLDG,12,2015-04-01T00:00:00.000,2,CLOSE,2015-04-02T00:00:00.000
234,8320194,680746,4,QUEENS,22-30,MOTT AVENUE,11691,15661,12,4R,14,2016-12-28T00:00:00.000,2,CLOSE,2017-01-07T00:00:00.000
235,7419446,112037,2,BRONX,1050,SUMMIT AVENUE,10452,2525,20,1D,4,2015-04-01T00:00:00.000,2,CLOSE,2015-04-09T00:00:00.000
236,7419447,873260,3,BROOKLYN,2313,PACIFIC STREET,11233,1435,54,1,16,2015-04-01T00:00:00.000,2,CLOSE,2015-04-11T00:00:00.000
237,7419452,328452,3,BROOKLYN,34,LOGAN STREET,11208,4101,33,2FL,5,2015-04-01T00:00:00.000,2,CLOSE,2015-04-06T00:00:00.000
238,7419453,329640,3,BROOKLYN,15,MACKAY PLACE,11209,5881,38,BLDG,10,2015-04-01T00:00:00.000,2,CLOSE,2015-04-02T00:00:00.000
239,7419454,355151,3,BROOKLYN,1153,PRESIDENT STREET,11225,1275,66,2E,9,2015-04-01T00:00:00.000,2,CLOSE,2015-04-02T00:00:00.000
240,7419455,873260,3,BROOKLYN,2313,PACIFIC STREET,11233,1435,54,1,16,2015-04-01T00:00:00.000,2,CLOSE,2015-04-11T00:00:00.000
241,7419458,89073,2,BRONX,1465,JESUP AVENUE,10452,2872,207,1J,4,2015-04-01T00:00:00.000,2,CLOSE,2015-04-02T00:00:00.000
242,7419459,52012,2,BRONX,2420,BRONX PARK EAST,10467,4424,12,4H,11,2015-04-01T00:00:00.000,2,CLOSE,2015-04-02T00:00:00.000
243,7419460,324116,3,BROOKLYN,245,LENOX ROAD,11226,5066,79,1D,17,2015-04-01T00:00:00.000,2,CLOSE,2015-04-02T00:00:00.000
244,7419463,382458,3,BROOKLYN,229,TROY AVENUE,11213,1377,7,7,8,2015-04-01T00:00:00.000,2,CLOSE,2015-04-07T00:00:00.000
245,7419464,815027,4,QUEENS,22-59,DIX AVENUE,11691,15661,31,3E,14,2015-04-01T00:00:00.000,2,CLOSE,2015-04-08T00:00:00.000
246,7419465,631944,4,QUEENS,402,BEACH 25 STREET,11691,15774,50,BLDG,14,2015-04-01T00:00:00.000,2,CLOSE,2015-04-21T00:00:00.000
247,7419466,59959,2,BRONX,2431,CROTONA AVENUE,10458,3105,45,5,6,2015-04-01T00:00:00.000,2,CLOSE,2015-04-07T00:00:00.000
248,7419467,380440,3,BROOKLYN,316,SUYDAM STREET,11237,3220,28,1L,4,2015-04-01T00:00:00.000,2,CLOSE,2015-04-24T00:00:00.000
249,7419468,808943,3,BROOKLYN,37,NEW LOTS AVENUE,11212,3628,1,5C,16,2015-04-01T00:00:00.000,2,CLOSE,2015-04-16T00:00:00.000
250,7419469,5622,1,MANHATTAN,1697,AMSTERDAM AVENUE,10031,2059,32,33,9,2015-04-01T00:00:00.000,2,CLOSE,2015-04-04T00:00:00.000
251,7419470,317673,3,BROOKLYN,992,JEFFERSON AVENUE,11221,1488,39,BLDG,3,2015-04-01T00:00:00.000,2,CLOSE,2015-04-04T00:00:00.000
252,7419472,506626,4,QUEENS,26-11,96 STREET,11369,1376,53,1R,3,2015-04-01T00:00:00.000,2,CLOSE,2015-04-03T00:00:00.000
253,7419473,52012,2,BRONX,2420,BRONX PARK EAST,10467,4424,12,6G,11,2015-04-01T00:00:00.000,2,CLOSE,2015-04-02T00:00:00.000
254,7419474,323973,3,BROOKLYN,385,LEGION STREET,11212,3595,18,1F,16,2015-04-01T00:00:00.000,2,CLOSE,2015-04-03T00:00:00.000
255,7419478,98863,2,BRONX,1451,NEEDHAM AVENUE,10469,4717,45,BSNT,12,2015-04-01T00:00:00.000,2,CLOSE,2015-04-02T00:00:00.000
256,7419480,43555,1,MANHATTAN,534,WEST 187 STREET,10033,2156,72,7,12,2015-04-01T00:00:00.000,2,CLOSE,2015-04-04T00:00:00.000
257,7419482,956227,2,BRONX,104,SUNSET BOULEVARD,10473,3432,7501,104,9,2015-04-01T00:00:00.000,2,CLOSE,2015-04-04T00:00:00.000
258,8320198,531992,4,QUEENS,101-11,118 STREET,11419,9486,70,1STFL,9,2016-12-28T00:00:00.000,2,CLOSE,2017-01-09T00:00:00.000
259,7419489,37670,1,MANHATTAN,209,WEST 107 STREET,10025,1879,23,BLDG,7,2015-04-01T00:00:00.000,2,CLOSE,2015-04-02T00:00:00.000
260,7419491,55615,2,BRONX,1381,CASTLE HILL AVENUE,10462,3935,53,B15,9,2015-04-01T00:00:00.000,2,CLOSE,2015-04-04T00:00:00.000
261,7419494,296023,3,BROOKLYN,816,FRANKLIN AVENUE,11225,1185,46,3B,9,2015-04-01T00:00:00.000,2,CLOSE,2015-04-14T00:00:00.000
262,8320199,445360,4,QUEENS,97-30,57 AVENUE,11368,1918,65,12L,4,2016-12-28T00:00:00.000,2,CLOSE,2017-01-04T00:00:00.000
263,7419500,46462,2,BRONX,1047,AVENUE ST JOHN,10455,2603,208,2H,2,2015-04-01T00:00:00.000,2,CLOSE,2015-04-03T00:00:00.000
264,7419507,32401,1,MANHATTAN,51,WEST 35 STREET,10018,837,12,BLDG,5,2015-04-01T00:00:00.000,2,CLOSE,2015-04-02T00:00:00.000
265,8320200,101163,2,BRONX,3203,PARK AVENUE,10451,2421,36,5Q,4,2016-12-28T00:00:00.000,2,CLOSE,2017-01-04T00:00:00.000
266,7419517,808,1,MANHATTAN,128,2 AVENUE,10003,449,6,E1,3,2015-04-01T00:00:00.000,2,CLOSE,2015-04-03T00:00:00.000
267,7419520,811181,4,QUEENS,80-12,AUSTIN STREET,11415,3335,30,2B,9,2015-04-01T00:00:00.000,2,CLOSE,2015-04-03T00:00:00.000
268,7419522,234789,3,BROOKLYN,125,DUMONT AVENUE,11212,3554,48,2B,16,2015-04-01T00:00:00.000,2,CLOSE,2015-04-09T00:00:00.000
269,7419523,629934,4,QUEENS,82-67,AUSTIN STREET,11415,3353,1,416,9,2015-04-01T00:00:00.000,2,CLOSE,2015-04-02T00:00:00.000
270,7419524,671271,4,QUEENS,42-65,KISSENA BOULEVARD,11355,5180,1,BLDG,7,2015-04-01T00:00:00.000,2,CLOSE,2015-04-02T00:00:00.000
271,7419528,293933,3,BROOKLYN,1042,FLUSHING AVENUE,11237,3155,22,BLDG,4,2015-04-01T00:00:00.000,2,CLOSE,2015-04-03T00:00:00.000
272,7419448,424681,4,QUEENS,96-10,37 AVENUE,11368,1759,1,D11,3,2015-04-01T00:00:00.000,2,CLOSE,2015-06-23T00:00:00.000
273,7419515,28046,1,MANHATTAN,1640,ST NICHOLAS AVENUE,10040,2161,17,1E,12,2015-04-01T00:00:00.000,2,CLOSE,2015-06-08T00:00:00.000
274,7419450,633317,4,QUEENS,3-37,BEACH 68 STREET,11692,15916,58,2,14,2015-04-01T00:00:00.000,2,CLOSE,2015-07-07T00:00:00.000
275,7419456,25494,1,MANHATTAN,27,MONROE STREET,10002,276,14,BLDG,3,2015-04-01T00:00:00.000,2,CLOSE,2015-07-08T00:00:00.000
276,7419518,66387,2,BRONX,265,EAST 182 STREET,10457,3150,45,17,5,2015-04-01T00:00:00.000,2,CLOSE,2015-07-28T00:00:00.000
277,7419486,311238,3,BROOKLYN,126,HERKIMER STREET,11216,1867,20,10,3,2015-04-01T00:00:00.000,2,CLOSE,2015-08-18T00:00:00.000
278,7419531,811841,4,QUEENS,20-47,SEAGIRT BOULEVARD,11691,15815,220,5G,14,2015-04-01T00:00:00.000,2,CLOSE,2015-04-10T00:00:00.000
279,7419534,948155,3,BROOKLYN,642,ELDERT LANE,11208,4257,1,BLDG,5,2015-04-01T00:00:00.000,2,CLOSE,2015-04-02T00:00:00.000
280,7419535,65812,2,BRONX,255,EAST 176 STREET,10457,2802,46,2F,5,2015-04-01T00:00:00.000,2,CLOSE,2015-04-21T00:00:00.000
281,7419537,17309,1,MANHATTAN,424,EAST 83 STREET,10028,1562,34,1W,8,2015-04-01T00:00:00.000,2,CLOSE,2015-04-08T00:00:00.000
282,7419539,96760,2,BRONX,2090,MOHEGAN AVENUE,10460,3123,46,5D,6,2015-04-01T00:00:00.000,2,CLOSE,2015-04-04T00:00:00.000
283,7419540,19546,1,MANHATTAN,239,EAST 115 STREET,10029,1665,21,F5,11,2015-04-01T00:00:00.000,2,CLOSE,2015-04-07T00:00:00.000
284,7419541,14035,1,MANHATTAN,401,EAST 50 STREET,10022,1362,1,BLDG,6,2015-04-01T00:00:00.000,2,CLOSE,2015-04-03T00:00:00.000
285,7419542,27343,1,MANHATTAN,736,RIVERSIDE DRIVE,10031,2097,47,1E,9,2015-04-01T00:00:00.000,2,CLOSE,2015-04-05T00:00:00.000
286,7419543,19547,1,MANHATTAN,241,EAST 115 STREET,10029,1665,22,F3,11,2015-04-01T00:00:00.000,2,CLOSE,2015-04-07T00:00:00.000
287,7419544,809899,3,BROOKLYN,448,WILSON AVENUE,11221,3376,39,2DFL,4,2015-04-01T00:00:00.000,2,CLOSE,2015-04-18T00:00:00.000
288,7419546,27396,1,MANHATTAN,900,RIVERSIDE DRIVE,10032,2136,167,BLDG,12,2015-04-01T00:00:00.000,2,CLOSE,2015-04-01T00:00:00.000
289,7419547,305929,3,BROOKLYN,433,HALSEY STREET,11233,1659,44,2FL,3,2015-04-01T00:00:00.000,2,CLOSE,2015-04-04T00:00:00.000
290,7419548,110042,2,BRONX,1345,SOUTHERN BOULEVARD,10459,2976,87,3D,3,2015-04-01T00:00:00.000,2,CLOSE,2015-04-18T00:00:00.000
291,7419549,207846,3,BROOKLYN,2349,BENSON AVENUE,11214,6863,6,3A,11,2015-04-01T00:00:00.000,2,CLOSE,2015-04-04T00:00:00.000
292,7419550,95695,2,BRONX,1307,MERRIAM AVENUE,10452,2532,43,BLDG,4,2015-04-01T00:00:00.000,2,CLOSE,2015-04-02T00:00:00.000
293,7419551,211961,3,BROOKLYN,2407,BRIGHAM STREET,11235,7429,74,1STFLR,15,2015-04-01T00:00:00.000,2,CLOSE,2015-04-21T00:00:00.000
294,7419552,6209,1,MANHATTAN,27,AUDUBON AVENUE,10032,2123,52,BLDG,12,2015-04-01T00:00:00.000,2,CLOSE,2015-04-02T00:00:00.000
295,7419553,561847,4,QUEENS,109-66,153 STREET,11433,12142,20,BLDG,12,2015-04-01T00:00:00.000,2,CLOSE,2015-04-25T00:00:00.000
296,7419555,66460,2,BRONX,786,EAST 182 STREET,10460,3110,63,4H,6,2015-04-01T00:00:00.000,2,CLOSE,2015-04-16T00:00:00.000
297,8320201,808173,3,BROOKLYN,121,EAST 86 STREET,11236,4746,11,1J,17,2016-12-28T00:00:00.000,2,CLOSE,2017-01-19T00:00:00.000
298,7419557,811253,4,QUEENS,141,BEACH 56 PLACE,11692,15926,1,207,14,2015-04-01T00:00:00.000,2,CLOSE,2015-04-10T00:00:00.000
299,7419558,671271,4,QUEENS,42-65,KISSENA BOULEVARD,11355,5180,1,BLDG,7,2015-04-01T00:00:00.000,2,CLOSE,2015-04-02T00:00:00.000
300,7419559,62756,2,BRONX,347,EAST 138 STREET,10454,2301,46,BLDG,1,2015-04-01T00:00:00.000,2,CLOSE,2015-04-03T00:00:00.000
301,7419560,4168,1,MANHATTAN,2816,FREDERICK DOUGLASS BOULEVARD,10039,2035,1,6N,10,2015-04-01T00:00:00.000,2,CLOSE,2015-04-03T00:00:00.000
302,7419561,948155,3,BROOKLYN,642,ELDERT LANE,11208,4257,1,BLDG,5,2015-04-01T00:00:00.000,2,CLOSE,2015-04-02T00:00:00.000
303,7419562,53808,2,BRONX,890,BRYANT AVENUE,10474,2761,149,6D,2,2015-04-01T00:00:00.000,2,CLOSE,2015-04-21T00:00:00.000
304,7419563,239893,3,BROOKLYN,465,EAST 7 STREET,11218,5376,76,4P,12,2015-04-01T00:00:00.000,2,CLOSE,2015-04-03T00:00:00.000
305,7419564,671271,4,QUEENS,42-65,KISSENA BOULEVARD,11355,5180,1,BLDG,7,2015-04-01T00:00:00.000,2,CLOSE,2015-04-02T00:00:00.000
306,7419566,347157,3,BROOKLYN,1033,OCEAN AVENUE,11226,5220,77,2,14,2015-04-01T00:00:00.000,2,CLOSE,2015-04-07T00:00:00.000
307,7419567,66454,2,BRONX,747,EAST 182 STREET,10457,3099,4,19,6,2015-04-01T00:00:00.000,2,CLOSE,2015-04-14T00:00:00.000
308,7419568,808040,3,BROOKLYN,2078,CROPSEY AVENUE,11214,6469,1,3D,11,2015-04-01T00:00:00.000,2,CLOSE,2015-04-02T00:00:00.000
309,7419569,66460,2,BRONX,786,EAST 182 STREET,10460,3110,63,4H,6,2015-04-01T00:00:00.000,2,CLOSE,2015-04-15T00:00:00.000
310,7419570,55303,2,BRONX,4429,CARPENTER AVENUE,10470,5066,56,1,12,2015-04-01T00:00:00.000,2,CLOSE,2015-04-17T00:00:00.000
311,7419571,9144,1,MANHATTAN,275,CENTRAL PARK WEST,10024,1201,34,19D,7,2015-04-01T00:00:00.000,2,CLOSE,2015-04-01T00:00:00.000
312,7419572,97945,2,BRONX,1105,MORRISON AVENUE,10472,3744,39,1B,9,2015-04-01T00:00:00.000,2,CLOSE,2015-04-04T00:00:00.000
313,7419575,948155,3,BROOKLYN,642,ELDERT LANE,11208,4257,1,BLDG,5,2015-04-01T00:00:00.000,2,CLOSE,2015-04-02T00:00:00.000
314,7419576,14035,1,MANHATTAN,401,EAST 50 STREET,10022,1362,1,BLDG,6,2015-04-01T00:00:00.000,2,CLOSE,2015-04-03T00:00:00.000
315,7419577,360672,3,BROOKLYN,1220,REMSEN AVENUE,11236,8026,48,1,18,2015-04-01T00:00:00.000,2,CLOSE,2015-04-05T00:00:00.000
316,7419578,104328,2,BRONX,1390,PROSPECT AVENUE,10459,2971,19,1A,3,2015-04-01T00:00:00.000,2,CLOSE,2015-04-09T00:00:00.000
317,7419579,317673,3,BROOKLYN,992,JEFFERSON AVENUE,11221,1488,39,8,3,2015-04-01T00:00:00.000,2,CLOSE,2015-04-04T00:00:00.000
318,7419581,8026,1,MANHATTAN,3413,BROADWAY,10031,2087,34,BLDG,9,2015-04-01T00:00:00.000,2,CLOSE,2015-04-06T00:00:00.000
319,7419582,948155,3,BROOKLYN,642,ELDERT LANE,11208,4257,1,2C,5,2015-04-01T00:00:00.000,2,CLOSE,2015-04-02T00:00:00.000
320,8320202,306278,3,BROOKLYN,823,HALSEY STREET,11233,1491,57,3L,3,2016-12-28T00:00:00.000,2,CLOSE,2017-01-13T00:00:00.000
321,7419584,804916,1,MANHATTAN,13,HAMILTON TERRACE,10031,2050,100,6A,9,2015-04-01T00:00:00.000,2,CLOSE,2015-04-08T00:00:00.000
322,7419545,37231,1,MANHATTAN,27,WEST 96 STREET,10025,1832,16,5D,7,2015-04-01T00:00:00.000,2,CLOSE,2015-06-25T00:00:00.000
323,7419554,14035,1,MANHATTAN,401,EAST 50 STREET,10022,1362,1,BLDG,6,2015-04-01T00:00:00.000,2,CLOSE,2015-06-02T00:00:00.000
324,7419585,303313,3,BROOKLYN,75,GRANT AVENUE,11208,4112,18,2B,5,2015-04-01T00:00:00.000,2,CLOSE,2015-04-21T00:00:00.000
325,7419586,37738,1,MANHATTAN,241,WEST 108 STREET,10025,1880,7,6A,7,2015-04-01T00:00:00.000,2,CLOSE,2015-04-16T00:00:00.000
326,7419588,8157,1,MANHATTAN,3885,BROADWAY,10032,2137,80,7,12,2015-04-01T00:00:00.000,2,CLOSE,2015-04-14T00:00:00.000
327,7419589,37466,1,MANHATTAN,111,WEST 104 STREET,10025,1859,24,BLDG,7,2015-04-01T00:00:00.000,2,CLOSE,2015-04-20T00:00:00.000
328,7419590,6126,1,MANHATTAN,23,ARDEN STREET,10040,2174,189,BLDG,12,2015-04-01T00:00:00.000,2,CLOSE,2015-04-04T00:00:00.000
329,7419591,927455,2,BRONX,2438A,BEAUMONT AVENUE,10458,3105,13,1A,6,2015-04-01T00:00:00.000,2,CLOSE,2015-04-04T00:00:00.000
330,7419592,61018,2,BRONX,3345,DECATUR AVENUE,10467,3352,63,2B,7,2015-04-01T00:00:00.000,2,CLOSE,2015-04-03T00:00:00.000
331,7419593,27338,1,MANHATTAN,710,RIVERSIDE DRIVE,10031,2095,20,3D,9,2015-04-01T00:00:00.000,2,CLOSE,2015-04-24T00:00:00.000
332,7419594,79703,2,BRONX,1165,FULTON AVENUE,10456,2609,51,1HBSMT,3,2015-04-01T00:00:00.000,2,CLOSE,2015-04-16T00:00:00.000
333,7419595,706055,4,QUEENS,67-70,YELLOWSTONE BOULEVARD,11375,2136,33,5R,6,2015-04-01T00:00:00.000,2,CLOSE,2015-04-08T00:00:00.000
334,7419597,120819,2,BRONX,1767,WEEKS AVENUE,10457,2796,42,3F,5,2015-04-01T00:00:00.000,2,CLOSE,2015-04-16T00:00:00.000
335,7419598,33979,1,MANHATTAN,436,WEST 52 STREET,10019,1061,51,12E,4,2015-04-01T00:00:00.000,2,CLOSE,2015-04-17T00:00:00.000
336,7419599,359152,3,BROOKLYN,226,QUINCY STREET,11216,1807,36,2,3,2015-04-01T00:00:00.000,2,CLOSE,2015-04-04T00:00:00.000
337,8320204,282362,3,BROOKLYN,126,EAST 93 STREET,11212,4611,13,2R,17,2016-12-28T00:00:00.000,2,CLOSE,2017-01-04T00:00:00.000
338,7419602,358223,3,BROOKLYN,489,PUTNAM AVENUE,11221,1825,44,2,3,2015-04-01T00:00:00.000,2,CLOSE,2015-04-16T00:00:00.000
339,7419603,120819,2,BRONX,1767,WEEKS AVENUE,10457,2796,42,3F,5,2015-04-01T00:00:00.000,2,CLOSE,2015-04-28T00:00:00.000
340,7419605,149493,3,BROOKLYN,1254,42 STREET,11219,5598,27,C6,12,2015-04-01T00:00:00.000,2,CLOSE,2015-04-11T00:00:00.000
341,7419606,114469,2,BRONX,2454,TIEBOUT AVENUE,10458,3022,58,6B,5,2015-04-01T00:00:00.000,2,CLOSE,2015-04-02T00:00:00.000
342,8320205,31104,1,MANHATTAN,246,WEST 21 STREET,10011,770,65,23,4,2016-12-28T00:00:00.000,2,CLOSE,2017-01-04T00:00:00.000
343,7419608,268599,3,BROOKLYN,462,EAST 52 STREET,11203,4723,19,BLDG,17,2015-04-01T00:00:00.000,2,CLOSE,2015-04-03T00:00:00.000
344,7419609,321709,3,BROOKLYN,432,KOSCIUSZKO STREET,11221,1605,39,3R,3,2015-04-01T00:00:00.000,2,CLOSE,2015-04-14T00:00:00.000
345,7419611,60449,2,BRONX,1975,DAVIDSON AVENUE,10453,2870,61,4G,5,2015-04-01T00:00:00.000,2,CLOSE,2015-04-04T00:00:00.000
346,7419613,67103,2,BRONX,320,EAST 197 STREET,10458,3288,25,5D,7,2015-04-01T00:00:00.000,2,CLOSE,2015-04-03T00:00:00.000
347,7419614,388456,3,BROOKLYN,702,WARWICK STREET,11207,4310,15,1,5,2015-04-01T00:00:00.000,2,CLOSE,2015-04-21T00:00:00.000
348,7419615,28300,1,MANHATTAN,950,ST NICHOLAS AVENUE,10032,2108,9,3,12,2015-04-01T00:00:00.000,2,CLOSE,2015-04-04T00:00:00.000
349,7419616,43713,1,MANHATTAN,646,WEST 207 STREET,10034,2240,21,BLDG,12,2015-04-01T00:00:00.000,2,CLOSE,2015-04-07T00:00:00.000
350,7419617,808,1,MANHATTAN,128,2 AVENUE,10003,449,6,C3,3,2015-04-01T00:00:00.000,2,CLOSE,2015-04-03T00:00:00.000
351,7419618,808,1,MANHATTAN,128,2 AVENUE,10003,449,6,BLDG,3,2015-04-01T00:00:00.000,2,CLOSE,2015-04-03T00:00:00.000
352,7419619,354135,3,BROOKLYN,2212,PITKIN AVENUE,11207,4009,22,1R,5,2015-04-01T00:00:00.000,2,CLOSE,2015-04-23T00:00:00.000
353,7419620,808,1,MANHATTAN,128,2 AVENUE,10003,449,6,BLDG,3,2015-04-01T00:00:00.000,2,CLOSE,2015-04-03T00:00:00.000
354,7419622,700220,4,QUEENS,42-37,UNION STREET,11355,5181,6,15B,7,2015-04-01T00:00:00.000,2,CLOSE,2015-04-06T00:00:00.000
355,7419623,811186,4,QUEENS,120,BEACH 19 STREET,11691,15638,1,BLDG,14,2015-04-01T00:00:00.000,2,CLOSE,2015-04-04T00:00:00.000
356,7419624,808394,3,BROOKLYN,600,GATES AVENUE,11221,1816,1,5B,3,2015-04-01T00:00:00.000,2,CLOSE,2015-04-09T00:00:00.000
357,8320206,98099,2,BRONX,226,MT HOPE PLACE,10457,2802,17,1A,5,2016-12-28T00:00:00.000,2,CLOSE,2017-01-04T00:00:00.000
358,7419627,67001,2,BRONX,230,EAST 196 STREET,10458,3300,44,BLDG,7,2015-04-01T00:00:00.000,2,CLOSE,2015-04-03T00:00:00.000
359,7419628,43523,1,MANHATTAN,603,WEST 185 STREET,10033,2166,53,3,12,2015-04-01T00:00:00.000,2,CLOSE,2015-04-15T00:00:00.000
360,7419629,80058,2,BRONX,1015,GERARD AVENUE,10452,2486,30,4G,4,2015-04-01T00:00:00.000,2,CLOSE,2015-04-08T00:00:00.000
361,7419630,393006,3,BROOKLYN,1684,WEST 10 STREET,11223,6621,42,5D,11,2015-04-01T00:00:00.000,2,CLOSE,2015-04-10T00:00:00.000
362,7419632,32921,1,MANHATTAN,351,WEST 42 STREET,10036,1033,6,1518,4,2015-04-01T00:00:00.000,2,CLOSE,2015-04-24T00:00:00.000
363,7419633,19910,1,MANHATTAN,453,EAST 117 STREET,10035,1711,121,4B,11,2015-04-01T00:00:00.000,2,CLOSE,2015-04-30T00:00:00.000
364,7419634,427527,4,QUEENS,52-05,39 ROAD,11377,1235,70,3A,2,2015-04-01T00:00:00.000,2,CLOSE,2015-04-21T00:00:00.000
365,7419596,120819,2,BRONX,1767,WEEKS AVENUE,10457,2796,42,3F,5,2015-04-01T00:00:00.000,2,CLOSE,2015-05-01T00:00:00.000
366,7419612,41678,1,MANHATTAN,605,WEST 142 STREET,10031,2089,24,6,9,2015-04-01T00:00:00.000,2,CLOSE,2015-06-05T00:00:00.000
367,7419621,396817,3,BROOKLYN,170,WILSON AVENUE,11237,3234,32,3L,4,2015-04-01T00:00:00.000,2,CLOSE,2015-06-20T00:00:00.000
368,7419604,59241,2,BRONX,2584,CRESTON AVENUE,10468,3168,1,23,7,2015-04-01T00:00:00.000,2,CLOSE,2015-07-16T00:00:00.000
369,7419610,814331,1,MANHATTAN,546,MAIN STREET,10044,1373,30,1118,8,2015-04-01T00:00:00.000,2,CLOSE,2015-07-29T00:00:00.000
370,7419635,20373,1,MANHATTAN,134,EAST 122 STREET,10035,1770,159,7D,11,2015-04-01T00:00:00.000,2,CLOSE,2015-04-02T00:00:00.000
371,7419636,236520,3,BROOKLYN,780,EAST 2 STREET,11218,5408,31,BLDG,14,2015-04-01T00:00:00.000,2,CLOSE,2015-04-02T00:00:00.000
372,7419637,686676,4,QUEENS,64-04,PALMETTO STREET,11385,3617,7,2,5,2015-04-01T00:00:00.000,2,CLOSE,2015-04-17T00:00:00.000
373,7419638,287261,3,BROOKLYN,1569,EAST NEW YORK AVENUE,11212,1461,27,2L,16,2015-04-01T00:00:00.000,2,CLOSE,2015-04-11T00:00:00.000
374,8320207,362421,3,BROOKLYN,265,ROCHESTER AVENUE,11213,1392,10,2C,8,2016-12-28T00:00:00.000,2,CLOSE,2017-01-23T00:00:00.000
375,7419640,288435,3,BROOKLYN,104,ELDERT STREET,11207,3415,36,1FL,4,2015-04-01T00:00:00.000,2,CLOSE,2015-04-06T00:00:00.000
376,7419642,117026,2,BRONX,2183,VALENTINE AVENUE,10457,3149,147,1D,5,2015-04-01T00:00:00.000,2,CLOSE,2015-04-05T00:00:00.000
377,7419643,806886,2,BRONX,20,RICHMAN PLAZA,10453,2882,229,16F,5,2015-04-01T00:00:00.000,2,CLOSE,2015-04-08T00:00:00.000
378,7419646,48151,2,BRONX,2248,BASSFORD AVENUE,10457,3050,98,3N,6,2015-04-01T00:00:00.000,2,CLOSE,2015-04-04T00:00:00.000
379,8320208,105071,2,BRONX,351,QUINCY AVENUE,10465,5579,86,1FL,10,2016-12-28T00:00:00.000,2,CLOSE,2017-01-04T00:00:00.000
380,7419649,23660,1,MANHATTAN,630,LENOX AVENUE,10037,1737,69,4H,10,2015-04-01T00:00:00.000,2,CLOSE,2015-04-06T00:00:00.000
381,7419650,65960,2,BRONX,245,EAST 178 STREET,10457,2811,1,1F,5,2015-04-01T00:00:00.000,2,CLOSE,2015-04-14T00:00:00.000
382,7419651,415418,4,QUEENS,23-05,29 STREET,11105,842,64,BLDG,1,2015-04-01T00:00:00.000,2,CLOSE,2015-04-02T00:00:00.000
383,7419652,807988,3,BROOKLYN,8,COLUMBIA PLACE,11201,258,17,GRFL,2,2015-04-01T00:00:00.000,2,CLOSE,2015-04-04T00:00:00.000
384,7419653,9778,1,MANHATTAN,476,COLUMBUS AVENUE,10024,1213,36,1A,7,2015-04-01T00:00:00.000,2,CLOSE,2015-04-09T00:00:00.000
385,8320212,92449,2,BRONX,991,EAST 173 STREET,10460,3002,47,3D,3,2016-12-28T00:00:00.000,2,CLOSE,2017-01-05T00:00:00.000
386,7419655,34184,1,MANHATTAN,49,WEST 55 STREET,10019,1271,14,3R,5,2015-04-01T00:00:00.000,2,CLOSE,2015-04-15T00:00:00.000
387,7419656,352599,3,BROOKLYN,150,PATCHEN AVENUE,11221,1652,43,4L,3,2015-04-01T00:00:00.000,2,CLOSE,2015-04-07T00:00:00.000
388,7419657,699233,4,QUEENS,84-09,TALBOT STREET,11415,3357,12,A21,9,2015-04-01T00:00:00.000,2,CLOSE,2015-04-10T00:00:00.000
389,7419658,838109,1,MANHATTAN,452,ST NICHOLAS AVENUE,10027,1958,41,1B,10,2015-04-01T00:00:00.000,2,CLOSE,2015-04-21T00:00:00.000
390,7419659,234759,3,BROOKLYN,1017,DUMONT AVENUE,11208,4067,50,1F,5,2015-04-01T00:00:00.000,2,CLOSE,2015-04-17T00:00:00.000
391,8320213,116892,2,BRONX,2170,DR M L KING JR BOULEVARD,10453,3211,9,4S,5,2016-12-28T00:00:00.000,2,CLOSE,2017-01-04T00:00:00.000
392,7419662,81919,2,BRONX,3034,GRAND CONCOURSE,10458,3308,1,D2N,7,2015-04-01T00:00:00.000,2,CLOSE,2015-04-04T00:00:00.000
393,7419663,55833,2,BRONX,762,CAULDWELL AVENUE,10456,2629,11,3,1,2015-04-01T00:00:00.000,2,CLOSE,2015-04-07T00:00:00.000
394,7419664,94228,2,BRONX,2048,MAPES AVENUE,10460,3108,2,BSMT,6,2015-04-01T00:00:00.000,2,CLOSE,2015-04-04T00:00:00.000
395,7419665,292832,3,BROOKLYN,606,FLATBUSH AVENUE,11225,5026,154,11225,9,2015-04-01T00:00:00.000,2,CLOSE,2015-04-04T00:00:00.000
396,7419667,59160,2,BRONX,2076,CRESTON AVENUE,10453,3160,14,A22,5,2015-04-01T00:00:00.000,2,CLOSE,2015-04-04T00:00:00.000
397,7419668,426133,4,QUEENS,22-06,38 STREET,11105,806,33,3A,1,2015-04-01T00:00:00.000,2,CLOSE,2015-04-08T00:00:00.000
398,7419670,809424,3,BROOKLYN,9747,SHORE ROAD,11209,6129,1,A7,10,2015-04-01T00:00:00.000,2,CLOSE,2015-04-05T00:00:00.000
399,7419671,352599,3,BROOKLYN,150,PATCHEN AVENUE,11221,1652,43,3L,3,2015-04-01T00:00:00.000,2,CLOSE,2015-04-09T00:00:00.000
400,7419672,357354,3,BROOKLYN,930,PROSPECT PLACE,11213,1235,27,C,8,2015-04-01T00:00:00.000,2,CLOSE,2015-04-05T00:00:00.000
401,7419673,87876,2,BRONX,842,HUNTS POINT AVENUE,10474,2762,14,1,2,2015-04-01T00:00:00.000,2,CLOSE,2015-04-03T00:00:00.000
402,7419674,6185,1,MANHATTAN,165,AUDUBON AVENUE,10033,2130,29,61,12,2015-04-01T00:00:00.000,2,CLOSE,2015-04-06T00:00:00.000
403,7419675,56143,2,BRONX,2222,CHATTERTON AVENUE,10472,3815,19,BSMT,9,2015-04-01T00:00:00.000,2,CLOSE,2015-04-18T00:00:00.000
404,8320217,31104,1,MANHATTAN,246,WEST 21 STREET,10011,770,65,23,4,2016-12-28T00:00:00.000,2,CLOSE,2017-01-07T00:00:00.000
405,7419677,234789,3,BROOKLYN,125,DUMONT AVENUE,11212,3554,48,2A,16,2015-04-01T00:00:00.000,2,CLOSE,2015-04-09T00:00:00.000
406,7419678,53805,2,BRONX,854,BRYANT AVENUE,10474,2762,153,5C,2,2015-04-01T00:00:00.000,2,CLOSE,2015-04-04T00:00:00.000
407,7419679,41261,1,MANHATTAN,629,WEST 138 STREET,10031,2087,16,44,9,2015-04-01T00:00:00.000,2,CLOSE,2015-04-10T00:00:00.000
408,7419680,53805,2,BRONX,854,BRYANT AVENUE,10474,2762,153,5C,2,2015-04-01T00:00:00.000,2,CLOSE,2015-04-16T00:00:00.000
409,7419682,104386,2,BRONX,2000,PROSPECT AVENUE,10457,3106,8,15D,6,2015-04-01T00:00:00.000,2,CLOSE,2015-04-04T00:00:00.000
410,7419684,454643,4,QUEENS,39-02,63 STREET,11377,1232,75,2C,2,2015-04-01T00:00:00.000,2,CLOSE,2015-04-06T00:00:00.000
411,7419685,331304,3,BROOKLYN,932,MADISON STREET,11221,1484,10,C1,3,2015-04-01T00:00:00.000,2,CLOSE,2015-04-04T00:00:00.000
412,7419686,307998,3,BROOKLYN,303,HARMAN STREET,11237,3279,47,3L,4,2015-04-01T00:00:00.000,2,CLOSE,2015-04-10T00:00:00.000
413,7419687,339742,3,BROOKLYN,1004,MONTGOMERY STREET,11213,1425,6,E7,9,2015-04-01T00:00:00.000,2,CLOSE,2015-04-04T00:00:00.000
414,7419688,53805,2,BRONX,854,BRYANT AVENUE,10474,2762,153,BC,2,2015-04-01T00:00:00.000,2,CLOSE,2015-04-03T00:00:00.000
415,7419681,305496,3,BROOKLYN,1110,HALSEY STREET,11207,3410,19,3F,4,2015-04-01T00:00:00.000,2,CLOSE,2015-06-06T00:00:00.000
416,7419683,374986,3,BROOKLYN,748,ST MARKS AVENUE,11216,1227,25,5C,8,2015-04-01T00:00:00.000,2,CLOSE,2015-09-04T00:00:00.000
417,7419689,53805,2,BRONX,854,BRYANT AVENUE,10474,2762,153,BC,2,2015-04-01T00:00:00.000,2,CLOSE,2015-04-03T00:00:00.000
418,7419690,454984,4,QUEENS,102-18,64 AVENUE,11375,2127,18,6N,6,2015-04-01T00:00:00.000,2,CLOSE,2015-04-08T00:00:00.000
419,7419691,72060,2,BRONX,685,EAST 233 STREET,10466,4994,7,3C,12,2015-04-01T00:00:00.000,2,CLOSE,2015-04-04T00:00:00.000
420,7419692,809424,3,BROOKLYN,9747,SHORE ROAD,11209,6129,1,A7,10,2015-04-01T00:00:00.000,2,CLOSE,2015-04-05T00:00:00.000
421,7419693,97380,2,BRONX,1346,MORRIS AVENUE,10456,2785,24,3E,4,2015-04-01T00:00:00.000,2,CLOSE,2015-04-22T00:00:00.000
422,8320219,43118,1,MANHATTAN,516,WEST 169 STREET,10032,2125,34,51,12,2016-12-28T00:00:00.000,2,CLOSE,2017-01-19T00:00:00.000
423,7419697,329526,3,BROOKLYN,3831,LYME AVENUE,11224,6976,53,1FL,13,2015-04-01T00:00:00.000,2,CLOSE,2015-04-06T00:00:00.000
424,7419698,389780,3,BROOKLYN,66,WELDON STREET,11208,4164,18,2,5,2015-04-01T00:00:00.000,2,CLOSE,2015-04-08T00:00:00.000
425,7419699,67001,2,BRONX,230,EAST 196 STREET,10458,3300,44,1B,7,2015-04-01T00:00:00.000,2,CLOSE,2015-04-08T00:00:00.000
426,7419700,25264,1,MANHATTAN,403,MANHATTAN AVENUE,10026,1943,51,2,10,2015-04-01T00:00:00.000,2,CLOSE,2015-04-05T00:00:00.000
427,7419701,172871,3,BROOKLYN,99,76 STREET,11209,5937,43,1STFL,10,2015-04-01T00:00:00.000,2,CLOSE,2015-04-05T00:00:00.000
428,7419702,100586,2,BRONX,1265,OLMSTEAD AVENUE,10462,3805,43,2G,9,2015-04-01T00:00:00.000,2,CLOSE,2015-04-04T00:00:00.000
429,7419703,46743,2,BRONX,3026,BAINBRIDGE AVENUE,10458,3299,13,ETW,7,2015-04-01T00:00:00.000,2,CLOSE,2015-04-03T00:00:00.000
430,7419704,210651,3,BROOKLYN,135,BLEECKER STREET,11221,3297,51,1A,4,2015-04-01T00:00:00.000,2,CLOSE,2015-04-15T00:00:00.000
431,7419705,415418,4,QUEENS,23-05,29 STREET,11105,842,64,4E,1,2015-04-01T00:00:00.000,2,CLOSE,2015-04-02T00:00:00.000
432,7419706,363337,3,BROOKLYN,94,ROCKAWAY PARKWAY,11212,4615,11,2A,17,2015-04-01T00:00:00.000,2,CLOSE,2015-04-11T00:00:00.000
433,7419707,18751,1,MANHATTAN,104,EAST 98 STREET,10029,1625,168,4A,11,2015-04-01T00:00:00.000,2,CLOSE,2015-04-07T00:00:00.000
434,7419708,325676,3,BROOKLYN,673,LIBERTY AVENUE,11207,3968,36,3L,5,2015-04-01T00:00:00.000,2,CLOSE,2015-04-17T00:00:00.000
435,7419709,389291,3,BROOKLYN,119,WEBSTER AVENUE,11230,5416,1,4,14,2015-04-01T00:00:00.000,2,CLOSE,2015-04-03T00:00:00.000
436,7419710,19547,1,MANHATTAN,241,EAST 115 STREET,10029,1665,22,D3,11,2015-04-01T00:00:00.000,2,CLOSE,2015-04-03T00:00:00.000
437,8320220,216941,3,BROOKLYN,115,CARLTON AVENUE,11205,2044,12,3B,2,2016-12-28T00:00:00.000,2,CLOSE,2017-01-25T00:00:00.000
438,7419712,325676,3,BROOKLYN,673,LIBERTY AVENUE,11207,3968,36,2R,5,2015-04-01T00:00:00.000,2,CLOSE,2015-04-04T00:00:00.000
439,7419713,47490,2,BRONX,2181,BARNES AVENUE,10462,4321,50,1K,11,2015-04-01T00:00:00.000,2,CLOSE,2015-04-13T00:00:00.000
440,7419714,186179,3,BROOKLYN,2935,ATLANTIC AVENUE,11207,3953,52,3F,5,2015-04-01T00:00:00.000,2,CLOSE,2015-04-11T00:00:00.000
441,7419715,631323,4,QUEENS,7-07,BEACH 9 STREET,11691,15572,1,6L,14,2015-04-01T00:00:00.000,2,CLOSE,2015-04-07T00:00:00.000
442,7419716,186179,3,BROOKLYN,2935,ATLANTIC AVENUE,11207,3953,52,2F,5,2015-04-01T00:00:00.000,2,CLOSE,2015-04-14T00:00:00.000
443,8320237,516975,4,QUEENS,177-44,106 AVENUE,11433,10334,25,2,12,2016-12-28T00:00:00.000,2,CLOSE,2017-01-02T00:00:00.000
444,7419719,70988,2,BRONX,645,EAST 228 STREET,10466,4831,55,2F,12,2015-04-01T00:00:00.000,2,CLOSE,2015-04-04T00:00:00.000
445,7419720,37417,1,MANHATTAN,315,WEST 102 STREET,10025,1890,7,3B,7,2015-04-01T00:00:00.000,2,CLOSE,2015-04-12T00:00:00.000
446,7419721,41684,1,MANHATTAN,618,WEST 142 STREET,10031,2088,106,6B,9,2015-04-01T00:00:00.000,2,CLOSE,2015-04-10T00:00:00.000
447,7419722,18441,1,MANHATTAN,316,EAST 93 STREET,10128,1555,42,4,8,2015-04-01T00:00:00.000,2,CLOSE,2015-04-21T00:00:00.000
448,7419723,92426,2,BRONX,1445,LONGFELLOW AVENUE,10459,2999,30,2E,3,2015-04-01T00:00:00.000,2,CLOSE,2015-04-10T00:00:00.000
449,7419724,66296,2,BRONX,999,EAST 180 STREET,10460,3138,1,6D,6,2015-04-01T00:00:00.000,2,CLOSE,2015-04-04T00:00:00.000
450,7419725,91579,2,BRONX,1448,LELAND AVENUE,10460,3902,20,1R,9,2015-04-01T00:00:00.000,2,CLOSE,2015-04-17T00:00:00.000
451,7419726,45745,2,BRONX,2533,AQUEDUCT AVENUE WEST,10468,3214,80,2C,7,2015-04-01T00:00:00.000,2,CLOSE,2015-04-09T00:00:00.000
452,7419727,63921,2,BRONX,377,EAST 153 STREET,10455,2400,33,BLDG,1,2015-04-01T00:00:00.000,2,CLOSE,2015-04-02T00:00:00.000
453,7419728,221531,3,BROOKLYN,173,CLASSON AVENUE,11205,1896,15,1L,3,2015-04-01T00:00:00.000,2,CLOSE,2015-04-11T00:00:00.000
454,7419730,55303,2,BRONX,4429,CARPENTER AVENUE,10470,5066,56,7,12,2015-04-01T00:00:00.000,2,CLOSE,2015-04-03T00:00:00.000
455,7419731,10901,1,MANHATTAN,218,EAST 6 STREET,10003,461,17,8,3,2015-04-01T00:00:00.000,2,CLOSE,2015-04-04T00:00:00.000
456,7419732,282442,3,BROOKLYN,140,EAST 93 STREET,11212,4611,19,2F,17,2015-04-01T00:00:00.000,2,CLOSE,2015-04-14T00:00:00.000
457,7419733,389291,3,BROOKLYN,119,WEBSTER AVENUE,11230,5416,1,4,14,2015-04-01T00:00:00.000,2,CLOSE,2015-04-06T00:00:00.000
458,7419734,45745,2,BRONX,2533,AQUEDUCT AVENUE WEST,10468,3214,80,4C,7,2015-04-01T00:00:00.000,2,CLOSE,2015-04-26T00:00:00.000
459,7419736,19545,1,MANHATTAN,237,EAST 115 STREET,10029,1665,18,BLDG,11,2015-04-01T00:00:00.000,2,CLOSE,2015-04-03T00:00:00.000
460,7419737,32588,1,MANHATTAN,449,WEST 37 STREET,10018,735,8,1FE,4,2015-04-01T00:00:00.000,2,CLOSE,2015-04-07T00:00:00.000
461,7419738,120200,2,BRONX,1856,WATSON AVENUE,10472,3730,48,BLDG,9,2015-04-01T00:00:00.000,2,CLOSE,2015-04-03T00:00:00.000
462,7419717,371959,3,BROOKLYN,183,SOUTH 2 STREET,11211,2407,41,1A,1,2015-04-01T00:00:00.000,2,CLOSE,2015-06-22T00:00:00.000
463,7419739,19545,1,MANHATTAN,237,EAST 115 STREET,10029,1665,18,BLDG,11,2015-04-01T00:00:00.000,2,CLOSE,2015-04-03T00:00:00.000
464,7419740,51992,2,BRONX,2160,BRONX PARK EAST,10462,4317,6,1H,11,2015-04-01T00:00:00.000,2,CLOSE,2015-04-04T00:00:00.000
465,7419741,56762,2,BRONX,105,CLARKE PLACE EAST,10452,2840,47,3D,4,2015-04-01T00:00:00.000,2,CLOSE,2015-04-04T00:00:00.000
466,7419743,21846,1,MANHATTAN,620,FT WASHINGTON AVENUE,10040,2180,350,2L,12,2015-04-01T00:00:00.000,2,CLOSE,2015-04-04T00:00:00.000
467,7419744,264542,3,BROOKLYN,160,EAST 45 STREET,11203,4824,42,1,9,2015-04-01T00:00:00.000,2,CLOSE,2015-04-06T00:00:00.000
468,7419745,32588,1,MANHATTAN,449,WEST 37 STREET,10018,735,8,1FE,4,2015-04-01T00:00:00.000,2,CLOSE,2015-04-07T00:00:00.000
469,7419746,118818,2,BRONX,2075,WALLACE AVENUE,10462,4291,1,144,11,2015-04-01T00:00:00.000,2,CLOSE,2015-04-19T00:00:00.000
470,7419747,808,1,MANHATTAN,128,2 AVENUE,10003,449,6,BLDG,3,2015-04-01T00:00:00.000,2,CLOSE,2015-04-03T00:00:00.000
471,7419748,108440,2,BRONX,1849,SEDGWICK AVENUE,10453,2881,84,17K,5,2015-04-01T00:00:00.000,2,CLOSE,2015-04-15T00:00:00.000
472,7419753,886478,3,BROOKLYN,199,HUMBOLDT STREET,11206,3044,7505,3B,1,2015-04-01T00:00:00.000,2,CLOSE,2015-04-18T00:00:00.000
473,7419755,459904,4,QUEENS,101-01,67 DRIVE,11375,3171,1,3F,6,2015-04-01T00:00:00.000,2,CLOSE,2015-04-09T00:00:00.000
474,7419756,43502,1,MANHATTAN,603,WEST 184 STREET,10033,2166,26,5ER,12,2015-04-01T00:00:00.000,2,CLOSE,2015-04-02T00:00:00.000
475,7419757,107074,2,BRONX,3150,ROCHAMBEAU AVENUE,10467,3335,60,BLDG,7,2015-04-01T00:00:00.000,2,CLOSE,2015-04-03T00:00:00.000
476,7419758,788939,5,STATEN ISLAND,655,TYSENS LANE,10306,3983,1,2C,3,2015-04-01T00:00:00.000,2,CLOSE,2015-04-04T00:00:00.000
477,7419759,97950,2,BRONX,1171,MORRISON AVENUE,10472,3744,14,3F,9,2015-04-01T00:00:00.000,2,CLOSE,2015-04-07T00:00:00.000
478,8320241,97949,2,BRONX,1155,MORRISON AVENUE,10472,3744,19,3M,9,2016-12-28T00:00:00.000,2,CLOSE,2017-01-11T00:00:00.000
479,7419761,17309,1,MANHATTAN,424,EAST 83 STREET,10028,1562,34,1W,8,2015-04-01T00:00:00.000,2,CLOSE,2015-04-02T00:00:00.000
480,7419762,28048,1,MANHATTAN,1649,ST NICHOLAS AVENUE,10040,2170,251,2B,12,2015-04-01T00:00:00.000,2,CLOSE,2015-04-15T00:00:00.000
481,7419763,162801,3,BROOKLYN,360,61 STREET,11220,5790,27,2R,7,2015-04-01T00:00:00.000,2,CLOSE,2015-04-06T00:00:00.000
482,7419766,88975,2,BRONX,2800,JEROME AVENUE,10468,3318,23,2M,7,2015-04-01T00:00:00.000,2,CLOSE,2015-04-03T00:00:00.000
483,7419767,6216,1,MANHATTAN,29,AUDUBON AVENUE,10032,2123,54,20,12,2015-04-01T00:00:00.000,2,CLOSE,2015-04-04T00:00:00.000
484,7419768,114408,2,BRONX,2119,TIEBOUT AVENUE,10457,3144,28,1F,5,2015-04-01T00:00:00.000,2,CLOSE,2015-04-07T00:00:00.000
485,7419769,122496,2,BRONX,806,WESTCHESTER AVENUE,10455,2676,45,8,1,2015-04-01T00:00:00.000,2,CLOSE,2015-04-15T00:00:00.000
486,8320242,808361,3,BROOKLYN,1711,FULTON STREET,11233,1691,12,2N,3,2016-12-28T00:00:00.000,2,CLOSE,2017-01-05T00:00:00.000
487,7419776,296031,3,BROOKLYN,847,FRANKLIN AVENUE,11225,1273,8,3S,9,2015-04-01T00:00:00.000,2,CLOSE,2015-04-04T00:00:00.000
488,8320243,633243,4,QUEENS,414,BEACH 67 STREET,11692,16040,6,1,14,2016-12-28T00:00:00.000,2,CLOSE,2017-01-01T00:00:00.000
489,7419778,120954,2,BRONX,74,WEST 165 STREET,10452,2508,22,10,4,2015-04-01T00:00:00.000,2,CLOSE,2015-04-04T00:00:00.000
490,7419780,45745,2,BRONX,2533,AQUEDUCT AVENUE WEST,10468,3214,80,6B,7,2015-04-01T00:00:00.000,2,CLOSE,2015-04-14T00:00:00.000
491,7419781,763173,5,STATEN ISLAND,452,MORNINGSTAR ROAD,10303,1178,66,FLR2,1,2015-04-01T00:00:00.000,2,CLOSE,2015-04-15T00:00:00.000
492,8320248,1217,1,MANHATTAN,2154,2 AVENUE,10029,1682,52,4A,11,2016-12-28T00:00:00.000,2,CLOSE,2017-01-05T00:00:00.000
493,7419783,362347,3,BROOKLYN,574,RIVERDALE AVENUE,11207,3838,40,3S,5,2015-04-01T00:00:00.000,2,CLOSE,2015-04-09T00:00:00.000
494,7419784,6285,1,MANHATTAN,85,AUDUBON AVENUE,10032,2126,30,5D,12,2015-04-01T00:00:00.000,2,CLOSE,2015-04-04T00:00:00.000
495,7419785,302989,3,BROOKLYN,69,GRANITE STREET,11207,3457,64,2,4,2015-04-01T00:00:00.000,2,CLOSE,2015-04-02T00:00:00.000
496,7419787,373982,3,BROOKLYN,380,ST JOHNS PLACE,11238,1176,23,1R,8,2015-04-01T00:00:00.000,2,CLOSE,2015-04-10T00:00:00.000
497,7419788,19546,1,MANHATTAN,239,EAST 115 STREET,10029,1665,21,BLDG,11,2015-04-01T00:00:00.000,2,CLOSE,2015-04-03T00:00:00.000
498,7419789,38689,1,MANHATTAN,207,WEST 119 STREET,10026,1925,19,2L,10,2015-04-01T00:00:00.000,2,CLOSE,2015-04-02T00:00:00.000
499,7419791,130888,3,BROOKLYN,6113,5 AVENUE,11220,5792,1,E4,7,2015-04-01T00:00:00.000,2,CLOSE,2015-04-17T00:00:00.000
500,7419792,120954,2,BRONX,74,WEST 165 STREET,10452,2508,22,10,4,2015-04-01T00:00:00.000,2,CLOSE,2015-04-06T00:00:00.000
501,7419793,97343,2,BRONX,1185,MORRIS AVENUE,10456,2449,64,3A,4,2015-04-01T00:00:00.000,2,CLOSE,2015-04-04T00:00:00.000
502,7419794,306891,3,BROOKLYN,243,HANCOCK STREET,11216,1834,72,BLDG,3,2015-04-01T00:00:00.000,2,CLOSE,2015-04-07T00:00:00.000
503,7419795,120954,2,BRONX,74,WEST 165 STREET,10452,2508,22,10,4,2015-04-01T00:00:00.000,2,CLOSE,2015-04-06T00:00:00.000
504,7419796,31671,1,MANHATTAN,245,WEST 25 STREET,10001,775,9,1A,4,2015-04-01T00:00:00.000,2,CLOSE,2015-04-21T00:00:00.000
505,7419750,28046,1,MANHATTAN,1640,ST NICHOLAS AVENUE,10040,2161,17,1H,12,2015-04-01T00:00:00.000,2,CLOSE,2015-06-28T00:00:00.000
506,7419773,498876,4,QUEENS,153-02,90 AVENUE,11432,9753,15,BLDG,12,2015-04-01T00:00:00.000,2,CLOSE,2015-06-13T00:00:00.000
507,7419774,346511,3,BROOKLYN,2501,NOSTRAND AVENUE,11210,7630,27,6C,18,2015-04-01T00:00:00.000,2,CLOSE,2015-06-01T00:00:00.000
508,7419772,17759,1,MANHATTAN,240,EAST 87 STREET,10128,1532,31,2G,8,2015-04-01T00:00:00.000,2,CLOSE,2015-07-06T00:00:00.000
509,7419797,6297,1,MANHATTAN,111,AVENUE A,10009,435,37,BLDG,3,2015-04-01T00:00:00.000,2,CLOSE,2015-04-04T00:00:00.000
510,7419798,362347,3,BROOKLYN,574,RIVERDALE AVENUE,11207,3838,40,3F,5,2015-04-01T00:00:00.000,2,CLOSE,2015-04-12T00:00:00.000
511,7419799,138349,3,BROOKLYN,5510,13 AVENUE,11219,5683,40,D3,12,2015-04-01T00:00:00.000,2,CLOSE,2015-04-08T00:00:00.000
512,7419800,340060,3,BROOKLYN,921,MONTGOMERY STREET,11213,1419,1,D3,9,2015-04-01T00:00:00.000,2,CLOSE,2015-04-18T00:00:00.000
513,7419801,81990,2,BRONX,900,GRAND CONCOURSE,10451,2460,1,1JN,4,2015-04-01T00:00:00.000,2,CLOSE,2015-04-08T00:00:00.000
514,7419802,130888,3,BROOKLYN,6113,5 AVENUE,11220,5792,1,E4,7,2015-04-01T00:00:00.000,2,CLOSE,2015-04-17T00:00:00.000
515,7419806,896336,4,QUEENS,101-10,101 AVENUE,11416,9419,4,1,9,2015-04-01T00:00:00.000,2,CLOSE,2015-04-18T00:00:00.000
516,7419807,51745,2,BRONX,3534,BRONX BOULEVARD,10467,4641,10,1D,12,2015-04-01T00:00:00.000,2,CLOSE,2015-04-09T00:00:00.000
517,7419808,45700,2,BRONX,2160,ANTHONY AVENUE,10457,3157,1,2C,5,2015-04-01T00:00:00.000,2,CLOSE,2015-04-08T00:00:00.000
518,7419809,230271,3,BROOKLYN,509,DE KALB AVENUE,11205,1927,65,2,3,2015-04-01T00:00:00.000,2,CLOSE,2015-04-12T00:00:00.000
519,7419810,230271,3,BROOKLYN,509,DE KALB AVENUE,11205,1927,65,2,3,2015-04-01T00:00:00.000,2,CLOSE,2015-04-14T00:00:00.000
520,7419811,896336,4,QUEENS,101-10,101 AVENUE,11416,9419,4,1,9,2015-04-01T00:00:00.000,2,CLOSE,2015-04-07T00:00:00.000
521,7419813,102863,2,BRONX,2968,PERRY AVENUE,10458,3292,19,BLDG,7,2015-04-01T00:00:00.000,2,CLOSE,2015-04-03T00:00:00.000
522,7419814,6297,1,MANHATTAN,111,AVENUE A,10009,435,37,1B,3,2015-04-01T00:00:00.000,2,CLOSE,2015-04-30T00:00:00.000
523,7419815,66296,2,BRONX,999,EAST 180 STREET,10460,3138,1,1G,6,2015-04-01T00:00:00.000,2,CLOSE,2015-04-04T00:00:00.000
524,7419816,31168,1,MANHATTAN,419,WEST 21 STREET,10011,719,29,6D,4,2015-04-01T00:00:00.000,2,CLOSE,2015-04-07T00:00:00.000
525,7419818,60473,2,BRONX,2073,DAVIDSON AVENUE,10453,3193,21,F,5,2015-04-01T00:00:00.000,2,CLOSE,2015-04-10T00:00:00.000
526,7419819,66514,2,BRONX,598,EAST 183 STREET,10458,3071,25,27,6,2015-04-01T00:00:00.000,2,CLOSE,2015-04-03T00:00:00.000
527,7419820,896336,4,QUEENS,101-10,101 AVENUE,11416,9419,4,BSMT,9,2015-04-01T00:00:00.000,2,CLOSE,2015-04-18T00:00:00.000
528,7419821,297817,3,BROOKLYN,2182,FULTON STREET,11233,1552,25,4F,16,2015-04-01T00:00:00.000,2,CLOSE,2015-04-14T00:00:00.000
529,7419822,315505,3,BROOKLYN,121,INDIA STREET,11222,2532,51,12,1,2015-04-01T00:00:00.000,2,CLOSE,2015-04-04T00:00:00.000
530,7419823,396050,3,BROOKLYN,1092,WILLMOHR STREET,11212,4692,3,A2,17,2015-04-01T00:00:00.000,2,CLOSE,2015-04-04T00:00:00.000
531,7419824,811186,4,QUEENS,120,BEACH 19 STREET,11691,15638,1,BLDG,14,2015-04-01T00:00:00.000,2,CLOSE,2015-04-04T00:00:00.000
532,7419825,56849,2,BRONX,1276,CLAY AVENUE,10456,2427,21,5B,4,2015-04-01T00:00:00.000,2,CLOSE,2015-04-10T00:00:00.000
533,7419826,452739,4,QUEENS,108-20,62 DRIVE,11375,2166,15,4D,6,2015-04-01T00:00:00.000,2,CLOSE,2015-04-25T00:00:00.000
534,7419827,948155,3,BROOKLYN,642,ELDERT LANE,11208,4257,1,6J,5,2015-04-01T00:00:00.000,2,CLOSE,2015-04-04T00:00:00.000
535,7419828,108767,2,BRONX,3866,SETON AVENUE,10466,4939,95,1F,12,2015-04-01T00:00:00.000,2,CLOSE,2015-04-04T00:00:00.000
536,7419829,27333,1,MANHATTAN,684,RIVERSIDE DRIVE,10031,2092,46,1D,9,2015-04-01T00:00:00.000,2,CLOSE,2015-04-14T00:00:00.000
537,7419830,79933,2,BRONX,770,GARDEN STREET,10460,3112,25,5A,6,2015-04-01T00:00:00.000,2,CLOSE,2015-04-09T00:00:00.000
538,7419831,352690,3,BROOKLYN,73,PATCHEN AVENUE,11221,1628,1,1,3,2015-04-01T00:00:00.000,2,CLOSE,2015-04-09T00:00:00.000
539,7419832,109480,2,BRONX,1440,SHERIDAN EXPRESSWAY SR,10459,3017,65,410,9,2015-04-01T00:00:00.000,2,CLOSE,2015-04-18T00:00:00.000
540,7419833,102706,2,BRONX,716,PENFIELD STREET,10470,5113,38,1A,12,2015-04-01T00:00:00.000,2,CLOSE,2015-04-03T00:00:00.000
541,7419834,4375,1,MANHATTAN,374,8 AVENUE,10001,778,73,2FL,5,2015-04-01T00:00:00.000,2,CLOSE,2015-04-07T00:00:00.000
542,7419835,299407,3,BROOKLYN,425,GATES AVENUE,11216,1808,85,3B,3,2015-04-01T00:00:00.000,2,CLOSE,2015-04-03T00:00:00.000
543,7419837,930563,2,BRONX,3457,EASTCHESTER ROAD,10469,4722,12,5E,12,2015-04-01T00:00:00.000,2,CLOSE,2015-04-15T00:00:00.000
544,7419839,95032,2,BRONX,3011,MATTHEWS AVENUE,10467,4572,44,5,12,2015-04-01T00:00:00.000,2,CLOSE,2015-04-21T00:00:00.000
545,7419841,39858,1,MANHATTAN,55,WEST 127 STREET,10027,1725,14,BLDG,10,2015-04-01T00:00:00.000,2,CLOSE,2015-04-03T00:00:00.000
546,7419842,357127,3,BROOKLYN,420,PROSPECT PLACE,11238,1162,16,BLDG,8,2015-04-01T00:00:00.000,2,CLOSE,2015-04-08T00:00:00.000
547,7419843,3856,1,MANHATTAN,200,WEST 58 STREET,10019,1029,36,3D,5,2015-04-01T00:00:00.000,2,CLOSE,2015-04-04T00:00:00.000
548,7419844,102706,2,BRONX,716,PENFIELD STREET,10470,5113,38,1A,12,2015-04-01T00:00:00.000,2,CLOSE,2015-04-04T00:00:00.000
549,7419845,118817,2,BRONX,2074,WALLACE AVENUE,10462,4292,1,BLDG,11,2015-04-01T00:00:00.000,2,CLOSE,2015-04-04T00:00:00.000
550,7419846,9930,1,MANHATTAN,310,CONVENT AVENUE,10031,2058,47,3D,9,2015-04-01T00:00:00.000,2,CLOSE,2015-04-21T00:00:00.000
551,7419847,373843,3,BROOKLYN,1656,ST JOHNS PLACE,11233,1387,42,5A,8,2015-04-01T00:00:00.000,2,CLOSE,2015-04-16T00:00:00.000
552,7419848,373843,3,BROOKLYN,1656,ST JOHNS PLACE,11233,1387,42,5A,8,2015-04-01T00:00:00.000,2,CLOSE,2015-04-21T00:00:00.000
553,7419849,348603,3,BROOKLYN,572,OCEAN PARKWAY,11218,5399,45,2I,12,2015-04-01T00:00:00.000,2,CLOSE,2015-04-08T00:00:00.000
554,7419838,21970,1,MANHATTAN,185,GRAND STREET,10013,236,18,1STFL,2,2015-04-01T00:00:00.000,2,CLOSE,2016-03-13T00:00:00.000
555,7419852,455264,4,QUEENS,97-25,64 AVENUE,11374,2090,47,B2,6,2015-04-01T00:00:00.000,2,CLOSE,2015-04-21T00:00:00.000
556,7419853,268167,3,BROOKLYN,146,EAST 52 STREET,11203,4621,21,2F,17,2015-04-01T00:00:00.000,2,CLOSE,2015-04-12T00:00:00.000
557,7419854,948155,3,BROOKLYN,642,ELDERT LANE,11208,4257,1,4D,5,2015-04-01T00:00:00.000,2,CLOSE,2015-04-04T00:00:00.000
558,7419855,137406,3,BROOKLYN,3815,12 AVENUE,11218,5294,2,3FL,12,2015-04-01T00:00:00.000,2,CLOSE,2015-04-21T00:00:00.000
559,7419856,364510,3,BROOKLYN,45,RUSSELL STREET,11222,2702,38,3FL,1,2015-04-01T00:00:00.000,2,CLOSE,2015-04-06T00:00:00.000
560,7419857,28934,1,MANHATTAN,170,VERMILYEA AVENUE,10034,2228,7,3A,12,2015-04-01T00:00:00.000,2,CLOSE,2015-04-07T00:00:00.000
561,7419858,63283,2,BRONX,410,EAST 143 STREET,10454,2287,11,1,1,2015-04-01T00:00:00.000,2,CLOSE,2015-04-10T00:00:00.000
562,7419859,667379,4,QUEENS,111-23,JAMAICA AVENUE,11418,9225,28,3,9,2015-04-01T00:00:00.000,2,CLOSE,2015-04-07T00:00:00.000
563,7419860,339818,3,BROOKLYN,377,MONTGOMERY STREET,11225,1296,52,B15,9,2015-04-01T00:00:00.000,2,CLOSE,2015-04-09T00:00:00.000
564,7419861,31671,1,MANHATTAN,245,WEST 25 STREET,10001,775,9,3A,4,2015-04-01T00:00:00.000,2,CLOSE,2015-04-21T00:00:00.000
565,7419862,62821,2,BRONX,526,EAST 138 STREET,10454,2265,33,10,1,2015-04-01T00:00:00.000,2,CLOSE,2015-04-04T00:00:00.000
566,7419863,60444,2,BRONX,1815,DAVIDSON AVENUE,10453,2867,139,BLDG,5,2015-04-01T00:00:00.000,2,CLOSE,2015-04-02T00:00:00.000
567,7419864,292164,3,BROOKLYN,1227,FLATBUSH AVENUE,11226,5210,30,1,14,2015-04-01T00:00:00.000,2,CLOSE,2015-04-02T00:00:00.000
568,7419866,146166,3,BROOKLYN,6402,24 AVENUE,11204,6559,36,1A,11,2015-04-01T00:00:00.000,2,CLOSE,2015-04-04T00:00:00.000
569,7419867,43437,1,MANHATTAN,564,WEST 182 STREET,10033,2154,12,3FL,12,2015-04-01T00:00:00.000,2,CLOSE,2015-04-21T00:00:00.000
570,7419868,146166,3,BROOKLYN,6402,24 AVENUE,11204,6559,36,BLDG,11,2015-04-01T00:00:00.000,2,CLOSE,2015-04-04T00:00:00.000
571,7419869,947185,3,BROOKLYN,455,92 STREET,11209,1777,33,BLDG,10,2015-04-01T00:00:00.000,2,CLOSE,2015-04-03T00:00:00.000
572,7419870,668027,4,QUEENS,184-13,JAMAICA AVENUE,11423,9905,28,2F,12,2015-04-01T00:00:00.000,2,CLOSE,2015-04-04T00:00:00.000
573,7419871,676589,4,QUEENS,1851,MADISON STREET,11385,3470,54,3L,5,2015-04-01T00:00:00.000,2,CLOSE,2015-04-22T00:00:00.000
574,7419873,118638,2,BRONX,442,WALES AVENUE,10455,2576,11,3A,1,2015-04-01T00:00:00.000,2,CLOSE,2015-04-05T00:00:00.000
575,7419874,763173,5,STATEN ISLAND,452,MORNINGSTAR ROAD,10303,1178,66,2NDFL,1,2015-04-01T00:00:00.000,2,CLOSE,2015-04-25T00:00:00.000
576,7419875,363173,3,BROOKLYN,379,ROCKAWAY PARKWAY,11212,4672,54,1F,17,2015-04-01T00:00:00.000,2,CLOSE,2015-04-08T00:00:00.000
577,7419876,99400,2,BRONX,660,NEREID AVENUE,10470,5041,26,6A,12,2015-04-01T00:00:00.000,2,CLOSE,2015-04-25T00:00:00.000
578,7419877,95891,2,BRONX,1591,METROPOLITAN AVENUE,10462,3944,7501,4D,9,2015-04-01T00:00:00.000,2,CLOSE,2015-04-03T00:00:00.000
579,7419878,224407,3,BROOKLYN,1020,CONEY ISLAND AVENUE,11230,5429,22,2R,14,2015-04-01T00:00:00.000,2,CLOSE,2015-04-14T00:00:00.000
580,7419879,763173,5,STATEN ISLAND,452,MORNINGSTAR ROAD,10303,1178,66,2NDFL,1,2015-04-01T00:00:00.000,2,CLOSE,2015-04-15T00:00:00.000
581,7419880,37712,1,MANHATTAN,9,WEST 107 STREET,10025,1843,26,BLDG,7,2015-04-01T00:00:00.000,2,CLOSE,2015-04-02T00:00:00.000
582,7419881,694908,4,QUEENS,106-10,SHORE FRONT PARKWAY,11694,16177,55,2S,14,2015-04-01T00:00:00.000,2,CLOSE,2015-04-07T00:00:00.000
583,7419882,12791,1,MANHATTAN,139,EAST 27 STREET,10016,883,31,6B,6,2015-04-01T00:00:00.000,2,CLOSE,2015-04-02T00:00:00.000
584,7419883,51777,2,BRONX,3750,BRONX BOULEVARD,10467,4649,21,BLDG,12,2015-04-01T00:00:00.000,2,CLOSE,2015-04-07T00:00:00.000
585,7419884,37712,1,MANHATTAN,9,WEST 107 STREET,10025,1843,26,BLDG,7,2015-04-01T00:00:00.000,2,CLOSE,2015-04-02T00:00:00.000
586,7419885,299324,3,BROOKLYN,330,GATES AVENUE,11216,1812,15,2,3,2015-04-01T00:00:00.000,2,CLOSE,2015-04-07T00:00:00.000
587,8320251,411338,4,QUEENS,21-24,CRESCENT STREET,11105,869,40,D7,1,2016-12-28T00:00:00.000,2,CLOSE,2017-01-01T00:00:00.000
588,7419888,108629,2,BRONX,1534,SELWYN AVENUE,10457,2820,9,3C,4,2015-04-01T00:00:00.000,2,CLOSE,2015-04-18T00:00:00.000
589,8320252,811224,4,QUEENS,106-20,SHORE FRONT PARKWAY,11694,16177,35,9R,14,2016-12-28T00:00:00.000,2,CLOSE,2017-01-03T00:00:00.000
590,7419891,17326,1,MANHATTAN,501 1/2,EAST 83 STREET,10028,1580,104,5E,8,2015-04-01T00:00:00.000,2,CLOSE,2015-04-04T00:00:00.000
591,8320254,278392,3,BROOKLYN,921,EAST 83 STREET,11236,8020,130,BSMT,18,2016-12-28T00:00:00.000,2,CLOSE,2017-01-11T00:00:00.000
592,7419893,333080,3,BROOKLYN,276,MARION STREET,11233,1519,16,6,3,2015-04-01T00:00:00.000,2,CLOSE,2015-04-07T00:00:00.000
593,7419894,97807,2,BRONX,632,MORRIS PARK AVENUE,10460,4030,4,2,11,2015-04-01T00:00:00.000,2,CLOSE,2015-04-11T00:00:00.000
594,7419895,67324,2,BRONX,220,EAST 204 STREET,10458,3309,10,5A,7,2015-04-01T00:00:00.000,2,CLOSE,2015-04-03T00:00:00.000
595,7419896,97523,2,BRONX,2200,MORRIS AVENUE,10453,3170,21,B4,5,2015-04-01T00:00:00.000,2,CLOSE,2015-04-10T00:00:00.000
596,7419897,218950,3,BROOKLYN,278,CHAUNCEY STREET,11233,1513,14,2R,3,2015-04-01T00:00:00.000,2,CLOSE,2015-04-21T00:00:00.000
597,7419898,33345,1,MANHATTAN,412,WEST 46 STREET,10036,1055,41,BLDG,4,2015-04-01T00:00:00.000,2,CLOSE,2015-04-08T00:00:00.000
598,7419899,15367,1,MANHATTAN,229,EAST 67 STREET,10065,1422,19,BLDG,8,2015-04-01T00:00:00.000,2,CLOSE,2015-04-03T00:00:00.000
599,7419900,363173,3,BROOKLYN,379,ROCKAWAY PARKWAY,11212,4672,54,1F,17,2015-04-01T00:00:00.000,2,CLOSE,2015-04-14T00:00:00.000
600,7419872,928755,1,MANHATTAN,250,EAST 49 STREET,10017,1322,7502,12C,6,2015-04-01T00:00:00.000,2,CLOSE,2015-06-13T00:00:00.000
601,7419901,228613,3,BROOKLYN,712,CROWN STREET,11213,1419,6,F16,9,2015-04-01T00:00:00.000,2,CLOSE,2015-04-09T00:00:00.000
602,7419905,234592,3,BROOKLYN,548,DRIGGS AVENUE,11211,2320,25,12,1,2015-04-01T00:00:00.000,2,CLOSE,2015-04-04T00:00:00.000
603,7419911,26984,1,MANHATTAN,101,POST AVENUE,10034,2219,1,4A,12,2015-04-01T00:00:00.000,2,CLOSE,2015-04-10T00:00:00.000
604,7419913,641109,4,QUEENS,148-81,BROOKVILLE BOULEVARD,11422,13747,5,2FL,13,2015-04-01T00:00:00.000,2,CLOSE,2015-04-14T00:00:00.000
605,7419914,333366,3,BROOKLYN,235,MARTENSE STREET,11226,5088,66,1R,17,2015-04-01T00:00:00.000,2,CLOSE,2015-04-05T00:00:00.000
606,7419915,69944,2,BRONX,763,EAST 223 STREET,10466,4837,15,2NDFL,12,2015-04-01T00:00:00.000,2,CLOSE,2015-04-03T00:00:00.000
607,7419919,37712,1,MANHATTAN,9,WEST 107 STREET,10025,1843,26,BLDG,7,2015-04-01T00:00:00.000,2,CLOSE,2015-04-02T00:00:00.000
608,7419920,14668,1,MANHATTAN,210,EAST 60 STREET,10022,1414,43,2,8,2015-04-01T00:00:00.000,2,CLOSE,2015-04-10T00:00:00.000
609,7419923,293950,3,BROOKLYN,1069,FLUSHING AVENUE,11237,3013,27,2L,1,2015-04-01T00:00:00.000,2,CLOSE,2015-04-21T00:00:00.000
610,7419924,391591,3,BROOKLYN,1315,WEST 7 STREET,11204,6578,100,BLDG,11,2015-04-01T00:00:00.000,2,CLOSE,2015-04-02T00:00:00.000
611,7419925,205689,3,BROOKLYN,1469,BEDFORD AVENUE,11216,1239,1,2B,8,2015-04-01T00:00:00.000,2,CLOSE,2015-04-05T00:00:00.000
612,7419928,804011,1,MANHATTAN,2187,AMSTERDAM AVENUE,10032,2112,15,D,12,2015-04-01T00:00:00.000,2,CLOSE,2015-04-09T00:00:00.000
613,7419930,371699,3,BROOKLYN,145,SOMERS STREET,11233,1540,52,2R,16,2015-04-01T00:00:00.000,2,CLOSE,2015-04-12T00:00:00.000
614,7419931,109544,2,BRONX,972,SHERMAN AVENUE,10456,2446,15,5B,4,2015-04-01T00:00:00.000,2,CLOSE,2015-04-04T00:00:00.000
615,7419932,9951,1,MANHATTAN,334,CONVENT AVENUE,10031,2059,17,12,9,2015-04-01T00:00:00.000,2,CLOSE,2015-04-07T00:00:00.000
616,7419933,6218,1,MANHATTAN,307,AUDUBON AVENUE,10033,2152,61,3I,12,2015-04-01T00:00:00.000,2,CLOSE,2015-04-18T00:00:00.000
617,7419935,65479,2,BRONX,1590,EAST 172 STREET,10472,3776,44,2B,9,2015-04-01T00:00:00.000,2,CLOSE,2015-04-06T00:00:00.000
618,7419937,89503,2,BRONX,935,KELLY STREET,10459,2703,18,5G,2,2015-04-01T00:00:00.000,2,CLOSE,2015-04-10T00:00:00.000
619,7419938,77323,2,BRONX,1036,FAILE STREET,10459,2748,7501,C,2,2015-04-01T00:00:00.000,2,CLOSE,2015-04-10T00:00:00.000
620,7419939,347649,3,BROOKLYN,354,OCEAN AVENUE,11226,5053,38,37,14,2015-04-01T00:00:00.000,2,CLOSE,2015-04-07T00:00:00.000
621,7419940,14035,1,MANHATTAN,401,EAST 50 STREET,10022,1362,1,25,6,2015-04-01T00:00:00.000,2,CLOSE,2015-04-03T00:00:00.000
622,7419941,55124,2,BRONX,3915,CARPENTER AVENUE,10466,4819,15,1G,12,2015-04-01T00:00:00.000,2,CLOSE,2015-04-08T00:00:00.000
623,8320263,941249,2,BRONX,1085,GERARD AVENUE,10452,2487,32,BLDG,4,2016-12-28T00:00:00.000,2,CLOSE,2017-01-04T00:00:00.000
624,7419944,404428,4,QUEENS,123-15,18 AVENUE,11356,4086,1,1L,7,2015-04-01T00:00:00.000,2,CLOSE,2015-04-28T00:00:00.000
625,7419945,21859,1,MANHATTAN,80,FT WASHINGTON AVENUE,10032,2137,40,61,12,2015-04-01T00:00:00.000,2,CLOSE,2015-04-13T00:00:00.000
626,7419947,311851,3,BROOKLYN,255,HERZL STREET,11212,3556,3,1,16,2015-04-01T00:00:00.000,2,CLOSE,2015-04-24T00:00:00.000
627,7419948,805173,1,MANHATTAN,43,MURRAY STREET,10007,133,7501,4FL,1,2015-04-01T00:00:00.000,2,CLOSE,2015-04-06T00:00:00.000
628,8320264,278392,3,BROOKLYN,921,EAST 83 STREET,11236,8020,130,BSMT,18,2016-12-28T00:00:00.000,2,CLOSE,2017-01-04T00:00:00.000
629,7419950,363340,3,BROOKLYN,99,ROCKAWAY PARKWAY,11212,4616,75,1R,17,2015-04-01T00:00:00.000,2,CLOSE,2015-04-07T00:00:00.000
630,7419951,108767,2,BRONX,3866,SETON AVENUE,10466,4939,95,1F,12,2015-04-01T00:00:00.000,2,CLOSE,2015-04-05T00:00:00.000
631,7419953,351589,3,BROOKLYN,1517,PARK PLACE,11213,1368,68,7F,8,2015-04-01T00:00:00.000,2,CLOSE,2015-04-10T00:00:00.000
632,7419956,65029,2,BRONX,101,EAST 168 STREET,10452,2466,1,1F,4,2015-04-01T00:00:00.000,2,CLOSE,2015-04-10T00:00:00.000
633,7419957,510438,4,QUEENS,35-12,99 STREET,11368,1739,11,C3,3,2015-04-01T00:00:00.000,2,CLOSE,2015-04-07T00:00:00.000
634,7419959,305038,3,BROOKLYN,357,GROVE STREET,11237,3319,47,2L,4,2015-04-01T00:00:00.000,2,CLOSE,2015-04-14T00:00:00.000
635,7419963,903404,2,BRONX,1489,GRAND CONCOURSE,10452,2834,1,2B,4,2015-04-01T00:00:00.000,2,CLOSE,2015-04-09T00:00:00.000
636,7419966,14035,1,MANHATTAN,401,EAST 50 STREET,10022,1362,1,25,6,2015-04-01T00:00:00.000,2,CLOSE,2015-04-07T00:00:00.000
637,7419968,6205,1,MANHATTAN,240,AUDUBON AVENUE,10033,2133,80,24,12,2015-04-01T00:00:00.000,2,CLOSE,2015-04-06T00:00:00.000
638,7419969,349517,3,BROOKLYN,1316,PACIFIC STREET,11216,1207,34,6,8,2015-04-01T00:00:00.000,2,CLOSE,2015-04-04T00:00:00.000
639,7419970,804158,1,MANHATTAN,180,CABRINI BOULEVARD,10033,2179,10,BLDG,12,2015-04-01T00:00:00.000,2,CLOSE,2015-04-04T00:00:00.000
640,7419971,2098,1,MANHATTAN,2243,3 AVENUE,10035,1787,1,602,11,2015-04-01T00:00:00.000,2,CLOSE,2015-04-10T00:00:00.000
641,7419975,21273,1,MANHATTAN,331,EDGECOMBE AVENUE,10031,2053,90,2C,9,2015-04-01T00:00:00.000,2,CLOSE,2015-04-08T00:00:00.000
642,7419903,228675,3,BROOKLYN,836,CROWN STREET,11213,1420,24,BSMT,9,2015-04-01T00:00:00.000,2,CLOSE,2015-05-22T00:00:00.000
643,7419973,14035,1,MANHATTAN,401,EAST 50 STREET,10022,1362,1,25,6,2015-04-01T00:00:00.000,2,CLOSE,2015-06-05T00:00:00.000
644,7419917,347749,3,BROOKLYN,55,OCEAN AVENUE,11225,5024,19,B1,9,2015-04-01T00:00:00.000,2,CLOSE,2015-08-18T00:00:00.000
645,7419974,37541,1,MANHATTAN,301,WEST 105 STREET,10025,1891,52,1R,7,2015-04-01T00:00:00.000,2,CLOSE,2015-09-28T00:00:00.000
646,7419977,35116,1,MANHATTAN,310,WEST 73 STREET,10023,1184,24,BLDG,7,2015-04-01T00:00:00.000,2,CLOSE,2015-04-02T00:00:00.000
647,7419979,327345,3,BROOKLYN,45,LINDEN BOULEVARD,11226,5083,86,2A,14,2015-04-01T00:00:00.000,2,CLOSE,2015-04-05T00:00:00.000
648,7419980,35115,1,MANHATTAN,308,WEST 73 STREET,10023,1184,23,BLDG,7,2015-04-01T00:00:00.000,2,CLOSE,2015-04-02T00:00:00.000
649,7419981,396049,3,BROOKLYN,1091,WILLMOHR STREET,11212,4670,7,BLDG,17,2015-04-01T00:00:00.000,2,CLOSE,2015-04-02T00:00:00.000
650,7419982,116945,2,BRONX,2336,DR M L KING JR BOULEVARD,10468,3212,46,7N,7,2015-04-01T00:00:00.000,2,CLOSE,2015-04-03T00:00:00.000
651,7419983,21273,1,MANHATTAN,331,EDGECOMBE AVENUE,10031,2053,90,2C,9,2015-04-01T00:00:00.000,2,CLOSE,2015-04-21T00:00:00.000
652,7419988,380801,3,BROOKLYN,17,TEHAMA STREET,11218,5309,43,BLDG,12,2015-04-01T00:00:00.000,2,CLOSE,2015-04-03T00:00:00.000
653,7419989,98103,2,BRONX,235,MT HOPE PLACE,10457,2804,48,2A,5,2015-04-01T00:00:00.000,2,CLOSE,2015-04-04T00:00:00.000
654,7419992,21859,1,MANHATTAN,80,FT WASHINGTON AVENUE,10032,2137,40,BLDG,12,2015-04-01T00:00:00.000,2,CLOSE,2015-04-13T00:00:00.000
655,7419994,11966,1,MANHATTAN,444,EAST 13 STREET,10009,440,30,BLDG,3,2015-04-01T00:00:00.000,2,CLOSE,2015-04-07T00:00:00.000
656,7419995,48340,2,BRONX,2326,BATHGATE AVENUE,10458,3052,28,3,6,2015-04-01T00:00:00.000,2,CLOSE,2015-04-04T00:00:00.000
657,7419996,500001,4,QUEENS,87-39,90 STREET,11421,8932,50,1FL,9,2015-04-01T00:00:00.000,2,CLOSE,2015-04-28T00:00:00.000
658,7419997,21859,1,MANHATTAN,80,FT WASHINGTON AVENUE,10032,2137,40,BLDG,12,2015-04-01T00:00:00.000,2,CLOSE,2015-04-13T00:00:00.000
659,7419998,380801,3,BROOKLYN,17,TEHAMA STREET,11218,5309,43,2F,12,2015-04-01T00:00:00.000,2,CLOSE,2015-04-14T00:00:00.000
660,7419999,60417,2,BRONX,1682,DAVIDSON AVENUE,10453,2861,19,5A,5,2015-04-01T00:00:00.000,2,CLOSE,2015-04-11T00:00:00.000
661,7420000,500001,4,QUEENS,87-39,90 STREET,11421,8932,50,1FL,9,2015-04-01T00:00:00.000,2,CLOSE,2015-04-28T00:00:00.000
662,7420002,120825,2,BRONX,1776,WEEKS AVENUE,10457,2797,23,2D,5,2015-04-01T00:00:00.000,2,CLOSE,2015-04-11T00:00:00.000
663,7420004,27531,1,MANHATTAN,165,SEAMAN AVENUE,10034,2242,5,6B,12,2015-04-01T00:00:00.000,2,CLOSE,2015-04-09T00:00:00.000
664,7420005,170127,3,BROOKLYN,217,73 STREET,11209,5907,75,2,10,2015-04-01T00:00:00.000,2,CLOSE,2015-04-10T00:00:00.000
665,7420007,21859,1,MANHATTAN,80,FT WASHINGTON AVENUE,10032,2137,40,BLDG,12,2015-04-01T00:00:00.000,2,CLOSE,2015-04-13T00:00:00.000
666,7420008,21859,1,MANHATTAN,80,FT WASHINGTON AVENUE,10032,2137,40,BLDG,12,2015-04-01T00:00:00.000,2,CLOSE,2015-04-13T00:00:00.000
667,7420009,805423,1,MANHATTAN,118,VERMILYEA AVENUE,10034,2235,29,C31,12,2015-04-01T00:00:00.000,2,CLOSE,2015-04-09T00:00:00.000
668,7420011,877395,2,BRONX,2384,HOFFMAN STREET,10458,3065,35,4A,6,2015-04-01T00:00:00.000,2,CLOSE,2015-04-16T00:00:00.000
669,7420012,21859,1,MANHATTAN,80,FT WASHINGTON AVENUE,10032,2137,40,BLDG,12,2015-04-01T00:00:00.000,2,CLOSE,2015-04-13T00:00:00.000
670,7420013,125619,2,BRONX,1001,WOODYCREST AVENUE,10452,2512,45,6D,4,2015-04-01T00:00:00.000,2,CLOSE,2015-04-10T00:00:00.000
671,7420016,21859,1,MANHATTAN,80,FT WASHINGTON AVENUE,10032,2137,40,BLDG,12,2015-04-01T00:00:00.000,2,CLOSE,2015-04-13T00:00:00.000
672,8320266,81890,2,BRONX,2871,GRAND CONCOURSE,10468,3319,113,2D,7,2016-12-28T00:00:00.000,2,CLOSE,2017-01-06T00:00:00.000
673,7420018,119863,2,BRONX,2268,WASHINGTON AVENUE,10457,3050,20,19,6,2015-04-01T00:00:00.000,2,CLOSE,2015-04-07T00:00:00.000
674,7420023,37012,1,MANHATTAN,307,WEST 93 STREET,10025,1252,46,4E+7,7,2015-04-01T00:00:00.000,2,CLOSE,2015-04-08T00:00:00.000
675,7420024,21859,1,MANHATTAN,80,FT WASHINGTON AVENUE,10032,2137,40,BLDG,12,2015-04-01T00:00:00.000,2,CLOSE,2015-04-13T00:00:00.000
676,7420027,932121,5,STATEN ISLAND,271,SAND LANE,10305,3110,4,1,2,2015-04-01T00:00:00.000,2,CLOSE,2015-04-18T00:00:00.000
677,7420028,21859,1,MANHATTAN,80,FT WASHINGTON AVENUE,10032,2137,40,51,12,2015-04-01T00:00:00.000,2,CLOSE,2015-04-13T00:00:00.000
678,8320267,51372,2,BRONX,3021,BRIGGS AVENUE,10458,3308,77,2A,7,2016-12-28T00:00:00.000,2,CLOSE,2017-01-05T00:00:00.000
679,7420030,510648,4,QUEENS,65-09,99 STREET,11374,2115,1,6F,6,2015-04-01T00:00:00.000,2,CLOSE,2015-04-08T00:00:00.000
680,7420031,289768,3,BROOKLYN,185,ERASMUS STREET,11226,5105,43,C8,17,2015-04-01T00:00:00.000,2,CLOSE,2015-04-17T00:00:00.000
681,7420032,107706,2,BRONX,1963,RYER AVENUE,10457,2814,82,2G,5,2015-04-01T00:00:00.000,2,CLOSE,2015-04-08T00:00:00.000
682,7420033,578267,4,QUEENS,115-30,175 STREET,11434,12405,123,2FL,12,2015-04-01T00:00:00.000,2,CLOSE,2015-04-25T00:00:00.000
683,7420034,641662,4,QUEENS,67-67,BURNS STREET,11375,3166,95,BLDG,6,2015-04-01T00:00:00.000,2,CLOSE,2015-04-02T00:00:00.000
684,7420035,21859,1,MANHATTAN,80,FT WASHINGTON AVENUE,10032,2137,40,52,12,2015-04-01T00:00:00.000,2,CLOSE,2015-04-13T00:00:00.000
685,7420039,285041,3,BROOKLYN,474,EAST 98 STREET,11212,4694,67,B5,17,2015-04-01T00:00:00.000,2,CLOSE,2015-04-07T00:00:00.000
686,7420040,79810,2,BRONX,4305,FURMAN AVENUE,10466,5043,1,3E,12,2015-04-01T00:00:00.000,2,CLOSE,2015-04-02T00:00:00.000
687,7420042,110176,2,BRONX,586,SOUTHERN BOULEVARD,10455,2603,22,21,2,2015-04-01T00:00:00.000,2,CLOSE,2015-04-03T00:00:00.000
688,7420043,119207,2,BRONX,2435,WALTON AVENUE,10468,3188,48,5B,5,2015-04-01T00:00:00.000,2,CLOSE,2015-04-04T00:00:00.000
689,7420045,41576,1,MANHATTAN,572,WEST 141 STREET,10031,2072,59,6A,9,2015-04-01T00:00:00.000,2,CLOSE,2015-04-03T00:00:00.000
690,7420010,36144,1,MANHATTAN,345,WEST 84 STREET,10024,1246,15,5,7,2015-04-01T00:00:00.000,2,CLOSE,2015-08-27T00:00:00.000
691,7420015,42029,1,MANHATTAN,271,WEST 146 STREET,10039,2032,6,2,10,2015-04-01T00:00:00.000,2,CLOSE,2015-08-12T00:00:00.000
692,7420046,106524,2,BRONX,1545,RHINELANDER AVENUE,10461,4222,93,5J,11,2015-04-01T00:00:00.000,2,CLOSE,2015-04-07T00:00:00.000
693,7420048,21859,1,MANHATTAN,80,FT WASHINGTON AVENUE,10032,2137,40,53,12,2015-04-01T00:00:00.000,2,CLOSE,2015-04-13T00:00:00.000
694,7420050,885697,3,BROOKLYN,306,EAST 29 STREET,11226,5194,109,BASE,17,2015-04-01T00:00:00.000,2,CLOSE,2015-04-21T00:00:00.000
695,7420051,88948,2,BRONX,2483,JEROME AVENUE,10468,3200,16,3C,7,2015-04-01T00:00:00.000,2,CLOSE,2015-04-16T00:00:00.000
696,7420052,9747,1,MANHATTAN,370,COLUMBUS AVENUE,10024,1149,33,2D,7,2015-04-01T00:00:00.000,2,CLOSE,2015-04-09T00:00:00.000
697,7420053,21859,1,MANHATTAN,80,FT WASHINGTON AVENUE,10032,2137,40,BLDG,12,2015-04-01T00:00:00.000,2,CLOSE,2015-04-13T00:00:00.000
698,7420056,77561,2,BRONX,709,FAIRMOUNT PLACE,10457,2950,30,C9,6,2015-04-01T00:00:00.000,2,CLOSE,2015-04-03T00:00:00.000
699,7420057,32401,1,MANHATTAN,51,WEST 35 STREET,10018,837,12,26,5,2015-04-01T00:00:00.000,2,CLOSE,2015-04-07T00:00:00.000
700,7420058,278840,3,BROOKLYN,734,EAST 84 STREET,11236,8004,50,2NDFL,18,2015-04-01T00:00:00.000,2,CLOSE,2015-04-21T00:00:00.000
701,7420059,344011,3,BROOKLYN,644,NEW YORK AVENUE,11203,4814,7502,BLDG,9,2015-04-01T00:00:00.000,2,CLOSE,2015-04-02T00:00:00.000
702,7420060,21859,1,MANHATTAN,80,FT WASHINGTON AVENUE,10032,2137,40,BLDG,12,2015-04-01T00:00:00.000,2,CLOSE,2015-04-13T00:00:00.000
703,7420061,102706,2,BRONX,716,PENFIELD STREET,10470,5113,38,BLDG,12,2015-04-01T00:00:00.000,2,CLOSE,2015-04-02T00:00:00.000
704,7420063,21859,1,MANHATTAN,80,FT WASHINGTON AVENUE,10032,2137,40,BLDG,12,2015-04-01T00:00:00.000,2,CLOSE,2015-04-13T00:00:00.000
705,7420064,66141,2,BRONX,800,EAST 179 STREET,10460,3107,16,APT9,6,2015-04-01T00:00:00.000,2,CLOSE,2015-04-03T00:00:00.000
706,7420065,51013,2,BRONX,1106,BOYNTON AVENUE,10472,3741,5,1D,9,2015-04-01T00:00:00.000,2,CLOSE,2015-04-04T00:00:00.000
707,7420066,181864,3,BROOKLYN,364,93 STREET,11209,6107,29,C11,10,2015-04-01T00:00:00.000,2,CLOSE,2015-04-18T00:00:00.000
708,7420067,810767,4,QUEENS,32-25,93 STREET,11369,1423,71,B15,3,2015-04-01T00:00:00.000,2,CLOSE,2015-04-06T00:00:00.000
709,7420068,125695,2,BRONX,957,WOODYCREST AVENUE,10452,2511,68,BLDG,4,2015-04-01T00:00:00.000,2,CLOSE,2015-04-02T00:00:00.000
710,7420069,344011,3,BROOKLYN,644,NEW YORK AVENUE,11203,4814,7502,1,9,2015-04-01T00:00:00.000,2,CLOSE,2015-04-15T00:00:00.000
711,7420070,21859,1,MANHATTAN,80,FT WASHINGTON AVENUE,10032,2137,40,57,12,2015-04-01T00:00:00.000,2,CLOSE,2015-04-13T00:00:00.000
712,7420071,21859,1,MANHATTAN,80,FT WASHINGTON AVENUE,10032,2137,40,BLDG,12,2015-04-01T00:00:00.000,2,CLOSE,2015-04-13T00:00:00.000
713,7420072,306891,3,BROOKLYN,243,HANCOCK STREET,11216,1834,72,1,3,2015-04-01T00:00:00.000,2,CLOSE,2015-04-07T00:00:00.000
714,7420073,60116,2,BRONX,2125,CRUGER AVENUE,10462,4287,40,5C,11,2015-04-01T00:00:00.000,2,CLOSE,2015-04-21T00:00:00.000
715,8320274,808045,3,BROOKLYN,49,CUMBERLAND STREET,11205,2030,56,BLDG,2,2016-12-28T00:00:00.000,2,CLOSE,2017-01-28T00:00:00.000
716,7420075,344011,3,BROOKLYN,644,NEW YORK AVENUE,11203,4814,7502,1,9,2015-04-01T00:00:00.000,2,CLOSE,2015-04-07T00:00:00.000
717,8320277,103224,2,BRONX,918,PIERCE AVENUE,10462,4058,38,1,11,2016-12-28T00:00:00.000,2,CLOSE,2017-01-01T00:00:00.000
718,7420078,21859,1,MANHATTAN,80,FT WASHINGTON AVENUE,10032,2137,40,BLDG,12,2015-04-01T00:00:00.000,2,CLOSE,2015-04-13T00:00:00.000
719,7420079,49315,2,BRONX,266,BEDFORD PARK BOULEVARD,10458,3297,11,BLDG,7,2015-04-01T00:00:00.000,2,CLOSE,2015-04-03T00:00:00.000
720,7420080,125695,2,BRONX,957,WOODYCREST AVENUE,10452,2511,68,30A,4,2015-04-01T00:00:00.000,2,CLOSE,2015-04-06T00:00:00.000
721,7420081,27201,1,MANHATTAN,1793,RIVERSIDE DRIVE,10034,2246,130,3G,12,2015-04-01T00:00:00.000,2,CLOSE,2015-04-05T00:00:00.000
722,7420082,21859,1,MANHATTAN,80,FT WASHINGTON AVENUE,10032,2137,40,42,12,2015-04-01T00:00:00.000,2,CLOSE,2015-04-13T00:00:00.000
723,7420085,10025,1,MANHATTAN,6,CONVENT AVENUE,10027,1967,73,1FL,9,2015-04-01T00:00:00.000,2,CLOSE,2015-04-24T00:00:00.000
724,7420087,821540,2,BRONX,1927,CROTONA AVENUE,10457,2946,128,BLDG,6,2015-04-01T00:00:00.000,2,CLOSE,2015-04-03T00:00:00.000
725,7420088,21859,1,MANHATTAN,80,FT WASHINGTON AVENUE,10032,2137,40,43,12,2015-04-01T00:00:00.000,2,CLOSE,2015-04-13T00:00:00.000
726,7420089,681087,4,QUEENS,204-19,MURDOCK AVENUE,11412,10999,77,2FL,12,2015-04-01T00:00:00.000,2,CLOSE,2015-04-04T00:00:00.000
727,7420090,10025,1,MANHATTAN,6,CONVENT AVENUE,10027,1967,73,1FL,9,2015-04-01T00:00:00.000,2,CLOSE,2015-04-24T00:00:00.000
728,7420091,19376,1,MANHATTAN,184,EAST 111 STREET,10029,1638,140,1A,11,2015-04-01T00:00:00.000,2,CLOSE,2015-04-08T00:00:00.000
729,7420093,75322,2,BRONX,538,EDISON AVENUE,10465,5440,18,2,10,2015-04-01T00:00:00.000,2,CLOSE,2015-04-21T00:00:00.000
730,7420094,21859,1,MANHATTAN,80,FT WASHINGTON AVENUE,10032,2137,40,44,12,2015-04-01T00:00:00.000,2,CLOSE,2015-04-13T00:00:00.000
731,7420095,21935,1,MANHATTAN,36,GRAMERCY PARK,10003,876,7503,BLDG,6,2015-04-01T00:00:00.000,2,CLOSE,2015-04-09T00:00:00.000
732,7420096,21859,1,MANHATTAN,80,FT WASHINGTON AVENUE,10032,2137,40,BLDG,12,2015-04-01T00:00:00.000,2,CLOSE,2015-04-13T00:00:00.000
733,7420097,119101,2,BRONX,1982,WALTON AVENUE,10453,2829,6,4E,5,2015-04-01T00:00:00.000,2,CLOSE,2015-04-12T00:00:00.000
734,7420098,8090,1,MANHATTAN,3612,BROADWAY,10031,2080,59,BLDG,9,2015-04-01T00:00:00.000,2,CLOSE,2015-04-08T00:00:00.000
735,7420100,360555,3,BROOKLYN,63,MALCOLM X BOULEVARD,11221,1612,5,2B,3,2015-04-01T00:00:00.000,2,CLOSE,2015-04-03T00:00:00.000
736,7420062,837902,3,BROOKLYN,278,MILFORD STREET,11208,4040,33,2,5,2015-04-01T00:00:00.000,2,CLOSE,2015-08-17T00:00:00.000
737,7420077,3618,1,MANHATTAN,2496,ADAM C POWELL BOULEVARD,10030,2030,36,7,10,2015-04-01T00:00:00.000,2,CLOSE,2015-09-09T00:00:00.000
738,7420101,21859,1,MANHATTAN,80,FT WASHINGTON AVENUE,10032,2137,40,46,12,2015-04-01T00:00:00.000,2,CLOSE,2015-04-13T00:00:00.000
739,7420102,771,1,MANHATTAN,117,2 AVENUE,10003,462,23,BLDG,3,2015-04-01T00:00:00.000,2,CLOSE,2015-04-05T00:00:00.000
740,7420103,430608,4,QUEENS,41-08,42 STREET,11104,184,23,BLDG,2,2015-04-01T00:00:00.000,2,CLOSE,2015-04-02T00:00:00.000
741,7420104,37712,1,MANHATTAN,9,WEST 107 STREET,10025,1843,26,1,7,2015-04-01T00:00:00.000,2,CLOSE,2015-04-02T00:00:00.000
742,7420106,84284,2,BRONX,3004,HEATH AVENUE,10463,3256,172,23,8,2015-04-01T00:00:00.000,2,CLOSE,2015-04-04T00:00:00.000
743,7420107,8090,1,MANHATTAN,3612,BROADWAY,10031,2080,59,BLDG,9,2015-04-01T00:00:00.000,2,CLOSE,2015-04-08T00:00:00.000
744,7420108,21859,1,MANHATTAN,80,FT WASHINGTON AVENUE,10032,2137,40,47,12,2015-04-01T00:00:00.000,2,CLOSE,2015-04-13T00:00:00.000
745,7420109,8090,1,MANHATTAN,3612,BROADWAY,10031,2080,59,BLDG,9,2015-04-01T00:00:00.000,2,CLOSE,2015-04-08T00:00:00.000
746,7420110,8090,1,MANHATTAN,3612,BROADWAY,10031,2080,59,BLDG,9,2015-04-01T00:00:00.000,2,CLOSE,2015-04-08T00:00:00.000
747,7420111,28338,1,MANHATTAN,66,ST NICHOLAS PLACE,10032,2054,82,5B,9,2015-04-01T00:00:00.000,2,CLOSE,2015-04-08T00:00:00.000
748,7420112,21859,1,MANHATTAN,80,FT WASHINGTON AVENUE,10032,2137,40,48,12,2015-04-01T00:00:00.000,2,CLOSE,2015-04-13T00:00:00.000
749,7420113,320012,3,BROOKLYN,284,KINGS HIGHWAY,11223,6650,72,2,11,2015-04-01T00:00:00.000,2,CLOSE,2015-04-02T00:00:00.000
750,7420114,681087,4,QUEENS,204-19,MURDOCK AVENUE,11412,10999,77,2FLR,12,2015-04-01T00:00:00.000,2,CLOSE,2015-04-14T00:00:00.000
751,7420115,21859,1,MANHATTAN,80,FT WASHINGTON AVENUE,10032,2137,40,BLDG,12,2015-04-01T00:00:00.000,2,CLOSE,2015-04-13T00:00:00.000
752,7420116,60444,2,BRONX,1815,DAVIDSON AVENUE,10453,2867,139,4D,5,2015-04-01T00:00:00.000,2,CLOSE,2015-04-03T00:00:00.000
753,7420117,60444,2,BRONX,1815,DAVIDSON AVENUE,10453,2867,139,4D,5,2015-04-01T00:00:00.000,2,CLOSE,2015-04-03T00:00:00.000
754,7420118,362959,3,BROOKLYN,166,ROCKAWAY PARKWAY,11212,4632,6,23A,17,2015-04-01T00:00:00.000,2,CLOSE,2015-04-14T00:00:00.000
755,7420119,112487,2,BRONX,1513,TAYLOR AVENUE,10460,3920,21,3,9,2015-04-01T00:00:00.000,2,CLOSE,2015-04-15T00:00:00.000
756,7420120,930132,4,QUEENS,98-10,64 AVENUE,11374,2101,1,5D,6,2015-04-01T00:00:00.000,2,CLOSE,2015-04-09T00:00:00.000
757,7420121,51777,2,BRONX,3750,BRONX BOULEVARD,10467,4649,21,4E,12,2015-04-01T00:00:00.000,2,CLOSE,2015-04-19T00:00:00.000
758,7420122,110045,2,BRONX,1357,SOUTHERN BOULEVARD,10459,2976,82,1E,3,2015-04-01T00:00:00.000,2,CLOSE,2015-04-16T00:00:00.000
759,8320278,49284,2,BRONX,850,BECK STREET,10459,2709,14,1S,2,2016-12-28T00:00:00.000,2,CLOSE,2017-01-02T00:00:00.000
760,7420125,805950,1,MANHATTAN,614,WEST 135 STREET,10031,2001,38,4B,9,2015-04-01T00:00:00.000,2,CLOSE,2015-04-10T00:00:00.000
761,7420126,299140,3,BROOKLYN,141,GATES AVENUE,11238,1965,76,2,2,2015-04-01T00:00:00.000,2,CLOSE,2015-04-03T00:00:00.000
762,7420127,60381,2,BRONX,2132,DALY AVENUE,10460,3129,1,1A,6,2015-04-01T00:00:00.000,2,CLOSE,2015-04-03T00:00:00.000
763,7420128,370489,3,BROOKLYN,9511,SHORE ROAD,11209,6120,7502,BLDG,10,2015-04-01T00:00:00.000,2,CLOSE,2015-04-02T00:00:00.000
764,7420129,370489,3,BROOKLYN,9511,SHORE ROAD,11209,6120,7502,BLDG,10,2015-04-01T00:00:00.000,2,CLOSE,2015-04-02T00:00:00.000
765,7420130,21935,1,MANHATTAN,36,GRAMERCY PARK,10003,876,7503,12E,6,2015-04-01T00:00:00.000,2,CLOSE,2015-04-09T00:00:00.000
766,7420131,62827,2,BRONX,534,EAST 138 STREET,10454,2265,37,307,1,2015-04-01T00:00:00.000,2,CLOSE,2015-04-06T00:00:00.000
767,7420132,10882,1,MANHATTAN,715,EAST 5 STREET,10009,375,62,4C,3,2015-04-01T00:00:00.000,2,CLOSE,2015-04-04T00:00:00.000
768,7420133,361587,3,BROOKLYN,67,RICHMOND STREET,11208,4115,19,2,5,2015-04-01T00:00:00.000,2,CLOSE,2015-04-21T00:00:00.000
769,7420134,62827,2,BRONX,534,EAST 138 STREET,10454,2265,37,307,1,2015-04-01T00:00:00.000,2,CLOSE,2015-04-06T00:00:00.000
770,7420135,297399,3,BROOKLYN,1355,FULTON STREET,11216,1850,44,2NDFL,3,2015-04-01T00:00:00.000,2,CLOSE,2015-04-18T00:00:00.000
771,7420136,929455,2,BRONX,361,EAST 161 STREET,10451,2408,1,8C,3,2015-04-01T00:00:00.000,2,CLOSE,2015-04-09T00:00:00.000
772,7420137,90952,2,BRONX,1275,LAFAYETTE AVENUE,10474,2740,39,2I,2,2015-04-01T00:00:00.000,2,CLOSE,2015-04-05T00:00:00.000
773,7420138,398805,3,BROOKLYN,561,WYONA STREET,11207,3826,18,BLDG,5,2015-04-01T00:00:00.000,2,CLOSE,2015-04-03T00:00:00.000
774,7420140,297399,3,BROOKLYN,1355,FULTON STREET,11216,1850,44,2NDFL,3,2015-04-01T00:00:00.000,2,CLOSE,2015-04-18T00:00:00.000
775,7420141,20629,1,MANHATTAN,107,EAST 126 STREET,10035,1775,6,BLDG,11,2015-04-01T00:00:00.000,2,CLOSE,2015-04-02T00:00:00.000
776,7420142,20629,1,MANHATTAN,107,EAST 126 STREET,10035,1775,6,BLDG,11,2015-04-01T00:00:00.000,2,CLOSE,2015-04-03T00:00:00.000
777,7420143,80068,2,BRONX,1075,GERARD AVENUE,10452,2487,20,403,4,2015-04-01T00:00:00.000,2,CLOSE,2015-04-04T00:00:00.000
778,7420144,582004,4,QUEENS,145-56,183 STREET,11413,13337,40,2,13,2015-04-01T00:00:00.000,2,CLOSE,2015-04-04T00:00:00.000
779,7420146,34598,1,MANHATTAN,110,WEST 69 STREET,10023,1140,37,2D,7,2015-04-01T00:00:00.000,2,CLOSE,2015-04-24T00:00:00.000
780,7420147,85558,2,BRONX,1685,HOE AVENUE,10460,2983,38,2B,3,2015-04-01T00:00:00.000,2,CLOSE,2015-04-08T00:00:00.000
781,7420148,58326,2,BRONX,349,CONCORD AVENUE,10454,2573,24,3,1,2015-04-01T00:00:00.000,2,CLOSE,2015-04-08T00:00:00.000
782,7420149,52885,2,BRONX,2001,BRUCKNER BOULEVARD,10472,3797,1,BLDG,9,2015-04-01T00:00:00.000,2,CLOSE,2015-04-02T00:00:00.000
783,7420139,377835,3,BROOKLYN,257,MOTHER GASTON BOULEVARD,11212,3675,4,4A,16,2015-04-01T00:00:00.000,2,CLOSE,2015-07-21T00:00:00.000
784,7420150,569938,4,QUEENS,59-40,164 STREET,11365,6741,53,2,7,2015-04-01T00:00:00.000,2,CLOSE,2015-04-24T00:00:00.000
785,7420151,930132,4,QUEENS,98-10,64 AVENUE,11374,2101,1,5D,6,2015-04-01T00:00:00.000,2,CLOSE,2015-04-09T00:00:00.000
786,7420152,362293,3,BROOKLYN,114,RIVERDALE AVENUE,11212,3598,31,2R,16,2015-04-01T00:00:00.000,2,CLOSE,2015-04-14T00:00:00.000
787,7420154,46080,2,BRONX,805,ARNOW AVENUE,10467,4550,6,BLDG,11,2015-04-01T00:00:00.000,2,CLOSE,2015-04-11T00:00:00.000
788,7420155,363197,3,BROOKLYN,426,ROCKAWAY PARKWAY,11212,4693,45,E1,17,2015-04-01T00:00:00.000,2,CLOSE,2015-04-14T00:00:00.000
789,7420156,805249,1,MANHATTAN,63,POST AVENUE,10034,2218,5,BASE,12,2015-04-01T00:00:00.000,2,CLOSE,2015-04-08T00:00:00.000
790,7420157,79053,2,BRONX,1120,FOX STREET,10459,2719,38,2A,3,2015-04-01T00:00:00.000,2,CLOSE,2015-04-04T00:00:00.000
791,7420158,8195,1,MANHATTAN,4081,BROADWAY,10032,2142,100,31,12,2015-04-01T00:00:00.000,2,CLOSE,2015-04-07T00:00:00.000
792,7420159,92396,2,BRONX,1145,LONGFELLOW AVENUE,10459,2754,44,12,3,2015-04-01T00:00:00.000,2,CLOSE,2015-04-02T00:00:00.000
793,7420160,257633,3,BROOKLYN,325,EAST 32 STREET,11226,4949,78,2,17,2015-04-01T00:00:00.000,2,CLOSE,2015-04-07T00:00:00.000
794,7420162,8863,1,MANHATTAN,257,CANAL STREET,10013,209,26,2FL,2,2015-04-01T00:00:00.000,2,CLOSE,2015-04-03T00:00:00.000
795,7420163,395984,3,BROOKLYN,92,WILLIAMS AVENUE,11207,3682,52,1FL,5,2015-04-01T00:00:00.000,2,CLOSE,2015-04-08T00:00:00.000
796,7420164,104258,2,BRONX,1095,PROSPECT AVENUE,10459,2680,77,5B,3,2015-04-01T00:00:00.000,2,CLOSE,2015-04-09T00:00:00.000
797,7420166,79053,2,BRONX,1120,FOX STREET,10459,2719,38,3C,3,2015-04-01T00:00:00.000,2,CLOSE,2015-04-10T00:00:00.000
798,7420167,120425,2,BRONX,2856,WEBB AVENUE,10468,3250,71,1C,8,2015-04-01T00:00:00.000,2,CLOSE,2015-04-07T00:00:00.000
799,7420169,35264,1,MANHATTAN,8,WEST 74 STREET,10023,1126,38,4D,7,2015-04-01T00:00:00.000,2,CLOSE,2015-04-10T00:00:00.000
800,7420170,69315,2,BRONX,864,EAST 221 STREET,10467,4679,73,1F,12,2015-04-01T00:00:00.000,2,CLOSE,2015-04-04T00:00:00.000
801,7420171,934207,2,BRONX,678,EAST 232 STREET,10466,4834,83,4B,12,2015-04-01T00:00:00.000,2,CLOSE,2015-04-06T00:00:00.000
802,7420172,120425,2,BRONX,2856,WEBB AVENUE,10468,3250,71,BLDG,8,2015-04-01T00:00:00.000,2,CLOSE,2015-04-07T00:00:00.000
803,7420173,69315,2,BRONX,864,EAST 221 STREET,10467,4679,73,1F,12,2015-04-01T00:00:00.000,2,CLOSE,2015-04-04T00:00:00.000
804,7420174,257633,3,BROOKLYN,325,EAST 32 STREET,11226,4949,78,BLDG,17,2015-04-01T00:00:00.000,2,CLOSE,2015-04-07T00:00:00.000
805,7420175,6126,1,MANHATTAN,23,ARDEN STREET,10040,2174,189,BLDG,12,2015-04-01T00:00:00.000,2,CLOSE,2015-04-04T00:00:00.000
806,7420177,370489,3,BROOKLYN,9511,SHORE ROAD,11209,6120,7502,BLDG,10,2015-04-01T00:00:00.000,2,CLOSE,2015-04-02T00:00:00.000
807,7420178,660100,4,QUEENS,75-10,GRAND CENTRAL PARKWAY,11375,2265,86,5B,6,2015-04-01T00:00:00.000,2,CLOSE,2015-04-25T00:00:00.000
808,7420179,934207,2,BRONX,678,EAST 232 STREET,10466,4834,83,4B,12,2015-04-01T00:00:00.000,2,CLOSE,2015-04-06T00:00:00.000
809,7420180,13883,1,MANHATTAN,317,EAST 48 STREET,10017,1341,7502,14A,6,2015-04-01T00:00:00.000,2,CLOSE,2015-04-03T00:00:00.000
810,7420181,863548,4,QUEENS,98-17,QUEENS BOULEVARD,11374,2103,1,5D,6,2015-04-01T00:00:00.000,2,CLOSE,2015-04-08T00:00:00.000
811,7420182,81857,2,BRONX,2625,GRAND CONCOURSE,10468,3168,49,2F,7,2015-04-01T00:00:00.000,2,CLOSE,2015-04-03T00:00:00.000
812,7420183,324060,3,BROOKLYN,116,LENOX ROAD,11226,5084,24,E5,17,2015-04-01T00:00:00.000,2,CLOSE,2015-04-14T00:00:00.000
813,7420184,934207,2,BRONX,678,EAST 232 STREET,10466,4834,83,4B,12,2015-04-01T00:00:00.000,2,CLOSE,2015-04-06T00:00:00.000
814,7420185,324060,3,BROOKLYN,116,LENOX ROAD,11226,5084,24,E5,17,2015-04-01T00:00:00.000,2,CLOSE,2015-04-12T00:00:00.000
815,7420186,363824,3,BROOKLYN,433,ROGERS AVENUE,11225,1329,6,BLDG,9,2015-04-01T00:00:00.000,2,CLOSE,2015-04-04T00:00:00.000
816,7420187,43323,1,MANHATTAN,608,WEST 177 STREET,10033,2144,21,BLDG,12,2015-04-01T00:00:00.000,2,CLOSE,2015-04-02T00:00:00.000
817,7420188,107073,2,BRONX,3145,ROCHAMBEAU AVENUE,10467,3335,12,H,7,2015-04-01T00:00:00.000,2,CLOSE,2015-04-03T00:00:00.000
818,7420189,259057,3,BROOKLYN,1145,EAST 35 STREET,11210,7617,25,3A,18,2015-04-01T00:00:00.000,2,CLOSE,2015-04-05T00:00:00.000
819,8320282,307429,3,BROOKLYN,823,HANCOCK STREET,11233,1487,69,1A,3,2016-12-28T00:00:00.000,2,CLOSE,2017-01-03T00:00:00.000
820,7420191,810652,4,QUEENS,213-01,75 AVENUE,11364,7732,2,2D,11,2015-04-01T00:00:00.000,2,CLOSE,2015-04-25T00:00:00.000
821,7420192,339764,3,BROOKLYN,236,MONTGOMERY STREET,11225,1304,18,BLDG,9,2015-04-01T00:00:00.000,2,CLOSE,2015-04-04T00:00:00.000
822,7420193,43323,1,MANHATTAN,608,WEST 177 STREET,10033,2144,21,BLDG,12,2015-04-01T00:00:00.000,2,CLOSE,2015-04-02T00:00:00.000
823,7420194,653167,4,QUEENS,12-26,ESTATES LANE,11360,5843,7501,2,7,2015-04-01T00:00:00.000,2,CLOSE,2015-04-16T00:00:00.000
824,7420195,768231,5,STATEN ISLAND,220,OSGOOD AVENUE,10304,2867,266,2G,1,2015-04-01T00:00:00.000,2,CLOSE,2015-04-04T00:00:00.000
825,7420196,362347,3,BROOKLYN,574,RIVERDALE AVENUE,11207,3838,40,2,5,2015-04-01T00:00:00.000,2,CLOSE,2015-04-05T00:00:00.000
826,7420197,303732,3,BROOKLYN,1073,GREENE AVENUE,11221,3283,40,BLDG,4,2015-04-01T00:00:00.000,2,CLOSE,2015-04-03T00:00:00.000
827,7420198,362347,3,BROOKLYN,574,RIVERDALE AVENUE,11207,3838,40,2,5,2015-04-01T00:00:00.000,2,CLOSE,2015-04-17T00:00:00.000
828,7420199,934207,2,BRONX,678,EAST 232 STREET,10466,4834,83,4B,12,2015-04-01T00:00:00.000,2,CLOSE,2015-04-06T00:00:00.000
829,7420153,305591,3,BROOKLYN,1229,HALSEY STREET,11237,3406,57,3L,4,2015-04-01T00:00:00.000,2,CLOSE,2015-07-28T00:00:00.000
830,7420200,398805,3,BROOKLYN,561,WYONA STREET,11207,3826,18,BLDG,5,2015-04-01T00:00:00.000,2,CLOSE,2015-04-03T00:00:00.000
831,7420201,709560,5,STATEN ISLAND,628,ANNADALE ROAD,10312,5694,95,LLBASE,3,2015-04-01T00:00:00.000,2,CLOSE,2015-04-08T00:00:00.000
832,7420202,934207,2,BRONX,678,EAST 232 STREET,10466,4834,83,4B,12,2015-04-01T00:00:00.000,2,CLOSE,2015-04-08T00:00:00.000
833,7420203,94381,2,BRONX,2644,MARION AVENUE,10458,3282,13,6B,7,2015-04-01T00:00:00.000,2,CLOSE,2015-04-03T00:00:00.000
834,7420204,346417,3,BROOKLYN,2054,NOSTRAND AVENUE,11210,5252,51,4A,14,2015-04-01T00:00:00.000,2,CLOSE,2015-04-03T00:00:00.000
835,7420205,43694,1,MANHATTAN,512,WEST 207 STREET,10034,2222,25,523,12,2015-04-01T00:00:00.000,2,CLOSE,2015-04-28T00:00:00.000
836,7420206,947013,4,QUEENS,33-17,84 STREET,11372,1432,56,C1,3,2015-04-01T00:00:00.000,2,CLOSE,2015-04-09T00:00:00.000
837,8320283,74826,2,BRONX,3437,EASTCHESTER ROAD,10469,4722,12,3A,12,2016-12-28T00:00:00.000,2,CLOSE,2017-01-04T00:00:00.000
838,7420208,115685,2,BRONX,1763,TOWNSEND AVENUE,10453,2850,30,BLDG,5,2015-04-01T00:00:00.000,2,CLOSE,2015-04-04T00:00:00.000
839,8320287,396049,3,BROOKLYN,1091,WILLMOHR STREET,11212,4670,7,1STFL,17,2016-12-28T00:00:00.000,2,CLOSE,2017-01-16T00:00:00.000
840,7420210,80046,2,BRONX,3424,GATES PLACE,10467,3324,45,3E,7,2015-04-01T00:00:00.000,2,CLOSE,2015-04-08T00:00:00.000
841,7420211,221357,3,BROOKLYN,184,CLARKSON AVENUE,11226,5065,48,4I,17,2015-04-01T00:00:00.000,2,CLOSE,2015-04-03T00:00:00.000
842,7420212,152723,3,BROOKLYN,880,47 STREET,11220,769,36,C8,12,2015-04-01T00:00:00.000,2,CLOSE,2015-04-03T00:00:00.000
843,7420213,108597,2,BRONX,3605,SEDGWICK AVENUE,10463,3258,190,F22,8,2015-04-01T00:00:00.000,2,CLOSE,2015-04-03T00:00:00.000
844,7420214,56107,2,BRONX,2129,CHATTERTON AVENUE,10472,3807,74,2R,9,2015-04-01T00:00:00.000,2,CLOSE,2015-04-17T00:00:00.000
845,7420215,60487,2,BRONX,2119,DAVIDSON AVENUE,10453,3194,31,7B,5,2015-04-01T00:00:00.000,2,CLOSE,2015-04-03T00:00:00.000
846,7420216,41124,1,MANHATTAN,137,WEST 138 STREET,10030,2007,9,2B,10,2015-04-01T00:00:00.000,2,CLOSE,2015-04-03T00:00:00.000
847,7420217,67285,2,BRONX,214,EAST 203 STREET,10458,3308,8,BLDG,7,2015-04-01T00:00:00.000,2,CLOSE,2015-04-03T00:00:00.000
848,7420218,167095,3,BROOKLYN,452,68 STREET,11220,5864,28,3F,10,2015-04-01T00:00:00.000,2,CLOSE,2015-04-08T00:00:00.000
849,7420219,60890,2,BRONX,3006,DECATUR AVENUE,10458,3281,68,BLDG,7,2015-04-01T00:00:00.000,2,CLOSE,2015-04-03T00:00:00.000
850,7420220,219696,3,BROOKLYN,198,CHESTNUT STREET,11208,4127,50,1STFL,5,2015-04-01T00:00:00.000,2,CLOSE,2015-04-07T00:00:00.000
851,7420221,667904,4,QUEENS,173-10,JAMAICA AVENUE,11432,10214,5,2FT,12,2015-04-01T00:00:00.000,2,CLOSE,2015-04-05T00:00:00.000
852,7420222,473604,4,QUEENS,91-14,75 STREET,11421,8942,27,3,9,2015-04-01T00:00:00.000,2,CLOSE,2015-04-04T00:00:00.000
853,7420223,80312,2,BRONX,3435,GILES PLACE,10463,3258,228,6B,8,2015-04-01T00:00:00.000,2,CLOSE,2015-04-04T00:00:00.000
854,7420224,226330,3,BROOKLYN,407,CORNELIA STREET,11237,3379,71,2F,4,2015-04-01T00:00:00.000,2,CLOSE,2015-04-02T00:00:00.000
855,7420226,66741,2,BRONX,636,EAST 187 STREET,10458,3074,28,4N,6,2015-04-01T00:00:00.000,2,CLOSE,2015-04-02T00:00:00.000
856,7420227,20484,1,MANHATTAN,13,EAST 124 STREET,10035,1749,9,1D,11,2015-04-01T00:00:00.000,2,CLOSE,2015-04-03T00:00:00.000
857,7420228,495152,4,QUEENS,100-17,88 AVENUE,11418,9287,25,1FLR,9,2015-04-01T00:00:00.000,2,CLOSE,2015-04-15T00:00:00.000
858,7420229,5622,1,MANHATTAN,1697,AMSTERDAM AVENUE,10031,2059,32,31,9,2015-04-01T00:00:00.000,2,CLOSE,2015-04-04T00:00:00.000
859,7420230,102592,2,BRONX,735,PELHAM PARKWAY NORTH,10467,4344,1,5P,11,2015-04-01T00:00:00.000,2,CLOSE,2015-04-18T00:00:00.000
860,7420232,102863,2,BRONX,2968,PERRY AVENUE,10458,3292,19,BLDG,7,2015-04-01T00:00:00.000,2,CLOSE,2015-04-03T00:00:00.000
861,7420233,116695,2,BRONX,2725,UNIVERSITY AVENUE,10468,3248,100,1C,8,2015-04-01T00:00:00.000,2,CLOSE,2015-04-04T00:00:00.000
862,7420234,51116,2,BRONX,801,BOYNTON AVENUE,10473,3623,1,1L,9,2015-04-01T00:00:00.000,2,CLOSE,2015-04-03T00:00:00.000
863,7420235,116695,2,BRONX,2725,UNIVERSITY AVENUE,10468,3248,100,6H,8,2015-04-01T00:00:00.000,2,CLOSE,2015-04-04T00:00:00.000
864,7420236,810789,4,QUEENS,42-18,104 STREET,11368,1977,32,BLDG,4,2015-04-01T00:00:00.000,2,CLOSE,2015-04-04T00:00:00.000
865,7420237,43721,1,MANHATTAN,509,WEST 212 STREET,10034,2230,27,BLDG,12,2015-04-01T00:00:00.000,2,CLOSE,2015-04-04T00:00:00.000
866,7420238,808250,3,BROOKLYN,770,ELDERT LANE,11208,4271,9001,BLDG,5,2015-04-01T00:00:00.000,2,CLOSE,2015-04-21T00:00:00.000
867,7420240,28417,1,MANHATTAN,200,STANTON STREET,10002,345,29,6,3,2015-04-01T00:00:00.000,2,CLOSE,2015-04-03T00:00:00.000
868,7420241,154548,3,BROOKLYN,856,50 STREET,11220,5644,29,3A,12,2015-04-01T00:00:00.000,2,CLOSE,2015-04-04T00:00:00.000
869,7420242,810789,4,QUEENS,42-18,104 STREET,11368,1977,32,2A,4,2015-04-01T00:00:00.000,2,CLOSE,2015-04-16T00:00:00.000
870,7420243,682212,4,QUEENS,72-30,MYRTLE AVENUE,11385,3711,23,1,5,2015-04-01T00:00:00.000,2,CLOSE,2015-04-11T00:00:00.000
871,7420244,42807,1,MANHATTAN,504,WEST 159 STREET,10032,2117,32,2A,12,2015-04-01T00:00:00.000,2,CLOSE,2015-04-14T00:00:00.000
872,7420245,443029,4,QUEENS,41-22,54 STREET,11377,1316,64,2,2,2015-04-01T00:00:00.000,2,CLOSE,2015-04-03T00:00:00.000
873,7420225,41124,1,MANHATTAN,137,WEST 138 STREET,10030,2007,9,2B,10,2015-04-01T00:00:00.000,2,CLOSE,2015-06-24T00:00:00.000
874,7420231,15983,1,MANHATTAN,509,EAST 73 STREET,10021,1485,8,10,8,2015-04-01T00:00:00.000,2,CLOSE,2015-06-15T00:00:00.000
875,7420239,897491,3,BROOKLYN,23,STUYVESANT AVENUE,11221,1593,107,BLDG,3,2015-04-01T00:00:00.000,2,CLOSE,2015-09-05T00:00:00.000
876,7420246,409436,4,QUEENS,24-05,27 STREET,11102,851,32,2A,1,2015-04-01T00:00:00.000,2,CLOSE,2015-04-17T00:00:00.000
877,7420247,695124,4,QUEENS,47-09,SKILLMAN AVENUE,11104,148,1,A2,2,2015-04-01T00:00:00.000,2,CLOSE,2015-04-05T00:00:00.000
878,7420248,6126,1,MANHATTAN,23,ARDEN STREET,10040,2174,189,BLDG,12,2015-04-01T00:00:00.000,2,CLOSE,2015-04-04T00:00:00.000
879,7420250,357412,3,BROOKLYN,152,PULASKI STREET,11206,1776,11,3L,3,2015-04-01T00:00:00.000,2,CLOSE,2015-04-10T00:00:00.000
880,7420251,42779,1,MANHATTAN,533,WEST 158 STREET,10032,2117,56,34,12,2015-04-01T00:00:00.000,2,CLOSE,2015-04-04T00:00:00.000
881,7420252,336720,3,BROOKLYN,953,METROPOLITAN AVENUE,11211,2913,60,2R,1,2015-04-01T00:00:00.000,2,CLOSE,2015-04-04T00:00:00.000
882,7420253,17124,1,MANHATTAN,335,EAST 82 STREET,10028,1545,16,3,8,2015-04-01T00:00:00.000,2,CLOSE,2015-04-03T00:00:00.000
883,7420254,64662,2,BRONX,186,EAST 164 STREET,10456,2461,70,3D,4,2015-04-01T00:00:00.000,2,CLOSE,2015-04-04T00:00:00.000
884,7420255,911505,3,BROOKLYN,533,LOGAN STREET,11208,4246,11,BLDG,5,2015-04-01T00:00:00.000,2,CLOSE,2015-04-21T00:00:00.000
885,7420257,310574,3,BROOKLYN,680,HENDRIX STREET,11207,4088,46,1F,5,2015-04-01T00:00:00.000,2,CLOSE,2015-04-10T00:00:00.000
886,7420258,630712,4,QUEENS,622,BAY 32 STREET,11691,15787,5,2,14,2015-04-01T00:00:00.000,2,CLOSE,2015-04-07T00:00:00.000
887,7420259,804791,1,MANHATTAN,1295,FIFTH AVENUE,10029,1616,1,23F,11,2015-04-01T00:00:00.000,2,CLOSE,2015-04-02T00:00:00.000
888,8320288,5817,1,MANHATTAN,2200,AMSTERDAM AVENUE,10032,2126,46,4A,12,2016-12-28T00:00:00.000,2,CLOSE,2017-01-04T00:00:00.000
889,7420262,50500,2,BRONX,2324,BOSTON ROAD,10467,4347,7,3H,11,2015-04-01T00:00:00.000,2,CLOSE,2015-04-04T00:00:00.000
890,7420263,949244,3,BROOKLYN,34,HUNTERFLY PLACE,11233,1708,1,1B,3,2015-04-01T00:00:00.000,2,CLOSE,2015-04-04T00:00:00.000
891,7420265,371579,3,BROOKLYN,5101,SNYDER AVENUE,11203,4699,42,3D,17,2015-04-01T00:00:00.000,2,CLOSE,2015-04-07T00:00:00.000
892,7420266,810047,3,BROOKLYN,5209,6 AVENUE,11220,809,4,1B,7,2015-04-01T00:00:00.000,2,CLOSE,2015-04-17T00:00:00.000
893,7420267,357891,3,BROOKLYN,1416,PUTNAM AVENUE,11237,3378,20,3R,4,2015-04-01T00:00:00.000,2,CLOSE,2015-04-04T00:00:00.000
894,8320289,108426,2,BRONX,1750,SEDGWICK AVENUE,10453,2880,153,18F,5,2016-12-28T00:00:00.000,2,CLOSE,2017-01-02T00:00:00.000
895,7420270,6216,1,MANHATTAN,29,AUDUBON AVENUE,10032,2123,54,14,12,2015-04-01T00:00:00.000,2,CLOSE,2015-04-04T00:00:00.000
896,7420271,49315,2,BRONX,266,BEDFORD PARK BOULEVARD,10458,3297,11,BLDG,7,2015-04-01T00:00:00.000,2,CLOSE,2015-04-03T00:00:00.000
897,7420272,79837,2,BRONX,4360,FURMAN AVENUE,10466,5047,6,3H,12,2015-04-01T00:00:00.000,2,CLOSE,2015-04-16T00:00:00.000
898,7420273,49315,2,BRONX,266,BEDFORD PARK BOULEVARD,10458,3297,11,BLDG,7,2015-04-01T00:00:00.000,2,CLOSE,2015-04-03T00:00:00.000
899,7420276,308822,3,BROOKLYN,912,HART STREET,11237,3237,14,BLDG,4,2015-04-01T00:00:00.000,2,CLOSE,2015-04-04T00:00:00.000
900,7420279,42563,1,MANHATTAN,530,WEST 152 STREET,10031,2083,51,APT31,9,2015-04-01T00:00:00.000,2,CLOSE,2015-04-10T00:00:00.000
901,7420281,102863,2,BRONX,2968,PERRY AVENUE,10458,3292,19,BLDG,7,2015-04-01T00:00:00.000,2,CLOSE,2015-04-03T00:00:00.000
902,7420284,366355,3,BROOKLYN,339,SARATOGA AVENUE,11233,1453,11,BLDG,16,2015-04-01T00:00:00.000,2,CLOSE,2015-04-03T00:00:00.000
903,7420289,693440,4,QUEENS,136-05,SANFORD AVENUE,11355,5043,7501,4N,7,2015-04-01T00:00:00.000,2,CLOSE,2015-04-04T00:00:00.000
904,7420292,158869,3,BROOKLYN,623,56 STREET,11220,833,67,3,7,2015-04-01T00:00:00.000,2,CLOSE,2015-04-08T00:00:00.000
905,7420293,308822,3,BROOKLYN,912,HART STREET,11237,3237,14,BLDG,4,2015-04-01T00:00:00.000,2,CLOSE,2015-04-04T00:00:00.000
906,7420300,377017,3,BROOKLYN,137,STERLING STREET,11225,1314,83,BLDG,9,2015-04-01T00:00:00.000,2,CLOSE,2015-04-03T00:00:00.000
907,7420307,308822,3,BROOKLYN,912,HART STREET,11237,3237,14,1L,4,2015-04-01T00:00:00.000,2,CLOSE,2015-04-04T00:00:00.000
908,7420310,354428,3,BROOKLYN,36,PLAZA ST EAST,11238,1170,5,5G,8,2015-04-01T00:00:00.000,2,CLOSE,2015-04-08T00:00:00.000
909,7420311,217719,3,BROOKLYN,1651,CARROLL STREET,11213,1409,1,G4,9,2015-04-01T00:00:00.000,2,CLOSE,2015-04-04T00:00:00.000
910,7420312,693440,4,QUEENS,136-05,SANFORD AVENUE,11355,5043,7501,BLDG,7,2015-04-01T00:00:00.000,2,CLOSE,2015-04-04T00:00:00.000
911,7420317,907166,4,QUEENS,71-44,160 STREET,11365,0,0,3B,8,2015-04-01T00:00:00.000,2,CLOSE,2015-04-08T00:00:00.000
912,7420320,34397,1,MANHATTAN,117,WEST 58 STREET,10019,1011,25,2H,5,2015-04-01T00:00:00.000,2,CLOSE,2015-04-08T00:00:00.000
913,7420324,193136,3,BROOKLYN,106,AVENUE P,11204,6621,1,5A,11,2015-04-01T00:00:00.000,2,CLOSE,2015-04-13T00:00:00.000
914,7420326,94284,2,BRONX,38,MARCY PLACE,10452,2840,18,2E,4,2015-04-01T00:00:00.000,2,CLOSE,2015-04-02T00:00:00.000
915,7420329,377017,3,BROOKLYN,137,STERLING STREET,11225,1314,83,BLDG,9,2015-04-01T00:00:00.000,2,CLOSE,2015-04-03T00:00:00.000
916,7420331,695124,4,QUEENS,47-09,SKILLMAN AVENUE,11104,148,1,BLDG,2,2015-04-01T00:00:00.000,2,CLOSE,2015-04-05T00:00:00.000
917,7420334,240718,3,BROOKLYN,499,EAST 8 STREET,11218,5392,71,1B,12,2015-04-01T00:00:00.000,2,CLOSE,2015-04-08T00:00:00.000
918,7420344,811186,4,QUEENS,120,BEACH 19 STREET,11691,15638,1,12K,14,2015-04-01T00:00:00.000,2,CLOSE,2015-04-04T00:00:00.000
919,7420345,240718,3,BROOKLYN,499,EAST 8 STREET,11218,5392,71,1B,12,2015-04-01T00:00:00.000,2,CLOSE,2015-04-08T00:00:00.000
920,7420347,327173,3,BROOKLYN,223,LINDEN BOULEVARD,11226,5085,75,A2,17,2015-04-01T00:00:00.000,2,CLOSE,2015-04-07T00:00:00.000
921,7420348,51706,2,BRONX,6653,BROADWAY,10471,5881,1086,3A,8,2015-04-01T00:00:00.000,2,CLOSE,2015-04-08T00:00:00.000
922,7420351,40727,1,MANHATTAN,221,WEST 135 STREET,10030,1941,18,5F,10,2015-04-01T00:00:00.000,2,CLOSE,2015-04-08T00:00:00.000
923,7420352,810767,4,QUEENS,32-25,93 STREET,11369,1423,71,B15,3,2015-04-01T00:00:00.000,2,CLOSE,2015-04-03T00:00:00.000
924,7420356,120425,2,BRONX,2856,WEBB AVENUE,10468,3250,71,BLDG,8,2015-04-01T00:00:00.000,2,CLOSE,2015-04-07T00:00:00.000
925,7420359,29045,1,MANHATTAN,371,WADSWORTH AVENUE,10040,2169,12,31,12,2015-04-01T00:00:00.000,2,CLOSE,2015-04-04T00:00:00.000
926,7420361,102863,2,BRONX,2968,PERRY AVENUE,10458,3292,19,BLDG,7,2015-04-01T00:00:00.000,2,CLOSE,2015-04-03T00:00:00.000
927,7420363,347548,3,BROOKLYN,2630,OCEAN AVENUE,11229,7352,39,A7,15,2015-04-01T00:00:00.000,2,CLOSE,2015-04-03T00:00:00.000
928,7420367,19062,1,MANHATTAN,305,EAST 105 STREET,10029,1677,5,BLDG,11,2015-04-01T00:00:00.000,2,CLOSE,2015-04-03T00:00:00.000
929,7420368,336722,3,BROOKLYN,959,METROPOLITAN AVENUE,11211,2913,58,3L,1,2015-04-01T00:00:00.000,2,CLOSE,2015-04-07T00:00:00.000
930,7420370,116713,2,BRONX,2780,UNIVERSITY AVENUE,10468,3249,10,1C,8,2015-04-01T00:00:00.000,2,CLOSE,2015-04-04T00:00:00.000
931,7420373,121007,2,BRONX,80,WEST 170 STREET,10452,2506,121,D8,4,2015-04-01T00:00:00.000,2,CLOSE,2015-04-02T00:00:00.000
932,7420374,336722,3,BROOKLYN,959,METROPOLITAN AVENUE,11211,2913,58,2L,1,2015-04-01T00:00:00.000,2,CLOSE,2015-04-07T00:00:00.000
933,7420378,50500,2,BRONX,2324,BOSTON ROAD,10467,4347,7,BLDG,11,2015-04-01T00:00:00.000,2,CLOSE,2015-04-04T00:00:00.000
934,7420382,209042,3,BROOKLYN,784,BERGEN STREET,11238,1148,12,1,8,2015-04-01T00:00:00.000,2,CLOSE,2015-04-07T00:00:00.000
935,7420386,77993,2,BRONX,3637,FENTON AVENUE,10469,4714,62,1,12,2015-04-01T00:00:00.000,2,CLOSE,2015-04-02T00:00:00.000
936,7420390,701566,4,QUEENS,58-33,VAN CLEEF STREET,11368,1972,6,2NDFL,4,2015-04-01T00:00:00.000,2,CLOSE,2015-04-13T00:00:00.000
937,7420391,116695,2,BRONX,2725,UNIVERSITY AVENUE,10468,3248,100,BLDG,8,2015-04-01T00:00:00.000,2,CLOSE,2015-04-04T00:00:00.000
938,7420393,97645,2,BRONX,2830,MORRIS AVENUE,10468,3318,110,3D,7,2015-04-01T00:00:00.000,2,CLOSE,2015-04-03T00:00:00.000
939,7420400,687226,4,QUEENS,34-15,PARSONS BOULEVARD,11354,4995,1,50,7,2015-04-01T00:00:00.000,2,CLOSE,2015-04-10T00:00:00.000
940,7420402,43642,1,MANHATTAN,569,WEST 192 STREET,10040,2161,103,BLDG,12,2015-04-01T00:00:00.000,2,CLOSE,2015-04-04T00:00:00.000
941,7420407,809405,3,BROOKLYN,1445,SHORE PARKWAY,11214,6468,16,2B,11,2015-04-01T00:00:00.000,2,CLOSE,2015-04-04T00:00:00.000
942,7420409,89719,2,BRONX,3052,KINGSBRIDGE AVENUE,10463,5703,186,BLDG,8,2015-04-01T00:00:00.000,2,CLOSE,2015-04-04T00:00:00.000
943,7420415,965926,3,BROOKLYN,591,CENTRAL AVENUE,11207,3423,8,1,4,2015-04-01T00:00:00.000,2,CLOSE,2015-04-08T00:00:00.000
944,7420418,87306,2,BRONX,2308,HUGHES AVENUE,10458,3087,3,1,6,2015-04-01T00:00:00.000,2,CLOSE,2015-04-03T00:00:00.000
945,7420419,243222,3,BROOKLYN,960,EAST 12 STREET,11230,6704,32,1B,14,2015-04-01T00:00:00.000,2,CLOSE,2015-04-04T00:00:00.000
946,7420423,243222,3,BROOKLYN,960,EAST 12 STREET,11230,6704,32,BLDG,14,2015-04-01T00:00:00.000,2,CLOSE,2015-04-04T00:00:00.000
947,7420424,706056,4,QUEENS,67-71,YELLOWSTONE BOULEVARD,11375,2157,1,BLDG,6,2015-04-01T00:00:00.000,2,CLOSE,2015-04-02T00:00:00.000
948,7420425,685041,4,QUEENS,33-00,NORTHERN BOULEVARD,11101,214,240,8TH,1,2015-04-01T00:00:00.000,2,CLOSE,2015-04-06T00:00:00.000
949,7420427,55226,2,BRONX,4305,CARPENTER AVENUE,10466,5034,28,1H,12,2015-04-01T00:00:00.000,2,CLOSE,2015-04-03T00:00:00.000
950,7420430,61040,2,BRONX,3424,DEKALB AVENUE,10467,3327,67,WB,7,2015-04-01T00:00:00.000,2,CLOSE,2015-04-04T00:00:00.000
951,7420431,28109,1,MANHATTAN,400,ST NICHOLAS AVENUE,10027,1955,26,BLDG,10,2015-04-01T00:00:00.000,2,CLOSE,2015-04-06T00:00:00.000
952,7420432,99170,2,BRONX,1375,NELSON AVENUE,10452,2521,31,5F,4,2015-04-01T00:00:00.000,2,CLOSE,2015-04-06T00:00:00.000
953,8320290,25792,1,MANHATTAN,132,MULBERRY STREET,10013,237,7501,6D,2,2016-12-28T00:00:00.000,2,CLOSE,2017-01-07T00:00:00.000
954,7420436,111311,2,BRONX,2131,STARLING AVENUE,10462,3947,1,BLDG,9,2015-04-01T00:00:00.000,2,CLOSE,2015-04-08T00:00:00.000
955,7420437,84224,2,BRONX,2841,HEATH AVENUE,10463,3259,36,3,8,2015-04-01T00:00:00.000,2,CLOSE,2015-04-03T00:00:00.000
956,7420438,808,1,MANHATTAN,128,2 AVENUE,10003,449,6,BLDG,3,2015-04-01T00:00:00.000,2,CLOSE,2015-04-04T00:00:00.000
957,7420439,895449,3,BROOKLYN,802,AVENUE U,11223,7135,7501,6B,15,2015-04-01T00:00:00.000,2,CLOSE,2015-04-10T00:00:00.000
958,7420440,347548,3,BROOKLYN,2630,OCEAN AVENUE,11229,7352,39,A7,15,2015-04-01T00:00:00.000,2,CLOSE,2015-04-03T00:00:00.000
959,7420441,370489,3,BROOKLYN,9511,SHORE ROAD,11209,6120,7502,BLDG,10,2015-04-01T00:00:00.000,2,CLOSE,2015-04-02T00:00:00.000
960,7420442,370489,3,BROOKLYN,9511,SHORE ROAD,11209,6120,7502,110,10,2015-04-01T00:00:00.000,2,CLOSE,2015-04-02T00:00:00.000
961,7420444,223833,3,BROOKLYN,6824,COLONIAL ROAD,11220,5860,120,B2,10,2015-04-01T00:00:00.000,2,CLOSE,2015-04-09T00:00:00.000
962,7420445,314045,3,BROOKLYN,199,HOWARD AVENUE,11233,1509,1,2R,3,2015-04-01T00:00:00.000,2,CLOSE,2015-04-28T00:00:00.000
963,7420446,42918,1,MANHATTAN,574,WEST 161 STREET,10032,2119,12,BLDG,12,2015-04-01T00:00:00.000,2,CLOSE,2015-04-10T00:00:00.000
964,7420447,51791,2,BRONX,3940,BRONX BOULEVARD,10466,4819,42,2A,12,2015-04-01T00:00:00.000,2,CLOSE,2015-04-16T00:00:00.000
965,7420448,102706,2,BRONX,716,PENFIELD STREET,10470,5113,38,3A,12,2015-04-01T00:00:00.000,2,CLOSE,2015-04-12T00:00:00.000
966,7420422,363492,3,BROOKLYN,350,ROEBLING STREET,11211,2148,29,BLDG,1,2015-04-01T00:00:00.000,2,CLOSE,2015-06-17T00:00:00.000
967,7420434,44437,1,MANHATTAN,500,EAST 77 STREET,10075,1488,1,BLDG,8,2015-04-01T00:00:00.000,2,CLOSE,2016-03-06T00:00:00.000
968,7420449,324345,3,BROOKLYN,874,LENOX ROAD,11203,4659,9,BLDG,17,2015-04-01T00:00:00.000,2,CLOSE,2015-04-02T00:00:00.000
969,7420450,102706,2,BRONX,716,PENFIELD STREET,10470,5113,38,BLDG,12,2015-04-01T00:00:00.000,2,CLOSE,2015-04-03T00:00:00.000
970,7420451,50700,2,BRONX,2995,BOTANICAL SQUARE,10458,3274,27,4K,7,2015-04-01T00:00:00.000,2,CLOSE,2015-04-03T00:00:00.000
971,7420452,99854,2,BRONX,1500,NOBLE AVENUE,10460,3895,1,3E,9,2015-04-01T00:00:00.000,2,CLOSE,2015-04-06T00:00:00.000
972,7420453,347548,3,BROOKLYN,2630,OCEAN AVENUE,11229,7352,39,BLDG,15,2015-04-01T00:00:00.000,2,CLOSE,2015-04-03T00:00:00.000
973,7420454,808,1,MANHATTAN,128,2 AVENUE,10003,449,6,BLDG,3,2015-04-01T00:00:00.000,2,CLOSE,2015-04-04T00:00:00.000
974,7420455,120425,2,BRONX,2856,WEBB AVENUE,10468,3250,71,BLDG,8,2015-04-01T00:00:00.000,2,CLOSE,2015-04-07T00:00:00.000
975,9102493,88524,2,BRONX,390,JACKSON AVENUE,10454,2573,71,2A,1,2018-07-01T00:00:00.000,2,CLOSE,2018-07-06T00:00:00.000
976,7420456,9512,1,MANHATTAN,84,CHRISTOPHER STREET,10014,591,47,BLDG,2,2015-04-01T00:00:00.000,2,CLOSE,2015-04-06T00:00:00.000
977,7420457,51001,2,BRONX,1030,BOYNTON AVENUE,10472,3715,17,2J,9,2015-04-01T00:00:00.000,2,CLOSE,2015-04-03T00:00:00.000
978,7420458,511558,4,QUEENS,118-04,101 AVENUE,11419,9486,2,2FL,9,2015-04-01T00:00:00.000,2,CLOSE,2015-04-14T00:00:00.000
979,7420459,73382,2,BRONX,707,EAST 242 STREET,10470,5115,24,BLDG,12,2015-04-01T00:00:00.000,2,CLOSE,2015-04-02T00:00:00.000
980,7420460,100804,2,BRONX,3889,ORLOFF AVENUE,10463,3263,85,EK,8,2015-04-01T00:00:00.000,2,CLOSE,2015-04-02T00:00:00.000
981,7420461,226570,3,BROOKLYN,2902,CORTELYOU ROAD,11226,5173,58,B12,17,2015-04-01T00:00:00.000,2,CLOSE,2015-04-03T00:00:00.000
982,7420462,694910,4,QUEENS,107-10,SHORE FRONT PARKWAY,11694,16177,1,5H,14,2015-04-01T00:00:00.000,2,CLOSE,2015-04-03T00:00:00.000
983,7420463,693440,4,QUEENS,136-05,SANFORD AVENUE,11355,5043,7501,BLDG,7,2015-04-01T00:00:00.000,2,CLOSE,2015-04-04T00:00:00.000
984,7420464,328150,3,BROOKLYN,64,LIVINGSTON STREET,11201,268,43,2,2,2015-04-01T00:00:00.000,2,CLOSE,2015-04-18T00:00:00.000
985,7420465,6131,1,MANHATTAN,34,ARDEN STREET,10040,2174,175,BLDG,12,2015-04-01T00:00:00.000,2,CLOSE,2015-04-02T00:00:00.000
986,7420466,694910,4,QUEENS,107-10,SHORE FRONT PARKWAY,11694,16177,1,5H,14,2015-04-01T00:00:00.000,2,CLOSE,2015-04-03T00:00:00.000
987,7420467,55226,2,BRONX,4305,CARPENTER AVENUE,10466,5034,28,BLDG,12,2015-04-01T00:00:00.000,2,CLOSE,2015-04-03T00:00:00.000
988,7420468,694658,4,QUEENS,961,SENECA AVENUE,11385,3573,7,3L,5,2015-04-01T00:00:00.000,2,CLOSE,2015-04-09T00:00:00.000
989,7420469,336721,3,BROOKLYN,955,METROPOLITAN AVENUE,11211,2913,59,3L,1,2015-04-01T00:00:00.000,2,CLOSE,2015-04-07T00:00:00.000
990,7420470,100355,2,BRONX,3225,OLINVILLE AVENUE,10467,4594,40,1D,12,2015-04-01T00:00:00.000,2,CLOSE,2015-04-03T00:00:00.000
991,7420471,355151,3,BROOKLYN,1153,PRESIDENT STREET,11225,1275,66,2D,9,2015-04-01T00:00:00.000,2,CLOSE,2015-04-07T00:00:00.000
992,7420472,6131,1,MANHATTAN,34,ARDEN STREET,10040,2174,175,BLDG,12,2015-04-01T00:00:00.000,2,CLOSE,2015-04-02T00:00:00.000
993,7420473,216941,3,BROOKLYN,115,CARLTON AVENUE,11205,2044,12,3B,2,2015-04-01T00:00:00.000,2,CLOSE,2015-04-08T00:00:00.000
994,7420474,94020,2,BRONX,866,MANIDA STREET,10474,2740,68,1,2,2015-04-01T00:00:00.000,2,CLOSE,2015-04-09T00:00:00.000
995,7420475,804879,1,MANHATTAN,550,GRAND STREET,10002,331,120,23,3,2015-04-01T00:00:00.000,2,CLOSE,2015-04-04T00:00:00.000
996,7420477,22080,1,MANHATTAN,484,GRAND STREET,10002,331,65,BLDG,3,2015-04-01T00:00:00.000,2,CLOSE,2015-04-03T00:00:00.000
997,7420478,22095,1,MANHATTAN,504,GRAND STREET,10002,331,1,D12,3,2015-04-01T00:00:00.000,2,CLOSE,2015-04-04T00:00:00.000
998,7420479,804878,1,MANHATTAN,530,GRAND STREET,10002,331,120,BLDG,3,2015-04-01T00:00:00.000,2,CLOSE,2015-04-03T00:00:00.000
999,7420480,347360,3,BROOKLYN,1985,OCEAN AVENUE,11230,6767,1,BLDG,14,2015-04-01T00:00:00.000,2,CLOSE,2015-04-03T00:00:00.000
