applicant_name,address,zip_code,emp,investment,savings_annual,borough,latitude,longitude,community_board,council_district,census_tract,bin,bbl,nta
"Computer Services Group, Inc.","37-24 24th Street, Suite 340, Queens, NY",10018,21,,"$2,994.22 ",,,,,,,,,
"Gotham Greens Gowanus, LLC","184-60 Jamaica Avenue, Queens, NY",11423,33,"$3,357,824.00 ","$54,545.00 ",QUEENS   ,40.709522,-73.774514,12.0,27.0,444.0,4220567.0,4103520089.0,Jamaica                                                                    
New York Fragrance,"600 Gulf Avenue, Staten Island",10314,7,"$2,215,900.00 ", TBD ,STATEN IS,40.614257,-74.179839,2.0,50.0,29102.0,5000000.0,5017600115.0,New Springville-Bloomfield-Travis                                          
"Chelsea Craft Brewing Co., Inc.","463 E. 173rd Street, Bronx, NY",10457,10,"$1,620,000.00 ","$4,848.00 ",BRONX    ,40.841778000000005,-73.901638,3.0,15.0,165.0,2124550.0,2029060093.0,Claremont-Bathgate                                                         
"S & L Aerospace Metals, LLC","120-12 28th Avenue, Queens, NY",11354,87,"$827,511.00 ","$27,471.00 ",QUEENS   ,40.773145,-73.84764799999999,7.0,19.0,907.0,4100711.0,4043170041.0,College Point                                                              
"Silvercup Studios Associates, LP","295 Locust Avenue, Bronx, NY",10454,47,"$17,543,167.00 ","$50,325.00 ",BRONX    ,40.80323,-73.90620200000001,1.0,17.0,19.0,2004039.0,2025980046.0,Mott Haven-Port Morris                                                     
Tectonic Engineering & Surveying,"118-35 Queens Blvd., Queens, NY",11375,76,,"$6,075.00 ",QUEENS   ,40.71513,-73.830545,6.0,29.0,75701.0,4052811.0,4022700041.0,Forest Hills                                                               
Daniel Scuderi,"4715 Barnett Avenue, Queens, NY",11101,5,,"$2,180.00 ",QUEENS   ,40.750033,-73.915867,2.0,26.0,171.0,4001325.0,4001420227.0,Hunters Point-Sunnyside-West Maspeth                                       
"IRX Therapeutics, Inc.","140 58th Street, Blgd.A, Unit 8D, Brooklyn, NY",11220,24,,"$17,500.00 ",BROOKLYN ,40.645338,-74.022864,7.0,38.0,18.0,3257058.0,3057780001.0,Sunset Park West                                                           
"Arista Coffee, Inc.","59-01 55th Street, Queens, NY",11378,40,"$278,070.00 ","$5,437.00 ",QUEENS   ,40.716759,-73.913146,5.0,30.0,535.0,4059082.0,4026300001.0,Maspeth                                                                    
Burden LLC,"47-00 33rd Street, Queens, NY",11101,6,,"$1,373.00 ",QUEENS   ,40.742385999999996,-73.932148,2.0,26.0,199.0,4003447.0,4002520018.0,Hunters Point-Sunnyside-West Maspeth                                       
"Jewels for Me/JFM, Inc.","162 44th Street, Brooklyn, NY",11232,10,,"$1,057.00 ",BROOKLYN ,40.652989,-74.014333,7.0,38.0,18.0,3322615.0,3007350070.0,Sunset Park West                                                           
"Tyme Food, Inc./Bowl, Inc.","238-252 Conover Street, Brooklyn, NY",11231,2,,"$4,226.00 ",BROOKLYN ,40.676489000000004,-74.01613,6.0,38.0,53.0,3008773.0,3005950001.0,Carroll Gardens-Columbia Street-Red Hook                                   
"J. Crew Group, Inc.","30-30 47th Ave., Queens, NY",11101,143,,"$9,688.00 ",QUEENS   ,40.743168,-73.93656800000001,2.0,26.0,199.0,4003540.0,4002820001.0,Hunters Point-Sunnyside-West Maspeth                                       
"Handy Tool & Mfg. Co., Inc.","1205 Rockaway Ave., Bklyn, NY",11236,29,"$313,580.00 ","$2,362.00 ",BROOKLYN ,40.650042,-73.905711,18.0,42.0,1098.0,3257088.0,3081310022.0,East New York                                                              
"Long Island Concrete, Inc.","215-10 Hempstead Ave., Queens, NY",11429,176,"$736,000.00 ","$1,583.00 ",QUEENS   ,40.715576,-73.74373,13.0,27.0,540.0,4238780.0,4110830079.0,Queens Village                                                             
"Picasso Hoops, I Love New York LLC","6 Bay Street, Brooklyn, NY 11231",11231,1,,"$4,176.00 ",BROOKLYN ,40.673726,-74.009845,6.0,38.0,53.0,3008840.0,3006010001.0,Carroll Gardens-Columbia Street-Red Hook                                   
"Bimmy's, Inc.","47-00 33rd Street, Queens, NY ",11101,192,,"$1,416.00 ",QUEENS   ,40.742385999999996,-73.932148,2.0,26.0,199.0,4003447.0,4002520018.0,Hunters Point-Sunnyside-West Maspeth                                       
"Horizon Shades East, Inc.","37-18 Northern Blvd. Queens, NY",11101,14,,"$1,002.00 ",QUEENS   ,40.752096,-73.925887,1.0,26.0,171.0,4003103.0,4002140040.0,Hunters Point-Sunnyside-West Maspeth                                       
"Boyce Technologies, Inc.","47-22 Pearson Place, Queens, NY",11101,73,,"$9,359.00 ",QUEENS   ,40.742724,-73.942538,2.0,26.0,1.0,4000743.0,4000990010.0,Hunters Point-Sunnyside-West Maspeth                                       
"The Child Center of NY, Inc.","118-35 Queens Blvd., Queens, NY",11375,123,,"$1,853.00 ",QUEENS   ,40.71513,-73.830545,6.0,29.0,75701.0,4052811.0,4022700041.0,Forest Hills                                                               
"Grandstand Sports & Memorabilia, Inc.","37-18 Northern Blvd., Queens, NY",11101,16,,"$1,938.00 ",QUEENS   ,40.752096,-73.925887,1.0,26.0,171.0,4003103.0,4002140040.0,Hunters Point-Sunnyside-West Maspeth                                       
72andSunny Partners LLC,"55 Water St., P/o Fl 5 & 6, Brooklyn, NY ",11201,113,,"$20,588.00 ",BROOKLYN ,40.703301,-73.992047,2.0,33.0,21.0,3000019.0,3000260050.0,DUMBO-Vinegar Hill-Downtown Brooklyn-Boerum Hill                           
Stand and Build LLC,"51-02 21st Street, Queens, NY",11101,2,,$688.00 ,QUEENS   ,40.741017,-73.949742,2.0,26.0,7.0,4000210.0,4000390182.0,Hunters Point-Sunnyside-West Maspeth                                       
New York Blood Center,"45-01 Vernon Blvd., Queens, NY",11101,280,"$18,000,000.00 ","$176,857.00 ",QUEENS   ,40.748152000000005,-73.952259,2.0,26.0,7.0,4441057.0,4000500001.0,Hunters Point-Sunnyside-West Maspeth                                       
Mega Aid Pharmacy,"140 58th Street,Bldg. B, Units 8G & I, Brooklyn, NY",11220,16,,"$9,083.00 ",BROOKLYN ,40.645338,-74.022864,7.0,38.0,18.0,3257058.0,3057780001.0,Sunset Park West                                                           
Uncommon Goods (2nd),"140 58th St.,Bldg. B, Units 2A & B, Brooklyn, NY",11220,138,,"$5,275.00 ",BROOKLYN ,40.645338,-74.022864,7.0,38.0,18.0,3257058.0,3057780001.0,Sunset Park West                                                           
Uncommon Goods (7th),"140 58th Street,Bldg. B, Units 7B, Brooklyn, NY",11220,137,,"$5,275.00 ",BROOKLYN ,40.645338,-74.022864,7.0,38.0,18.0,3257058.0,3057780001.0,Sunset Park West                                                           
Dr. Smood New York Production LLC,"47-10 Austell Place. Queens, NY",11101,13,,"$1,817.00 ",QUEENS   ,40.743404,-73.941909,2.0,26.0,1.0,4000742.0,4000980042.0,Hunters Point-Sunnyside-West Maspeth                                       
Favorite Plastic,"1465 Utica Avenue, Brooklyn, NY",11234,42,"$500,000.00 ","$92,944.00 ",BROOKLYN ,40.636521,-73.928747,18.0,45.0,932.0,3325342.0,3079690020.0,East Flatbush-Farragut                                                     
Gotham Seafood Corp.,"1049 Lowell Street, Bronx, NY ",10459,70,"$90,569.00 ","$1,494.00 ",BRONX    ,40.825994,-73.886977,2.0,17.0,12102.0,2006295.0,2027570112.0,Hunts Point                                                                
The Bronx Brewery,"856 East 136th Street, Bronx, NY",11454,68,"$699,812.00 ","$1,455.00 ",,,,,,,,,
"G & G Manhattan Fruitier, Inc.","48-09 34th Street, Queens, NY ",11101,18, n/a ,"$2,275.00 ",QUEENS   ,40.740357,-73.93158000000001,2.0,26.0,199.0,4003452.0,4002540036.0,Hunters Point-Sunnyside-West Maspeth                                       
"95 Evergreen Building Investors III, LLC","95 Evergreen Avenue, Brooklyn, NY",11206,1,"$402,846.00 ", TBD ,BROOKLYN ,40.699927,-73.93253100000001,4.0,34.0,425.0,3071940.0,3031560001.0,Bushwick South                                                             
"TMI Trading Corp. adb Twin Marquis, Inc.","513 Irving Avenue, Brooklyn, NY ",11237,109,"$1,504,060.00 ","$79,052.00 ",BROOKLYN ,40.694469,-73.90637,4.0,37.0,439.0,3078942.0,3034130071.0,Bushwick North                                                             
"JPMorgan Chase Bank, N.A.","3 Chase Metrotech Center, aka 339 Bridge Street, Brooklyn, NY",11201,557,"$13,132,488.00 ","$223,644.00 ",BROOKLYN ,40.694059,-73.985741,2.0,33.0,11.0,3000000.0,3001420100.0,DUMBO-Vinegar Hill-Downtown Brooklyn-Boerum Hill                           
"JPMorgan Chase Bank, N.A.","4 Chase Metrotech Center, aka 101 Duffied Street, Brooklyn, NY",11201,3225,"$41,017,840.00 ","$463,981.00 ",BROOKLYN ,40.694059,-73.985741,2.0,33.0,11.0,3000000.0,3001420100.0,DUMBO-Vinegar Hill-Downtown Brooklyn-Boerum Hill                           
"Magellan Aerospace, New York, Inc.fka Ellanef Manufacturing Corp.","97-11 50th Avenue, Queens, NY",11368,150,"$446,909.00 ","$34,334.00 ",QUEENS   ,40.742133,-73.865661,4.0,21.0,411.0,4440227.0,4018800007.0,Corona                                                                     
"Square Roots Urban Growers, Inc. (Farm)","630 Flushing Ave., Unit 375, Brooklyn, NY ",11206,3,,"$10,319.00 ",BROOKLYN ,40.699963000000004,-73.948449,3.0,36.0,257.0,3329628.0,3017200001.0,Bedford                                                                    
"Square Roots Urban Growers, Inc. (office)","630 Flushing Ave., Unit 375, Brooklyn, NY ",11206,4,,"$1,003.00 ",BROOKLYN ,40.699963000000004,-73.948449,3.0,36.0,257.0,3329628.0,3017200001.0,Bedford                                                                    
"Sharan Builders, Inc. Formerly A-Val Properties","128-12 18th Ave., Queens, NY",11356,10,"$390,000.00 ","$2,059.00 ",QUEENS   ,40.783221999999995,-73.84020799999999,7.0,19.0,947.0,4098985.0,4041340122.0,College Point                                                              
"Sky High Murals - Colossal Media, Inc.","1109 Metropolitan Avenue, Brooklyn, NY ",11211,76,"$1,948,265.00 ","$4,575.00 ",BROOKLYN ,40.714329,-73.93216600000001,1.0,34.0,449.0,3070491.0,3029270025.0,East Williamsburg                                                          
"B-Reel Creative Agency, Inc.","77 Sands Street, Suite 1202, Brooklyn, NY ",11201,51, n/a ,"$5,341.00 ",BROOKLYN ,40.700092,-73.98752900000001,2.0,33.0,13.0,3000171.0,3000770001.0,DUMBO-Vinegar Hill-Downtown Brooklyn-Boerum Hill                           
Morgan & Morgan PA (Salmar),"850 Third Avenue, Suite 402, Brooklyn, NY",11232,78, n/a ,"$5,254.00 ",BROOKLYN ,40.658518,-74.003327,7.0,38.0,18.0,3009889.0,3006710001.0,Sunset Park West                                                           
"JPR Mechanical, Inc.","441 East 164th Street, Bronx, NY",10456,26, n/a ,"$16,013.00 ",BRONX    ,40.826141,-73.91083499999999,3.0,17.0,185.0,2117413.0,2023860164.0,Morrisania-Melrose                                                         
"JPR Mechanical, Inc.","434 East 165th Street, Bronx, NY",10456,26, n/a ,"$10,980.00 ",BRONX    ,40.8274,-73.910602,3.0,17.0,185.0,2001547.0,2023860030.0,Morrisania-Melrose                                                         
"Van Blarcom Closures, Inc.","409-423 Willoughby Avenue, Brooklyn, NY",11205,141,"$542,691.00 ","$54,176.00 ",BROOKLYN ,40.693197,-73.954123,3.0,33.0,241.0,3048569.0,3017510043.0,Bedford                                                                    
"Deutsche Bank Securities, Inc.","Four Chase Metrotech Center, 8th floor, Brooklyn, NY ",11201,3, n/a ,"$26,369.00 ",BROOKLYN ,40.694059,-73.985741,2.0,33.0,11.0,3000000.0,3001420100.0,DUMBO-Vinegar Hill-Downtown Brooklyn-Boerum Hill                           
Fresh Direct,"2 Staint Ann's Avenue, Bronx, NY ",10454,2565,"$14,790,501.30 ","$65,429.00 ",,,,,,,,,
"Modern Window & Door, Inc.","1411-1429 Ferris Place, Bronx, NY",10461,17,"$101,395.00 ","$16,928.00 ",BRONX    ,40.83909,-73.841183,10.0,13.0,96.0,2027299.0,2038570027.0,Westchester-Unionport                                                      
"Van Blarcom Closures, Inc.","152-62 Sanford Street, Brooklyn, NY",11205,140,"$362,312.32 ","$42,266.00 ",BROOKLYN ,40.694148999999996,-73.95327900000001,3.0,33.0,241.0,,,Bedford                                                                    
55 Water LLC,"51 Water Street, Brooklyn, NY ",11201,5,"$50,000,000.00 ",TBD,BROOKLYN ,40.703303999999996,-73.99215600000001,2.0,33.0,21.0,3000000.0,3000260050.0,DUMBO-Vinegar Hill-Downtown Brooklyn-Boerum Hill                           
"Transcontinental Ultra Flex, Inc.","975 Essex Street, Brooklyn, NY ",11208,279,"$200,280.00 ","$380,280.00 ",BROOKLYN ,40.660379,-73.874732,5.0,42.0,1078.0,3098057.0,3044070015.0,East New York                                                              
Sunset Park Farms LLC dba Brooklyn Granger LLC,"850 3rd Avenue, 9th flo, Brooklyn, NY",11232,11, n/a ,"$12,220.00 ",BROOKLYN ,40.658518,-74.003327,7.0,38.0,18.0,3009889.0,3006710001.0,Sunset Park West                                                           
I. AM. Malia Mills LLC,"32 33rd Street, Brooklyn, NY",11220,13, n/a , TBD ,BROOKLYN ,40.658251,-74.006433,7.0,38.0,18.0,3336897.0,3006830001.0,Sunset Park West                                                           
"Evergreen Architectural Arts, Inc.","253 36th Street, Brooklyn, NY",11232,78, n/a , TBD ,BROOKLYN ,40.65597,-74.007154,7.0,38.0,18.0,3345565.0,3006910001.0,Sunset Park West                                                           
"House of Spices (India), Inc.","57-07 49th Place, Queens, NY",11378,37,"$438,900.00 ","$17,560.00 ",QUEENS   ,40.721144,-73.919543,5.0,30.0,219.0,4462230.0,4026030068.0,Hunters Point-Sunnyside-West Maspeth                                       
Marathon Energy Corp.,"62-01 34th Avenue, Queens, NY",11354,61,"$91,940.00 ","$5,183.00 ",QUEENS   ,40.752183,-73.899803,2.0,26.0,293.0,4027110.0,4011850040.0,Woodside                                                                   
ADP Oak Point LLC,"500 Oak Point Avenue, Bronx, NY",10454,55,"$25,769,954.00 ",,BRONX    ,40.80897,-73.894378,2.0,17.0,93.0,2004151.0,2026040140.0,Hunts Point                                                                
