,borough_code,development,address,status,sponsor,type,zip_code,latitude,longitude,community_board,community_council,census_tract,bin,bbl,nta
0,Manhattan,Baruch,595- 605 FDR Drive,Occupied,"Henry Street Settlement, Inc.",Other - Battered Women shelter,,,,,,,,,
1,Staten Island,Berry Houses,44 Dongan Hills,Occupied,"Staten Island Mental Health Society, Inc.",Child Care ,10306.0,,,,,,,,
2,Brooklyn,Farragut,228 York Street,Occupied,Spanish Speaking Elderly Council - RAICES,Senior Center,,,,,,,,,
3,Manhattan,Harborview Terrace,536 West 56th Street,Occupied,NYCHA,Performing Arts - Art Center,10019.0,,,,,,,,
4,Brooklyn,Howard,1620 E N Y Avenue,NYCHA HOLD,NYCHA,Vacant- health clinic,11212.0,,,,,,,,
5,Manhattan,Lexington,115 East 98th Steet,Occupied,Lexington Children's Center,Child Care - Early Learn,10029.0,,,,,,,,
6,Brooklyn,Marcus Garvey,1440 E N Y Avenue,Occupied,Fort Greene Senior Citizens Council,Senior Center,11212.0,,,,,,,,
7,Bronx,Monroe,1802 Story Avenue,Vacant ,NYCHA,Vacant,,,,,,,,,
8,Bronx,Pelham Parkway,975 Waring Avenue,Occupied,Jewish Association Services For the Aged,Senior Center,,,,,,,,,
9,Brooklyn,Pink,2702 Linden Boulevard,Occupied,United Community Centers,Other - Urban Farm,,,,,,,,,
10,Queens,Ravenswood,34-35A 12th Street,Occupied,"HANAC, Inc.",Senior Center ,11106.0,,,,,,,,
11,Queens,Ravenswood,34-35A 12th Street,Occupied,"HANAC, Inc.",NORC,,,,,,,,,
12,Brooklyn,Red Hook East,110 West 9th Street,Occupied,Spanish Speaking Elderly Council - RAICES,Senior Center,,,,,,,,,
13,Brooklyn,Saratoga Square,930 Halsey Street,Occupied,"Ridgewood-Bushwick Sr Citizens Council, Inc.",Senior Center,,,,,,,,,
14,Manhattan,Washington Hts Rehab (Groups I and II),500 West 164th Street,Vacant ,NYCHA,Vacant,,,,,,,,,
15,Manhattan,Washington Hts Rehab (Groups I and II),503 West 177th Street,Occupied,Provider Name Unknown,Other - Battered Women center,,,,,,,,,
16,Manhattan,Wilson,405 East 105th Steet,Occupied,NYCHA,Management Office,10029.0,,,,,,,,
17,Manhattan,Wise Towers/WSURA,136 West 91st Steet,Vacant ,NYCHA,Vacant,10024.0,,,,,,,,
18,Brooklyn,Wyckoff Gardens,266 Wyckoff Street,Vacant ,NYCHA,Vacant,,,,,,,,,
19,Queens,FOREST HILLS COOP (108TH STREET-62ND DRIVE),108-25 62nd Drive,Occupied,"Queens Community House, Inc.",Senior Center,11375.0,40.73591,-73.850212,6.0,29.0,745.0,4432108.0,4021590002.0,Forest Hills                                                               
20,Staten Island,West Brighton,230 Broadway,Occupied,Catholic Charities Community Services Archdiocese of NY,Senior Center,10310.0,40.636486,-74.117523,1.0,49.0,13301.0,5095818.0,5001960001.0,West New Brighton-New Brighton-St. George                                  
21,Manhattan,Gompers,80 Pitt Street,Occupied,"Grand Street Settlement, Inc.",Senior Center,10002.0,40.718328,-73.98245,3.0,2.0,2201.0,1084357.0,1003380001.0,Lower East Side                                                            
22,Manhattan,Metro North Plaza,304 East 102nd Street,Occupied,Union Settlement Association,Child Care - Early Learn,10029.0,40.787977,-73.944153,11.0,8.0,164.0,1079341.0,1016730006.0,East Harlem South                                                          
23,Manhattan,Lower East Side II,175 Eldridge Street,Occupied,"University Settlement Society of New York, Inc.",Community Center,10002.0,40.720412,-73.990822,3.0,1.0,18.0,1005602.0,1004200062.0,Chinatown                                                                  
24,Bronx,Mitchel,185 Willis Avenue,Vacant ,NYCHA,Vacant,10454.0,40.807604,-73.923994,1.0,8.0,23.0,2093914.0,2022980040.0,Mott Haven-Port Morris                                                     
25,Manhattan,Smith,50 Madison Street,Occupied,"Hamilton-Madison House, Inc.",Senior Center,10038.0,40.711958,-73.997825,3.0,1.0,25.0,1077420.0,1001110100.0,Chinatown                                                                  
26,Brooklyn,Marcus Garvey,20 Amboy Street,Occupied,Research Foundation ,Community Center,11212.0,40.670058,-73.91476,16.0,41.0,902.0,3251969.0,3034940010.0,Brownsville                                                                
27,Brooklyn,Albany,1185 Park Place,Occupied,"Brooklyn Kindergarten Society, Inc.",Child Care - Early Learn,11213.0,40.672793,-73.938391,8.0,36.0,343.0,3324613.0,3013520080.0,Crown Heights North                                                        
28,Queens,Queensbridge North,10-43 41st Avenue,Occupied,Queens Borough Public Library,Other - Education /Literacy Center,11101.0,40.755329,-73.945014,1.0,26.0,25.0,4595582.0,4004700100.0,Queensbridge-Ravenswood-Long Island City                                   
29,Brooklyn,572 Warren St,565 Baltic Street,Occupied,Alonzo A. Daughtry Memorial DCC Inc.,Child Care - UPK 2014,11217.0,40.681306,-73.982697,6.0,33.0,127.0,3006388.0,3004010001.0,DUMBO-Vinegar Hill-Downtown Brooklyn-Boerum Hill                           
30,Manhattan,Washington,1893 Second Avenue,Occupied,Union Settlement Association,Child Care - Early Learn,10029.0,40.785154,-73.946448,11.0,8.0,15602.0,1082343.0,1016470001.0,East Harlem South                                                          
31,Manhattan,Washington,1775 Third Avenue,Occupied,Union Settlement Association,Senior Center,10029.0,40.786574,-73.948303,11.0,8.0,15602.0,1079203.0,1016470001.0,East Harlem South                                                          
32,Manhattan,Douglas II,820 Columbus Avenue,Occupied,"Open Door Associates, Inc.",Child Care - Early Learn,10025.0,40.795506,-73.965603,7.0,7.0,189.0,1079347.0,1018550001.0,Upper West Side                                                            
33,Brooklyn,Tompkins,730 Park Avenue,Occupied,"Brooklyn Kindergarten Society, Inc.",Child Care - Early Learn,11206.0,40.697942,-73.946392,3.0,36.0,25902.0,3324248.0,3017400001.0,Bedford                                                                    
34,Brooklyn,Cypress Hills,475 Fountain Avenue,Occupied,NYCHA,Senior Center,11208.0,40.668288,-73.873005,5.0,42.0,1210.0,3337041.0,3042920061.0,East New York                                                              
35,Manhattan,Harlem River,2650 A C Powell Blvd,Occupied,NYC Public Library,Other - Library,10039.0,40.826385,-73.935622,10.0,9.0,236.0,1084156.0,1020370011.0,Central Harlem North-Polo Grounds                                          
36,Manhattan,Jefferson,210 East 115th Street ,Occupied,Union Settlement Association,Health Clinic (mental),10029.0,40.797132,-73.940237,11.0,8.0,180.0,1080705.0,1016620001.0,East Harlem North                                                          
37,Bronx,1162 Washington,1162 Washington Avenue,Reserved - application on file,NYCHA,Child Care ,10459.0,40.82986,-73.90769,3.0,16.0,145.0,2001312.0,2023720001.0,Claremont-Bathgate                                                         
38,Brooklyn,Hughes Apartments,301 Sutter Avenue,Occupied,Research Foundation,Community Center,11212.0,40.667312,-73.909072,16.0,41.0,906.0,3348344.0,3035260021.0,Brownsville                                                                
39,Brooklyn,Stuyvesant Gardens II,150 Malcolm X Blvd,Occupied,"Ridgewood-Bushwick Sr Citizens Council, Inc.",Senior Center,11221.0,40.688335,-73.930144,3.0,36.0,293.0,3044658.0,3016360024.0,Stuyvesant Heights                                                         
40,Brooklyn,Sheepshead Bay,3679 Nostrand Avenue,Occupied,Federation of Italian American Organizations of Brooklyn,Community Center,11229.0,40.594132,-73.940663,15.0,46.0,572.0,3344548.0,3074051001.0,Sheepshead Bay-Gerritsen Beach-Manhattan Beach                             
41,Queens,South Jamaica II,109-04 160th Street,Occupied,Southern Queens Park Association,Community Center,11433.0,40.693957,-73.792027,12.0,28.0,260.0,4435245.0,4121480100.0,South Jamaica                                                              
42,Manhattan,La Guardia,40 Montgomery Street,Occupied,"Henry Street Settlement, Inc.",Health Clinic,10002.0,40.71288,-73.985038,3.0,1.0,201.0,1083385.0,1002580001.0,Lower East Side                                                            
43,Manhattan,Baruch,605 FDR Drive,Occupied,"Grand Street Settlement, Inc.",Community Center,10002.0,40.718356,-73.97521,3.0,2.0,1002.0,1078027.0,1003230001.0,Lower East Side                                                            
44,Bronx,Millbrook,201 St. Anns Avenue,Occupied,Institute for the Puerto Rican/Hispanic Elderly,Senior Center,10454.0,40.805742,-73.918238,1.0,8.0,25.0,2090986.0,2022630019.0,Mott Haven-Port Morris                                                     
45,Bronx,Forest,749 East 163rd Street,Occupied,Southeast Bronx Neighborhood Centers,Child Care - Early Learn,10456.0,40.822957,-73.904108,3.0,16.0,133.0,2091965.0,2026390001.0,Morrisania-Melrose                                                         
46,Manhattan,LaGuardia Addition,280 Cherry Street,Occupied,New York Foundation For Senior Citizens,Senior Center,10002.0,40.711376,-73.988461,3.0,1.0,6.0,1003211.0,1002560014.0,Lower East Side                                                            
47,Manhattan,131 Saint Nicholas Avenue,131 Saint Nicholas Avenue,Occupied,"Citizen's Care Day Care Center, Inc",Child Care - Early Learn,10026.0,40.803994,-73.952721,10.0,9.0,218.0,1058378.0,1019220041.0,Central Harlem South                                                       
48,Bronx,Betances I,401 St. Anns Avenue,Reserved - temporarily relocated,Institute for the Puerto Rican/Hispanic Elderly,Senior Center/ under renovation,10454.0,40.81085,-73.914941,1.0,8.0,41.0,2090993.0,2022690100.0,Mott Haven-Port Morris                                                     
49,Bronx,Throggs Neck,461 Swinton Avenue,Occupied,"Tremont Crotona Day Care Ctr., Inc.",Child Care - Early Learn,10465.0,40.820332,-73.822263,10.0,13.0,144.0,2093888.0,2055820001.0,Schuylerville-Throgs Neck-Edgewater Park                                   
50,Bronx,Parkside,2972 Bronx Park East,Occupied,Mosholu Montefiore Community Center Inc.,Community Center,10467.0,40.869381,-73.870517,11.0,15.0,336.0,2101746.0,2045420100.0,Bronxdale                                                                  
51,Bronx,East 180th Street-Monterey Avenue,2100 Monterey Avenue,Occupied,Good Shepherd Services,Community Center,10457.0,40.85029,-73.893098,6.0,15.0,37504.0,2011855.0,2030620021.0,East Tremont                                                               
52,Manhattan,Fulton,119 Ninth Avenue,Occupied,Hudson Guild,Senior Center,10011.0,40.743172,-74.00376,4.0,3.0,83.0,1078418.0,1007150010.0,Hudson Yards-Chelsea-Flatiron-Union Square                                 
53,Bronx,Melrose,348 East 156th Street,Occupied,Lincoln Hospital ,Health Clinic,10451.0,40.821376,-73.917814,1.0,17.0,67.0,2093919.0,2024130001.0,Melrose South-Mott Haven North                                             
54,Manhattan,DeHostos Apartments,690 Amsterdam Avenue,Occupied,Institute for Family Health,Health Clinic,10025.0,40.792464,-73.971538,7.0,6.0,179.0,1033648.0,1012410025.0,Upper West Side                                                            
55,Brooklyn,Brown,1630 St Marks Avenue,Occupied,"Wayside Out-Reach Development Corporation, Inc.",Senior Center,11233.0,40.673166,-73.912849,16.0,41.0,363.0,3394308.0,3014600001.0,Ocean Hill                                                                 
56,Bronx,Patterson,340 Morris Avenue,Occupied,East Side House Settlement,Community Center,10451.0,40.813717,-73.92523,1.0,8.0,51.0,2091127.0,2023250001.0,Mott Haven-Port Morris                                                     
57,Brooklyn,Glenmore Plaza,1777 Pitkin Avenue,Occupied,NYCHA,Senior Center,11212.0,40.670168,-73.907561,16.0,37.0,906.0,3080766.0,3035070001.0,Brownsville                                                                
58,Manhattan,Riis,90 Avenue D,Occupied,Chinese-American Planning Council,Child Care ,10009.0,40.723113,-73.976442,3.0,2.0,24.0,1077551.0,1003620001.0,Lower East Side                                                            
59,Bronx,Webster,401 East 168th Street,Occupied,Morrisania Diagnostic & Treament Center ,Health Clinic,10456.0,40.832241,-73.909464,3.0,16.0,145.0,2091187.0,2023950001.0,Claremont-Bathgate                                                         
60,Bronx,Saint Mary's Park,675 Westchester Ave.,Vacant ,NYCHA,Vacant,10455.0,40.816471,-73.907799,1.0,17.0,75.0,2093934.0,2026280001.0,Melrose South-Mott Haven North                                             
61,Brooklyn,Armstrong,495 Gates Avenue,Occupied,"Police Athletic League, Inc.",Community Center,11216.0,40.686639,-73.946989,3.0,36.0,265.0,3050974.0,3018090062.0,Bedford                                                                    
62,Manhattan,Amsterdam,216 West 63rd Street,Vacant ,NYCHA,Vacant,10025.0,40.773654,-73.987584,7.0,6.0,151.0,1082578.0,1011540101.0,Lincoln Square                                                             
63,Bronx,Melrose,277 East  153rd Street,NYCHA HOLD,NYCHA,Vacant,10451.0,40.820157,-73.921306,1.0,17.0,67.0,2093920.0,2024130001.0,Melrose South-Mott Haven North                                             
64,Bronx,Edenwald,1141 East 229th Street,NYCHA HOLD,NYCHA,Vacant,10466.0,40.886304,-73.845367,12.0,12.0,458.0,2094151.0,2049050001.0,Eastchester-Edenwald-Baychester                                            
65,Brooklyn,Pennsylvania Avenue-Wortman Avenue,530 Stanley Avenue,Occupied,NYC Department of Education,Other - Education /School,11207.0,40.657212,-73.888852,5.0,42.0,1104.0,3324010.0,3043690001.0,East New York                                                              
66,Queens,Baisley Park,116-80 Guy Brewer Blvd,Occupied,NYCHA,Senior Center,11434.0,40.684875,-73.78338,12.0,28.0,278.0,4435282.0,4122350022.0,Baisley Park                                                               
67,Manhattan,Lexington,183 East 98th Street,Reserved UPK 2015,School Construction Authority,Occuped,10029.0,40.786667,-73.948837,11.0,5.0,166.0,1082320.0,1016260021.0,East Harlem South                                                          
68,Brooklyn,Ingersoll,177 Myrtle Avenue,Occupied,"University Settlement Society of New York, Inc.",Community Center,11201.0,40.693614,-73.982305,2.0,35.0,15.0,3257034.0,3020500001.0,DUMBO-Vinegar Hill-Downtown Brooklyn-Boerum Hill                           
69,Manhattan,Wald,12 Avenue D,Occupied,United Jewish Council,Senior Center,10009.0,40.720462,-73.978369,3.0,2.0,20.0,1078045.0,1003560001.0,Lower East Side                                                            
70,Bronx,Twin Parks West,355 East 183rd Street,NYCHA HOLD,NYCHA,Vacant,10458.0,40.856391,-73.895991,5.0,15.0,38302.0,2092394.0,2031430155.0,Fordham South                                                              
71,Brooklyn,O'Dwyer Gardens,2945 West 33rd Street,Occupied,Heartshare Human Services,Community Center,11224.0,40.573879,-73.99937,13.0,47.0,342.0,3321766.0,3070480015.0,Seagate-Coney Island                                                       
72,Manhattan,Marshall Plaza,1970 Amsterdam Avenue,Occupied,United Block Association,Senior Center,10032.0,40.83328,-73.94174,12.0,7.0,241.0,1076742.0,1021160033.0,Washington Heights South                                                   
73,Manhattan,Lower East Side I Infill,213 Eldridge Street,Occupied,Greenwich Village Youth Council,Community Center,10002.0,40.721532,-73.990252,3.0,1.0,3601.0,1077628.0,1004210052.0,Chinatown                                                                  
74,Bronx,Glebe Avenue-Westchester Avenue,2125 Glebe Avenue,Occupied,YMCA of Greater New York ,Senior Center,10462.0,40.8351,-73.850368,10.0,18.0,20601.0,2041406.0,2039630043.0,Westchester-Unionport                                                      
75,Bronx,Monroe,1780 Story Avenue,Occupied + Reserved - application on file,East Tremont Head Start Alumni Day Care Center,Child Care - Early Learn,10473.0,40.823265,-73.865779,9.0,18.0,42.0,2092748.0,2036370001.0,Soundview-Castle Hill-Clason Point-Harding Park                            
76,Brooklyn,Boulevard,726 Stanley Avenue,Occupied,CAMBA,Community Center,11207.0,40.660225,-73.881862,5.0,42.0,1110.0,3324277.0,3043770001.0,East New York                                                              
77,Queens,South Jamaica II,108-17 159th Street,Occupied,Afro-American Parents Day Care Center,Child Care ,11433.0,40.695014,-73.793773,12.0,28.0,254.0,4457481.0,4101480001.0,South Jamaica                                                              
78,Brooklyn,Roosevelt II,400 Hart Street,Occupied,Good Shepherd Services,Community Center,11206.0,40.694725,-73.93519,3.0,36.0,287.0,3341752.0,3015950024.0,Stuyvesant Heights                                                         
79,Manhattan,Robbins Plaza,343 East 70th Street,Occupied,Lenox Hill Neighborhood House,Senior Center,10021.0,40.766686,-73.95739,8.0,5.0,126.0,1044841.0,1014450023.0,Lenox Hill-Roosevelt Island                                                
80,Manhattan,Chelsea,428 West 26th Street,Occupied,Hudson Guild,Other - Office Space,10001.0,40.749065,-74.001541,4.0,3.0,93.0,1083581.0,1007230015.0,Hudson Yards-Chelsea-Flatiron-Union Square                                 
81,Bronx,Monroe,1776 Story Avenue,Occupied,Institute for the Puerto Rican/Hispanic Elderly,Senior Center,10473.0,40.82324,-73.86596,9.0,18.0,42.0,2092748.0,2036370001.0,Soundview-Castle Hill-Clason Point-Harding Park                            
82,Manhattan,Amsterdam,206 West 64th Street,Occupied,Hudson Guild,Child Care - UPK 2014,10023.0,40.773624,-73.985584,7.0,6.0,151.0,1082576.0,1011540101.0,Lincoln Square                                                             
83,Brooklyn,Sumner,862 Park Avenue,Occupied,Good Shepherd Services,Community Center,11206.0,40.698582,-73.940736,3.0,36.0,28502.0,3324728.0,3015800001.0,Stuyvesant Heights                                                         
84,Bronx,Morris I,489 East 169th Street,Occupied,Claremont Neighborhood Center,Community Center,10456.0,40.832965,-73.905669,3.0,16.0,14701.0,2092082.0,2029100001.0,Claremont-Bathgate                                                         
85,Manhattan,East River,453 East 102nd Street,NYCHA HOLD,NYCHA,Vacant,10029.0,40.786271,-73.940034,11.0,8.0,162.0,1083942.0,1016960001.0,East Harlem South                                                          
86,Manhattan,Robinson,110 East 129th Street,Occupied,SCAN Supportive Children's Advocacy Network,Community Center,10035.0,40.807387,-73.936695,11.0,9.0,242.0,1054505.0,1017770005.0,East Harlem North                                                          
87,Brooklyn,Carey Gardens,2964 West 23rd Street,Occupied,"Police Athletic League, Inc.",Child Care - Early Learn,11224.0,40.574699,-73.989827,13.0,47.0,326.0,3321840.0,3070560014.0,Seagate-Coney Island                                                       
88,Brooklyn,Lafayette Gardens,442 Dekalb Avenue,Occupied,Graham Windham Services to Families & Children,Community Center,11205.0,40.690432,-73.959502,3.0,35.0,233.0,3321871.0,3019380001.0,Bedford                                                                    
89,Queens,Redfern,15-44 Hassock Street,Occupied,"Police Athletic League, Inc.",Community Center,11691.0,40.609102,-73.753359,14.0,31.0,103201.0,4449685.0,4155010002.0,Far Rockaway-Bayswater                                                     
90,Manhattan,Drew Hamilton,2698 Frederick Douglass Blvd,Occupied,Renaissance Health Care Network ,Health Clinic,10030.0,40.821706,-73.94273,10.0,9.0,232.0,1060431.0,1020290001.0,Central Harlem North-Polo Grounds                                          
91,Bronx,University Avenue ,1925 University Avenue,Reserved - application on file,NYCHA,Religious Services,10453.0,40.853249,-73.912646,5.0,14.0,24501.0,2009054.0,2028790030.0,University Heights-Morris Heights                                          
92,Queens,Ravenswood,35-40 21st Street,Occupied,"Jacob A. Riis Neighborhood Settlement, Inc.",Community Center,11106.0,40.760808,-73.93592,1.0,26.0,43.0,4430693.0,4003320002.0,Queensbridge-Ravenswood-Long Island City                                   
93,Brooklyn,Brownsville,320 Blake Avenue,Vacant ,NYCHA,Vacant,11212.0,40.665897,-73.907834,16.0,41.0,912.0,3326528.0,3035610001.0,Brownsville                                                                
94,Brooklyn,Red Hook West,6 Wolcott Street,NYCHA HOLD,NYCHA,Vacant,11231.0,40.675345,-74.009972,6.0,38.0,85.0,3323702.0,3005570001.0,Carroll Gardens-Columbia Street-Red Hook                                   
95,Manhattan,Clinton,120 East 110th Street,Occupied,SCAN Supportive Children's Advocacy Network,Community Center,10029.0,40.795119,-73.945194,11.0,8.0,172.0,1078931.0,1016370001.0,East Harlem South                                                          
96,Brooklyn,Carey Gardens,2315 Surf Avenue,Occupied,Heartshare Human Services,Community Center,11224.0,40.573958,-73.989878,13.0,47.0,326.0,3321840.0,3070560014.0,Seagate-Coney Island                                                       
97,Queens,FOREST HILLS COOP (108TH STREET-62ND DRIVE),108-25 62nd Drive ,Occupied,"Queens Community House, Inc.",NORC,11375.0,40.73591,-73.850212,6.0,29.0,745.0,4432108.0,4021590002.0,Forest Hills                                                               
98,Manhattan,Drew Hamilton,220 West 143rd Street,NYCHA HOLD,NYCHA,Vacant,10030.0,40.8208,-73.94113,10.0,9.0,232.0,1086084.0,1020280016.0,Central Harlem North-Polo Grounds                                          
99,Brooklyn,Williams Plaza,321 Roebling Street,Occupied,"Labor Industry for Education, Inc",Child Care - Early Learn,11211.0,40.70832,-73.960981,1.0,33.0,525.0,3341975.0,3021400026.0,North Side-South Side                                                      
100,Bronx,McKinley,909 Tinton Avenue,Occupied,Southeast Bronx Neighborhood Centers,Child Care - Early Learn,10456.0,40.821974,-73.903448,3.0,16.0,133.0,2091959.0,2026380090.0,Morrisania-Melrose                                                         
101,Bronx,Castle Hill,625 Castle Hill Avenue,Occupied,Kips Bay Boys & Girls Club/Dept for the Aging,Community Center,10473.0,40.819754,-73.848209,9.0,18.0,86.0,2092673.0,2035700001.0,Soundview-Castle Hill-Clason Point-Harding Park                            
102,Bronx,Millbrook,201 St. Anns Avenue,Occupied,East Side House Settlement,Child Care - Early Learn,10454.0,40.805742,-73.918238,1.0,8.0,25.0,2090986.0,2022630019.0,Mott Haven-Port Morris                                                     
103,Manhattan,Baruch,300 Delancey Street,Occupied,"Grand Street Settlement, Inc.",Child Care - Early Learn,10002.0,40.715758,-73.979334,3.0,2.0,1002.0,1078037.0,1003230001.0,Lower East Side                                                            
104,Queens,Astoria,4-05 Astoria Blvd,Occupied,NYCHA,Senior Center,11102.0,40.772947,-73.933467,1.0,22.0,87.0,4430787.0,4004900101.0,Old Astoria                                                                
105,Brooklyn,Sheepshead Bay,3679 Nostrand Avenue,Occupied,"Catholic Charities Neighborhood Services, Inc.",Senior Center,11229.0,40.594132,-73.940663,15.0,46.0,572.0,3344548.0,3074051001.0,Sheepshead Bay-Gerritsen Beach-Manhattan Beach                             
106,Brooklyn,Glenwood,5701 Avenue H,Occupied,"Catholic Charities Neighborhood Services, Inc.",Senior Center,11234.0,40.633288,-73.921555,18.0,45.0,94402.0,3331006.0,3079780001.0,Flatlands                                                                  
107,Manhattan,Elliott,459 West 26th Street,Occupied,Hudson Guild,Child Care ,10001.0,40.74938,-74.002252,4.0,3.0,97.0,1083583.0,1007240001.0,Hudson Yards-Chelsea-Flatiron-Union Square                                 
108,Manhattan,Lehman Village,80 East 110th Street,Occupied,Child Welfare Organizing Project,Other - Case Management /Child Welfare Program,10029.0,40.79568,-73.946555,11.0,8.0,17401.0,1078868.0,1016150023.0,East Harlem South                                                          
109,Brooklyn,Bushwick,50 Humboldt Street,Occupied,Jewish Association Services For the Aged,NORC,11206.0,40.703179,-73.940761,1.0,34.0,489.0,3338434.0,3031290001.0,Bushwick South                                                             
110,Manhattan,Polo Grounds Towers,3005 8th Avenue,Occupied,Children's Village,Community Center,10039.0,40.831534,-73.935573,10.0,9.0,24302.0,1000000.0,1021060003.0,Central Harlem North-Polo Grounds                                          
111,Queens,Queensbridge South,10-30 41st Avenue,Occupied ,NYCHA,Family Services,11101.0,40.755417,-73.945223,1.0,26.0,25.0,4595567.0,4004650100.0,Queensbridge-Ravenswood-Long Island City                                   
112,Brooklyn,Tompkins,736 Park Avenue,Occupied,"Grand Street Settlement, Inc.",Community Center,11206.0,40.697972,-73.946128,3.0,36.0,25902.0,3324248.0,3017400001.0,Bedford                                                                    
113,Staten Island,Berry Houses,1742 Richmond Road,Occupied,Theodore Atlas Foundation,Other- Sports - Boxing Program,10306.0,40.5877,-74.10322,2.0,50.0,11401.0,5116737.0,5035320500.0,Old Town-Dongan Hills-South Beach                                          
114,Queens,Queensbridge North,40-10 10th Street ,Occupied,"Steinway Child & Family Services, Inc.",Other - Case Management /Referral Services,11101.0,40.756753,-73.944471,1.0,26.0,25.0,4595581.0,4004700100.0,Queensbridge-Ravenswood-Long Island City                                   
115,Manhattan,White,237 East 104th Street,Occupied,Union Settlement Association,Community Center,10029.0,40.789687,-73.944267,11.0,8.0,170.0,1080671.0,1016540011.0,East Harlem South                                                          
116,Bronx,Morissania Air Rights,3135 Park Avenue ,NYCHA HOLD,NYCHA,Vacant,10451.0,40.82415,-73.917164,4.0,16.0,173.0,2100990.0,2024209078.0,East Concourse-Concourse Village                                           
117,Brooklyn,Whitman,149 North Oxford Walk,NYCHA HOLD,NYCHA,Vacant,11205.0,40.693525,-73.975049,2.0,35.0,18501.0,3335256.0,3020410001.0,Fort Greene                                                                
118,Bronx,Sedgwick,1531 University Avenue,Vacant ,NYCHA,Vacant,10453.0,40.845828,-73.921995,5.0,16.0,20501.0,2092104.0,2028770001.0,University Heights-Morris Heights                                          
119,Staten Island,Mariner's Harbor,157 Brabant Street,Occupied,UAU,Community Center,10303.0,40.632021,-74.16389,1.0,49.0,31901.0,5109121.0,5012450001.0,Mariner's Harbor-Arlington-Port Ivory-Graniteville                         
120,Queens,Queensbridge North,10-26 41st Avenue,Occupied,"Police Athletic League, Inc.",Child Care ,11101.0,40.755455,-73.945299,1.0,26.0,25.0,4433390.0,4004650100.0,Queensbridge-Ravenswood-Long Island City                                   
121,Bronx,Murphy,601 Crotona Park North,Occupied,ACDP,Community Center,10457.0,40.842917,-73.895322,6.0,15.0,36902.0,2092141.0,2029440001.0,East Tremont                                                               
122,Manhattan,Wald,24 Avenue D,Occupied,"Henry Street Settlement, Inc.",Other - Jobs Plus,10009.0,40.720789,-73.978134,3.0,2.0,20.0,1078047.0,1003560001.0,Lower East Side                                                            
123,Manhattan,Corsi,307 East 116th Street,Occupied,Harlem RBI + SMART Program,Other - Miscellaneous,10029.0,40.796935,-73.93759,11.0,8.0,188.0,1079357.0,1016880045.0,East Harlem North                                                          
124,Manhattan,Douglass Addition,868 Amsterdam Avenue,Occupied,West Side Federation for Senior and Supportive Housing,Senior Center,10025.0,40.798169,-73.967371,7.0,7.0,191.0,1079429.0,1018740029.0,Upper West Side                                                            
125,Brooklyn,Sumner,47 Marcus Garvey Blvd.,Occupied,Cumberland Hospital ,Health Clinic,11206.0,40.697945,-73.941018,3.0,36.0,28502.0,3324728.0,3015800001.0,Stuyvesant Heights                                                         
126,Queens,Queensbridge North,40-11 10th Street ,Occupied,"Jacob A. Riis Neighborhood Settlement, Inc.",Other - Office Space,11101.0,40.756753,-73.944471,1.0,26.0,25.0,4433387.0,4004700100.0,Queensbridge-Ravenswood-Long Island City                                   
127,Bronx,Webster,1240 Webster Avenue,Occupied,Claremont Neighborhood Center,Child Care - Early Learn,10456.0,40.832675,-73.909388,3.0,16.0,145.0,2091187.0,2023950001.0,Claremont-Bathgate                                                         
128,Manhattan,West Side Urban Renewal,647 Columbus Avenue,Occupied,Goddard Riverside Outreach,Community Center,10025.0,40.789927,-73.96965,7.0,6.0,177.0,1031623.0,1012050001.0,Upper West Side                                                            
129,Staten Island,Berry Houses,211 Jefferson St.,Occupied,United Activities Unlimited Inc,Community Center,10306.0,40.586661,-74.100928,2.0,50.0,11401.0,5109569.0,5035320500.0,Old Town-Dongan Hills-South Beach                                          
130,Manhattan,Baruch,280 Delancey Street,Vacant ,NYCHA,Vacant- health clinic,10002.0,40.716079,-73.980373,3.0,2.0,1002.0,1078039.0,1003230001.0,Lower East Side                                                            
131,Manhattan,Manhattanville,3240 Broadway,Occupied,"Citizen's Care Day Care Center, Inc",Child Care - Early Learn,10027.0,40.816951,-73.957365,9.0,7.0,219.0,1084124.0,1019840001.0,Manhattanville                                                             
132,Bronx,Adams,735 East 152nd Street,Occupied,Neighborhood SHOPP,Senior Center,10455.0,40.815994,-73.907843,1.0,17.0,79.0,2091979.0,2026540002.0,Melrose South-Mott Haven North                                             
133,Manhattan,Straus,225 East 27th Street,Occupied,NYCHA,Performing Arts - Center,10016.0,40.740851,-73.980116,6.0,2.0,66.0,1019877.0,1009080017.0,Murray Hill-Kips Bay                                                       
134,Queens,Woodside,50-37 Broadway,Occupied,"Police Athletic League, Inc.",Child Care - Early Learn,11377.0,40.754763,-73.910021,1.0,26.0,163.0,4431003.0,4007380050.0,Astoria                                                                    
135,Brooklyn,Marcy,468 Marcy Avenue,NYCHA HOLD,NYCHA,Vacant,11206.0,40.698932,-73.949929,3.0,36.0,255.0,3325584.0,3017190001.0,Bedford                                                                    
136,Manhattan,Manhattanville,530 West 133rd Street,Occupied,"Boys and Girls Club of Harlem, Inc.",Other - Family / Teen Program,10027.0,40.818127,-73.954478,9.0,7.0,219.0,1084130.0,1019840001.0,Manhattanville                                                             
137,Manhattan,DeHostos Apartments,201 West 93rd Street,Occupied,I Have A Dream Foundation-NY,Other - Education / IHAD Literacy,10025.0,40.792156,-73.971813,7.0,6.0,179.0,1033648.0,1012410025.0,Upper West Side                                                            
138,Queens,Bland,40-15 College Pt Blvd,Occupied,NYCHA,Senior Center,11354.0,40.757803,-73.83414,7.0,20.0,871.0,4443443.0,4050370008.0,Flushing                                                                   
139,Brooklyn,Roosevelt I,971 DeKalb Avenue,Occupied,"Bedford Stuyvesant Early Childhood Development Ctr., Inc.",Child Care ,11221.0,40.693101,-73.936421,3.0,36.0,289.0,3324973.0,3015980001.0,Stuyvesant Heights                                                         
140,Brooklyn,Stuyvesant Gardens,214 Stuyvesant Avenue,Occupied,SCO Family of Services,Community Center,11221.0,40.687985,-73.933065,3.0,36.0,293.0,3044631.0,3016350041.0,Stuyvesant Heights                                                         
141,Manhattan,Harlem River,220-224 West 152nd Street,Occupied,"Bethany Day Nursery, Inc.",Child Care ,10039.0,40.826309,-73.936634,10.0,9.0,236.0,1084154.0,1020370011.0,Central Harlem North-Polo Grounds                                          
142,Queens,Astoria,3-10 Astoria Blvd.,Occupied,NYCHA,Plasterer's Shop,11102.0,40.773013,-73.933749,1.0,22.0,87.0,4430798.0,4004900101.0,Old Astoria                                                                
143,Manhattan,East River,404 East 105th Street,Occupied,SCAN Supportive Children's Advocacy Network,Community Center,10029.0,40.788859,-73.940367,11.0,8.0,162.0,1083941.0,1016960001.0,East Harlem South                                                          
144,Bronx,Soundview,1700 Seward Avenue,Occupied,Ciditty Kiddie Corporation,Child Care - UPK 2015,10473.0,40.818497,-73.868058,9.0,18.0,20.0,2092649.0,2035510001.0,Soundview-Castle Hill-Clason Point-Harding Park                            
145,Bronx,Morissania Air Rights,3131 Park Avenue,NYCHA HOLD,NYCHA,Vacant,10451.0,40.824068,-73.917291,4.0,16.0,173.0,2100990.0,2024209078.0,East Concourse-Concourse Village                                           
146,Manhattan,Smith,60 Catherine Street,Occupied,"Hamilton-Madison House, Inc.",Child Care - Early Learn,10038.0,40.711566,-73.99684,3.0,1.0,25.0,1077421.0,1001110100.0,Chinatown                                                                  
147,Bronx,Parkside,644 Adee Avenue,Occupied,Presbyterian Senior Services,Senior Center,10467.0,40.86967,-73.869106,11.0,15.0,336.0,2101742.0,2045420100.0,Bronxdale                                                                  
148,Bronx,Throggs Neck Addition,550 Balcom Avenue,Occupied,Kips Bay Boys & Girls Club/Dept for the Aging,Community Center,10465.0,40.820911,-73.825943,10.0,13.0,144.0,2091470.0,2055640001.0,Schuylerville-Throgs Neck-Edgewater Park                                   
149,Bronx,Union Avenue,950 Union Avenue,Occupied,Presbyterian Senior Services,Senior Center,10459.0,40.822812,-73.901821,3.0,17.0,12901.0,2005015.0,2026780001.0,Longwood                                                                   
150,Bronx,Forest,955 Tinton Avenue,Occupied,Southeast Bronx Neighborhood Centers,Community Center,10456.0,40.823096,-73.902991,3.0,16.0,133.0,2091964.0,2026390001.0,Morrisania-Melrose                                                         
151,Brooklyn,Cooper Park,292 Frost Street,Occupied,"Sheltering Arms Chidren and Family Services, Inc.",Child Care - Early Learn,11222.0,40.718895,-73.939633,1.0,34.0,449.0,3327829.0,3028670001.0,East Williamsburg                                                          
152,Manhattan,Seward Park Extension,60 Essex Street,Occupied,"Grand Street Settlement, Inc.",Child Care - Early Learn,10002.0,40.717011,-73.988987,3.0,1.0,18.0,1083429.0,1003510001.0,Chinatown                                                                  
153,Manhattan,Rutgers,200 Madison Street,Occupied,YMCA of Greater New York ,Community Center,10002.0,40.712608,-73.990358,3.0,1.0,6.0,1077512.0,1002550001.0,Lower East Side                                                            
154,Manhattan,Gompers,80 Pitt Street,Occupied,"Grand Street Settlement, Inc.",Child Care ,10002.0,40.718328,-73.98245,3.0,2.0,2201.0,1084357.0,1003380001.0,Lower East Side                                                            
155,Manhattan,Polo Grounds Towers,2965 Eighth Avenue,Occupied,Church on the Hill,Senior Center,10039.0,40.830242,-73.9365,10.0,9.0,24302.0,1084520.0,1021060003.0,Central Harlem North-Polo Grounds                                          
156,Queens,FOREST HILLS COOP (108TH STREET-62ND DRIVE),110-01 62nd Drive,Occupied,"Queens Community House, Inc.",Child Care ,11375.0,40.736372,-73.848731,6.0,29.0,745.0,4000000.0,4021620176.0,Forest Hills                                                               
157,Queens,Pomonok,67-09 Kissena Blvd,Occupied,"Queens Community House, Inc.",Senior Center,11367.0,40.735033,-73.814726,8.0,24.0,122702.0,4455430.0,4067920030.0,Pomonok-Flushing Heights-Hillcrest                                         
158,Queens,FOREST HILLS COOP (108TH STREET-62ND DRIVE),108-25 62nd Drive,Occupied,"Queens Community House, Inc.",Community Center,11375.0,40.73591,-73.850212,6.0,29.0,745.0,4432108.0,4021590002.0,Forest Hills                                                               
159,Manhattan,Harlem River,207 West 151 Street,NYCHA HOLD,NYCHA,Vacant,10030.0,40.82554,-73.936544,10.0,9.0,236.0,1084155.0,1020370011.0,Central Harlem North-Polo Grounds                                          
160,Manhattan,Lavanburg,126-142 Baruch Place,Occupied,"Henry Street Settlement, Inc.",Other - Family / Urban Family Ctr,10002.0,40.7182,-73.976826,3.0,2.0,1002.0,1077594.0,1003250001.0,Lower East Side                                                            
161,Manhattan,Meltzer Towers,94 East 1st Street,Occupied,"University Settlement Society of New York, Inc.",Senior Center,10009.0,40.722827,-73.987402,3.0,2.0,3002.0,1005743.0,1004290021.0,East Village                                                               
162,Bronx,Patterson,308 East 145th Street,Occupied,East Side House Settlement,Senior Center,10451.0,40.815197,-73.922179,1.0,8.0,51.0,2091115.0,2023240001.0,Mott Haven-Port Morris                                                     
163,Brooklyn,Pennsylvania Avenue-Wortman Avenue,895 Pennsylvania Avenue,Occupied,CAMBA,Community Center,11207.0,40.655966,-73.888652,5.0,42.0,1104.0,3324011.0,3043690001.0,East New York                                                              
164,Bronx,Claremont Rehab,1105 Teller Avenue,NYCHA HOLD,NYCHA,Vacant,10456.0,40.829927,-73.913001,4.0,16.0,175.0,2002283.0,2024340080.0,East Concourse-Concourse Village                                           
165,Brooklyn,Coney Island I (Site 8),2950 W 35th Street,Occupied,Jewish Association Services For the Aged,NORC,11224.0,40.573838,-74.000493,13.0,47.0,342.0,3189511.0,3070460022.0,Seagate-Coney Island                                                       
166,Brooklyn,Kingsborough,133 Kingsborough 1st Walk,Occupied,"Bedford Stuyvesant Early Childhood Development Ctr., Inc.",Child Care ,11233.0,40.675367,-73.927198,8.0,41.0,307.0,3324601.0,3013440001.0,Crown Heights North                                                        
167,Brooklyn,Stuyvesant Gardens II,706 Quincy Street,Occupied,"New York Child Resource Center's, Inc.",Child Care ,11221.0,40.689085,-73.932109,3.0,36.0,293.0,3379547.0,3016310001.0,Stuyvesant Heights                                                         
168,Manhattan,Chelsea,420 West 26th Street,Occupied,I Have A Dream Foundation-NY,Other - Education / IHAD Literacy,10001.0,40.748985,-74.001361,4.0,3.0,93.0,1083580.0,1007230015.0,Hudson Yards-Chelsea-Flatiron-Union Square                                 
169,Brooklyn,Berry Street,71 South 10th Street,Vacant ,NYCHA,Vacant,11211.0,40.70822,-73.96607,1.0,33.0,547.0,3341979.0,3021450018.0,North Side-South Side                                                      
170,Manhattan,Smith,50 Madison Street,Occupied,"Hamilton-Madison House, Inc.",Child Care ,10038.0,40.711958,-73.997825,3.0,1.0,25.0,1077420.0,1001110100.0,Chinatown                                                                  
171,Brooklyn,Taylor Street-Wythe Avenue,80 Clymer Street,Occupied,El Puente De Williamsburg,Community Center,11211.0,40.705037,-73.965992,1.0,33.0,545.0,3251702.0,3021750030.0,Williamsburg                                                               
172,Bronx,Betances Site IV,528 East 146th Street,Occupied,"Sheltering Arms Chidren and Family Services, Inc.",Child Care - Early Learn,10455.0,40.812728,-73.915397,1.0,8.0,43.0,2093913.0,2022720038.0,Mott Haven-Port Morris                                                     
173,Queens,Carlton Manor,72-05 & 71-15 Beach Channel Drive,Occupied,"Bethel Mission Station Church, Inc.",Child Care ,11692.0,40.583775,-73.839659,14.0,32.0,93401.0,,,Breezy Point-Belle Harbor-Rockaway Park-Broad Channel                      
174,Bronx,Pelham Parkway,2425 Williamsbridge Road,Occupied,Bronx Jewish Community Council,NORC,10469.0,40.862002,-73.857686,11.0,13.0,324.0,2114842.0,2044440001.0,Bronxdale                                                                  
175,Manhattan,Wald,934 East Fourth Walk,Vacant ,NYCHA,Vacant,10009.0,40.720627,-73.97636,3.0,2.0,20.0,1078057.0,1003560001.0,Lower East Side                                                            
176,Staten Island,Berry Houses,211 Jefferson St.,Occupied,Research Foundation of the State University of New York,Other - ATTAIN LAB,10306.0,40.586661,-74.100928,2.0,50.0,11401.0,5109569.0,5035320500.0,Old Town-Dongan Hills-South Beach                                          
177,Brooklyn,Sumner,862 Park Avenue,Occupied,NYCHA,Senior Center,11206.0,40.698582,-73.940736,3.0,36.0,28502.0,3324728.0,3015800001.0,Stuyvesant Heights                                                         
178,Manhattan,Vladeck,334 Madison Street,Occupied,"Henry Street Settlement, Inc.",Senior Center,10002.0,40.713266,-73.983237,3.0,2.0,202.0,1077526.0,1002600001.0,Lower East Side                                                            
179,Brooklyn,Red Hook East,110 West 9th Street,Occupied,Good Shepherd Services,Community Center,11231.0,40.676024,-74.002318,6.0,38.0,85.0,3339411.0,3005380001.0,Carroll Gardens-Columbia Street-Red Hook                                   
180,Manhattan,Drew Hamilton,2672 Frederick Douglas Blvd.,Occupied,"Children's Aid Society, Inc.",Child Care - Early Learn,10030.0,40.820987,-73.943261,10.0,9.0,232.0,1060427.0,1020280001.0,Central Harlem North-Polo Grounds                                          
181,Staten Island,Todt Hill,255 Westwood Avenue,Occupied,Jewish Community Center of Staten Island,Community Center,10314.0,40.606563,-74.118774,2.0,49.0,173.0,5108965.0,5007060001.0,New Springville-Bloomfield-Travis                                          
182,Brooklyn,Ocean Hill,305 MacDougal Street,Vacant ,NYCHA,Vacant,11233.0,40.680579,-73.908412,16.0,37.0,369.0,3041566.0,3015280033.0,Ocean Hill                                                                 
183,Brooklyn,Gravesend,3146 Bayview Avenue,Vacant ,NYCHA,Vacant,11224.0,40.578512,-73.998034,13.0,47.0,330.0,3331093.0,3069640002.0,Seagate-Coney Island                                                       
184,Bronx,Pelham Parkway,785 Pelham Pkway N,Occupied,Mosholu Montefiore Community Center Inc.,Community Center,10467.0,40.857915,-73.864614,11.0,13.0,328.0,2093364.0,2043490001.0,Bronxdale                                                                  
185,Bronx,Marble Hill,5470 Broadway,Occupied,Marble Hill Nursery School,Child Care ,10463.0,40.876363,-73.907343,8.0,10.0,309.0,1082781.0,1022150116.0,Marble Hill-Inwood                                                         
186,Manhattan,131 Saint Nicholas Avenue,131 Saint Nicholas Avenue,NYCHA HOLD,NYCHA,Vacant,10026.0,40.803994,-73.952721,10.0,9.0,218.0,1058378.0,1019220041.0,Central Harlem South                                                       
187,Manhattan,DeHostos Apartments,696 Amsterdam Avenue,Occupied,"Stryker's Bay Neighborhood Council, Inc./The Dome Project",Community Center,10024.0,40.792623,-73.971422,7.0,6.0,179.0,1033648.0,1012410025.0,Upper West Side                                                            
188,Brooklyn,Van Dyke II,430 Dumont Avenue,Occupied,"Wayside Out-Reach Development Corporation, Inc.",Senior Center,11212.0,40.664982,-73.903308,16.0,41.0,910.0,3328126.0,3037940001.0,Brownsville                                                                
189,Bronx,Gun Hill,745 Magenta Street,Occupied,Mosholu Montefiore Community Center Inc.,Community Center,10467.0,40.874944,-73.86502,12.0,12.0,374.0,2093516.0,2046290050.0,Williamsbridge-Olinville                                                   
190,Manhattan,Johnson,1829 Lexington Avenue,Occupied,Union Settlement Association,Child Care - Early Learn,10029.0,40.796762,-73.942968,11.0,8.0,182.0,1087213.0,1016400021.0,East Harlem North                                                          
191,Brooklyn,Nostrand,3043 Avenue W,Occupied,Kings Bay YM-YWHA,Community Center,11229.0,40.596429,-73.936452,15.0,46.0,572.0,3320779.0,3073890001.0,Sheepshead Bay-Gerritsen Beach-Manhattan Beach                             
192,Manhattan,Amsterdam,243 West 64th Street,Occupied,"Lincoln Square Neighborhood Center, Inc.",Child Care - Early Learn,10023.0,40.774214,-73.986937,7.0,6.0,151.0,1030340.0,1011560020.0,Lincoln Square                                                             
193,Brooklyn,Kingsborough,342 Kingsborough 3rd Walk,NYCHA HOLD,NYCHA,Vacant- health clinic,11233.0,40.675303,-73.925818,8.0,41.0,307.0,3331198.0,3013440001.0,Crown Heights North                                                        
194,Manhattan,Harborview Terrace,530 West 55th Street,Occupied,"Find Aid for The Aged, Inc.",Senior Center,10019.0,40.768258,-73.990588,4.0,6.0,135.0,1027059.0,1010830015.0,Clinton                                                                    
195,Bronx,Boston Secor,3540 Bivona Street,Occupied,Mosholu Montefiore Community Center Inc.,Community Center,10475.0,40.883026,-73.833227,12.0,12.0,46202.0,2093879.0,2052630070.0,Co-op City                                                                 
196,Bronx,Butler,1458 Webster Avenue,Occupied,"South Bronx Head Start Program, Inc.",Child Care ,10456.0,40.837926,-73.906331,3.0,16.0,14702.0,2092076.0,2028950001.0,Claremont-Bathgate                                                         
197,Brooklyn,Gravesend,2757 W 33rd Street,Occupied,"Labor Industry for Education, Inc",Child Care - Early Learn,11224.0,40.578145,-74.00018,13.0,47.0,330.0,3331093.0,3069640002.0,Seagate-Coney Island                                                       
198,Brooklyn,Marlboro,2298 West 8th Street,Occupied,Jewish Community Council of Coney Island,Senior Center,11223.0,40.592081,-73.978468,13.0,47.0,382.0,3322179.0,3071400016.0,Gravesend                                                                  
199,Bronx,Castle Hill,625 Castle Hill Avenue,Occupied,Kips Bay Boys & Girls Club/Dept for the Aging,Senior Center,10473.0,40.819754,-73.848209,9.0,18.0,86.0,2092673.0,2035700001.0,Soundview-Castle Hill-Clason Point-Harding Park                            
200,Brooklyn,Cypress Hills,720 Euclid Avenue,Occupied,Colony South Brooklyn Houses,Child Care ,11208.0,40.669298,-73.870437,5.0,42.0,1210.0,3337053.0,3042920061.0,East New York                                                              
201,Manhattan,Wagner,435 East 120th Street,Occupied,SCAN Supportive Children's Advocacy Network,Community Center,10035.0,40.798041,-73.932186,11.0,8.0,192.0,1081287.0,1018080001.0,East Harlem North                                                          
202,Brooklyn,Cooper Park,76 Kingsland Avenue,Occupied,St. Nicks Alliance,Community Center,11211.0,40.718374,-73.940419,1.0,34.0,449.0,3332781.0,3028670001.0,East Williamsburg                                                          
203,Bronx,Adams,755 East 152nd Street,Vacant ,NYCHA,Vacant,10455.0,40.815818,-73.90699,1.0,17.0,79.0,2091979.0,2026540002.0,Melrose South-Mott Haven North                                             
204,Queens,Queensbridge North,10-25 41st Avenue,Occupied,"Jacob A. Riis Neighborhood Settlement, Inc.",Senior Center,11101.0,40.755488,-73.945328,1.0,26.0,25.0,4433386.0,4004700100.0,Queensbridge-Ravenswood-Long Island City                                   
205,Manhattan,Douglas I,865 Columbus Avenue ,Occupied,"Children's Aid Society, Inc.",Other - Office Space,10025.0,40.79693,-73.964551,7.0,7.0,189.0,1081300.0,1018360001.0,Upper West Side                                                            
206,Queens,Woodside,50-19 Broadway,Occupied,Goodwill Industries of Greater New York,Community Center,11377.0,40.754972,-73.910468,1.0,26.0,163.0,4431001.0,4007380050.0,Astoria                                                                    
207,Manhattan,Lehman Village,1589 Madison Avenue,Occupied,SCAN Supportive Children's Advocacy Network,Community Center,10029.0,40.794311,-73.948979,11.0,8.0,17401.0,1078857.0,1016130023.0,East Harlem South                                                          
208,Bronx,Sedgwick,1553 University Avenue,Occupied,Catholic Charities Community Services Archdiocese of NY,Community Center,10453.0,40.846111,-73.921662,5.0,16.0,20501.0,2092105.0,2028770001.0,University Heights-Morris Heights                                          
209,Manhattan,UPACA 6 (Site 6),1940 Lexington Avenue,Vacant ,NYCHA,Vacant,10035.0,40.80073,-73.940093,11.0,9.0,196.0,1054368.0,1017680012.0,East Harlem North                                                          
210,Bronx,Murphy,1811 Crotona Avenue,Occupied,East Tremont Child Care & Development Center,Child Care - Early Learn,10457.0,40.842893,-73.893457,6.0,15.0,36902.0,2092141.0,2029440001.0,East Tremont                                                               
211,Brooklyn,Roosevelt II,400 Hart Street,Occupied,Fort Greene Senior Citizens Council,Senior Center,11206.0,40.694725,-73.93519,3.0,36.0,287.0,3341752.0,3015950024.0,Stuyvesant Heights                                                         
212,Brooklyn,Roosevelt,388 Pulaski Street,Occupied,Cumberland Hospital ,Health Clinic,11206.0,40.694049,-73.934552,3.0,36.0,289.0,3324972.0,3015980001.0,Stuyvesant Heights                                                         
213,Manhattan,Johnson,173 East 112th Street,Vacant ,NYCHA,Vacant,10029.0,40.795653,-73.942449,11.0,8.0,182.0,1089897.0,1016400021.0,East Harlem North                                                          
214,Brooklyn,Van Dyke I,330 Powell Street,Occupied,"DB Grant Associates, Inc.",Other - Jobs Plus,11212.0,40.666184,-73.903097,16.0,41.0,910.0,3000000.0,3037770001.0,Brownsville                                                                
215,Bronx,Bailey Avenue-West 193rd Street,2660 Bailey Avenue,Occupied,"Regional Aid For Interim Needs, Inc.",Senior Center,10463.0,40.870747,-73.906859,7.0,14.0,269.0,2000000.0,2032390025.0,Kingsbridge Heights                                                        
216,Manhattan,Carver,55 East 102nd Street,Occupied,Institute for the Puerto Rican/Hispanic Elderly,Senior Center,10029.0,40.79084,-73.950853,11.0,8.0,168.0,1082659.0,1016080023.0,East Harlem South                                                          
217,Manhattan,Riis,80 Avenue D,Occupied,"Grand Street Settlement, Inc.",Community Center,10009.0,40.722565,-73.976832,3.0,2.0,24.0,1077552.0,1003620001.0,Lower East Side                                                            
218,Queens,Ocean Bay Apartments (Bayside),57-10 Beach Channel Dr,Occupied,"Action Center for Education and Community Development, Inc.",Community Center,11692.0,40.59476,-73.787436,14.0,31.0,97203.0,4436449.0,4160020001.0,Hammels-Arverne-Edgemere                                                   
219,Manhattan,Clinton,120 East 110th Street,Reserved - application on file,NYCHA,Child Care ,10029.0,40.795119,-73.945194,11.0,8.0,172.0,1078931.0,1016370001.0,East Harlem South                                                          
220,Brooklyn,Tilden,630 Mother Gaston Blvd.,Occupied,"Wayside Out-Reach Development Corporation, Inc.",Senior Center,11212.0,40.663471,-73.905278,16.0,41.0,912.0,3326549.0,3035760001.0,Brownsville                                                                
221,Manhattan,Chelsea Addition,441 West 26th Street,Occupied,Hudson Guild,Health Clinic,10001.0,40.749196,-74.001815,4.0,3.0,97.0,1012827.0,1007240010.0,Hudson Yards-Chelsea-Flatiron-Union Square                                 
222,Manhattan,Rangel,159-36 Harlem River Drive,Occupied,Catholic Charities Community Services Archdiocese of NY,Community Center,10039.0,40.833365,-73.935456,10.0,9.0,24302.0,1084184.0,1021060320.0,Central Harlem North-Polo Grounds                                          
223,Bronx,College Ave (1020),1020 College Avenue,Vacant ,NYCHA,Vacant,10456.0,40.82904,-73.915532,4.0,16.0,175.0,2002209.0,2024330001.0,East Concourse-Concourse Village                                           
224,Manhattan,Isaacs,415 East 93rd Street,Occupied,Stanley M. Isaacs Neighborhood Center,Senior Center,10128.0,40.780904,-73.945112,8.0,5.0,152.0,1082367.0,1015730001.0,Yorkville                                                                  
225,Bronx,Pelham Parkway,2222 Wallace Avenue,Occupied,"Bronx House, Inc.",Child Care ,10467.0,40.858343,-73.864649,11.0,13.0,328.0,2093364.0,2043490001.0,Bronxdale                                                                  
226,Queens,Astoria,4-25 Astoria Blvd,Occupied,Urban Upbound,Other - Jobs Plus,11102.0,40.772889,-73.93328,1.0,22.0,87.0,4430788.0,4004900101.0,Old Astoria                                                                
227,Queens,Woodside,50-37 Newtown Road,Occupied,Samaritan Village,Senior Center,11377.0,40.753724,-73.911047,1.0,26.0,163.0,4430993.0,4007360002.0,Astoria                                                                    
228,Manhattan,Harlem River,2627 7th Avenue,Occupied,YMCA of Greater New York ,Community Center,10039.0,40.825565,-73.936197,10.0,9.0,236.0,1060197.0,1020160060.0,Central Harlem North-Polo Grounds                                          
229,Manhattan,Lincoln,60 East 135th Street,Occupied,NYCHA,Senior Center,10037.0,40.81161,-73.934935,11.0,9.0,210.0,1081120.0,1017570020.0,East Harlem North                                                          
230,Manhattan,Vladeck,351 Madison Street ,Occupied,"Henry Street Settlement, Inc.",NORC,10002.0,40.71334,-73.982772,3.0,2.0,202.0,1083404.0,1002670024.0,Lower East Side                                                            
231,Staten Island,South Beach,155 Norway Avenue,Occupied,United Activities Unlimited Inc,Community Center,10305.0,40.594347,-74.079224,2.0,50.0,64.0,5109514.0,5032430100.0,Grasmere-Arrochar-Ft. Wadsworth                                            
232,Brooklyn,Van Dyke I ,392 Blake Avenue,Occupied,Medgar Evers,Community Center,11212.0,40.66635,-73.904776,16.0,41.0,910.0,3394294.0,3037770001.0,Brownsville                                                                
233,Brooklyn,Cypress Hills,475 Fountain Avenue,Occupied,"Directions For Our Youth, Inc.",Community Center,11208.0,40.668288,-73.873005,5.0,42.0,1210.0,3337041.0,3042920061.0,East New York                                                              
234,Bronx,Gun Hill,3440 White Plains Road,Occupied,Northeast Bronx Day Care Center,Child Care - Early Learn,10467.0,40.876472,-73.866945,12.0,12.0,374.0,2093518.0,2046290050.0,Williamsbridge-Olinville                                                   
235,Queens,Ocean Bay Apts/Oceanside,339 Beach 54th Street,NYCHA HOLD,NYCHA,Vacant,11692.0,40.593555,-73.784408,14.0,31.0,97204.0,4436420.0,4158920001.0,Hammels-Arverne-Edgemere                                                   
236,Bronx,Soundview,1674 Seward Avenue,Occupied,NYCHA,Senior Center,10473.0,40.818255,-73.869832,9.0,18.0,20.0,2092638.0,2035510001.0,Soundview-Castle Hill-Clason Point-Harding Park                            
237,Brooklyn,Lafayette Gardens,434 DeKalb Avenue,Occupied,Cumberland Hospital ,Health Clinic,11205.0,40.690361,-73.960108,3.0,35.0,233.0,3321871.0,3019380001.0,Bedford                                                                    
238,Manhattan,Lincoln,2112 Madison Avenue,Occupied,"East Harlem Block Nursery, Inc.",Child Care ,10037.0,40.810664,-73.937064,11.0,9.0,210.0,1081115.0,1017570001.0,East Harlem North                                                          
239,Bronx,East 180th Street-Monterey Avenue,2120 Quarry Road,Occupied,NYC Department of Education,Child Care ,10457.0,40.851045,-73.893292,6.0,15.0,37504.0,2011852.0,2030620006.0,East Tremont                                                               
240,Brooklyn,Williams Plaza,323 Roebling Street,Occupied,El Puente De Williamsburg,Community Center,11211.0,40.708266,-73.960991,1.0,33.0,525.0,3341975.0,3021400026.0,North Side-South Side                                                      
241,Manhattan,Seward Park Extension,56 Essex Street,Occupied,"Grand Street Settlement, Inc.",Community Center,10002.0,40.716838,-73.989077,3.0,1.0,18.0,1083429.0,1003510001.0,Chinatown                                                                  
242,Brooklyn,Glenwood,5816 Farragut Road,Occupied,Sesame Flyers International Inc.,Community Center,11234.0,40.636749,-73.920568,18.0,45.0,94402.0,3331003.0,3079780001.0,Flatlands                                                                  
243,Bronx,Webster,421 East 168th Street,Vacant ,NYCHA,Vacant,10456.0,40.832005,-73.908709,3.0,16.0,145.0,2091186.0,2023950001.0,Claremont-Bathgate                                                         
244,Bronx,Millbrook,201 St. Anns Avenue,Occupied,East Side House Settlement,Other - Jobs Plus,10454.0,40.805742,-73.918238,1.0,8.0,25.0,2090986.0,2022630019.0,Mott Haven-Port Morris                                                     
245,Brooklyn,Breukelen,715 East 105th Street,Occupied,"Police Athletic League, Inc.",Community Center,11236.0,40.648732,-73.896005,18.0,42.0,982.0,3321523.0,3081930001.0,Canarsie                                                                   
246,Manhattan,Fort Washington Avenue Rehab,99 Ft Washington Avenue,Occupied,"Riverstone Senior Life Services, Inc.",Senior Center,10032.0,40.83851,-73.943738,12.0,7.0,247.0,1063346.0,1021360235.0,Washington Heights South                                                   
247,Manhattan,Riis,152-154 Avenue D,NYCHA HOLD,NYCHA,Vacant,10009.0,40.725076,-73.975009,3.0,2.0,24.0,1077543.0,1003670001.0,Lower East Side                                                            
248,Bronx,Moore,515 Jackson Avenue,Occupied,"Bronxworks, Inc.",Senior Center,10455.0,40.812353,-73.909401,1.0,8.0,35.0,2091284.0,2025570083.0,Mott Haven-Port Morris                                                     
249,Bronx,Mitchel,188 Lincoln Avenue,Occupied,East Side House Settlement,Senior Center,10454.0,40.809874,-73.927933,1.0,8.0,23.0,2091142.0,2023110001.0,Mott Haven-Port Morris                                                     
250,Brooklyn,Brevoort,280 Ralph Avenue,Occupied,"Ridgewood-Bushwick Sr Citizens Council, Inc.",Senior Center,11233.0,40.679794,-73.922153,3.0,41.0,381.0,3325173.0,3016880001.0,Crown Heights North                                                        
251,Queens,Beach 41st ,426 Beach 40th Street,Occupied,Child Center of New York,Community Center,11691.0,40.596249,-73.772408,14.0,31.0,97203.0,4302129.0,4159550003.0,Hammels-Arverne-Edgemere                                                   
252,Manhattan,Riis,108 Avenue D,Occupied,Chinese-American Planning Council,Child Care ,10009.0,40.723492,-73.976164,3.0,2.0,24.0,1077507.0,1003620001.0,Lower East Side                                                            
253,Brooklyn,Whitman,285 Myrtle Avenue,Occupied,Brooklyn Bureau of Comm. Service,Other - Office Space,11205.0,40.693423,-73.977206,2.0,35.0,2901.0,3345021.0,3020400001.0,Fort Greene                                                                
254,Bronx,Davidson,1221 Prospect Avenue,Occupied,Graham Windham Services to Families & Children,Community Center,10459.0,40.827264,-73.898476,3.0,17.0,131.0,2005038.0,2026800019.0,Longwood                                                                   
255,Manhattan,Baruch,110-120 Baruch Drive,Occupied,"Henry Street Settlement, Inc.",Child Care - Early Learn,10002.0,40.718774,-73.977424,3.0,2.0,1002.0,1078034.0,1003230001.0,Lower East Side                                                            
256,Queens,Conlon-Lihfe Towers,92-33 170th Street,Occupied,Jamaica Service Program for Older Adults (JSPOA),Senior Center,11433.0,40.706193,-73.789136,12.0,27.0,444.0,4457492.0,4102120033.0,Jamaica                                                                    
257,Brooklyn,Wyckoff Gardens,272 Wyckoff Street,Occupied,Colony South Brooklyn Houses,Community Center,11217.0,40.68342,-73.984081,6.0,33.0,127.0,3336056.0,3003940001.0,DUMBO-Vinegar Hill-Downtown Brooklyn-Boerum Hill                           
258,Manhattan,Public School 39 (Conversion),120 West 140th Street,Occupied,"ARC XVI Ft. Washington, Inc.",Senior Center,10030.0,40.817579,-73.939272,10.0,9.0,230.0,1060054.0,1020080013.0,Central Harlem North-Polo Grounds                                          
259,Queens,Bland,133-16 Roosevelt Avenue,Occupied,"League For Better Community Life, Inc.",Child Care - Early Learn,11354.0,40.758288,-73.833832,7.0,20.0,871.0,4443446.0,4050370008.0,Flushing                                                                   
260,Manhattan,Smith,60 Madison Street,Occupied,Gouvenier Hospital ,Health Clinic,10038.0,40.712019,-73.997309,3.0,1.0,25.0,1077421.0,1001110100.0,Chinatown                                                                  
261,Brooklyn,Lafayette Gardens,470 Dekalb Avenue,NYCHA HOLD,NYCHA,Vacant,11205.0,40.690588,-73.958131,3.0,35.0,233.0,3346319.0,3019380001.0,Bedford                                                                    
262,Queens,Queensbridge North,10-25 41st Avenue,Occupied,"Jacob A. Riis Neighborhood Settlement, Inc.",Community Center,11101.0,40.755488,-73.945328,1.0,26.0,25.0,4433386.0,4004700100.0,Queensbridge-Ravenswood-Long Island City                                   
263,Brooklyn,Marcy,582 Park Avenue,NYCHA HOLD,NYCHA,Vacant,11206.0,40.697302,-73.951996,3.0,36.0,255.0,3324244.0,3017380001.0,Bedford                                                                    
264,Bronx,Castle Hill,2165 Randall Avenue,Occupied,Leake & Watts Children's Services Inc.,Child Care ,10473.0,40.818918,-73.848836,9.0,18.0,86.0,2092673.0,2035700001.0,Soundview-Castle Hill-Clason Point-Harding Park                            
265,Queens,Beach 41st ,426 Beach 40th Street,Occupied,Research Foundation of the State University of New York,Other - ATTAIN LAB,11691.0,40.596249,-73.772408,14.0,31.0,97203.0,4302129.0,4159550003.0,Hammels-Arverne-Edgemere                                                   
266,Brooklyn,Weeksville,1640 Pacific Street,Occupied,"Brooklyn Kindergarten Society, Inc. & DDC",Child Care - UPK 2015,11213.0,40.676818,-73.934627,8.0,36.0,309.0,3341633.0,3013410012.0,Crown Heights North                                                        
267,Brooklyn,Armstrong,360 Nostrand Avenue,Occupied,Provider Name Unknown,Senior Center,11216.0,40.687303,-73.950965,3.0,36.0,243.0,3350437.0,3018020051.0,Bedford                                                                    
268,Brooklyn,Breukelen,715 East 105th Street,Occupied,Recreation Rooms & Settlement,Child Care - Early Learn,11236.0,40.648732,-73.896005,18.0,42.0,982.0,3321523.0,3081930001.0,Canarsie                                                                   
269,Bronx,(Murphy Consolidated) 1010 East 178th Street ,1030 East 178th Street,Occupied,Phipps Community Development,Other - Education / GED,10460.0,40.841154,-73.879864,6.0,15.0,361.0,2013245.0,2031300100.0,East Tremont                                                               
270,Bronx,McKinley,751 East 161st Street,Occupied,Southeast Bronx Neighborhood Centers,Community Center,10456.0,40.821363,-73.904836,3.0,16.0,133.0,2091958.0,2026380090.0,Morrisania-Melrose                                                         
271,Bronx,Gun Hill,744 Gunhill Road,Vacant ,NYCHA,Vacant,10467.0,40.876876,-73.864868,12.0,12.0,374.0,2093515.0,2046290050.0,Williamsbridge-Olinville                                                   
272,Bronx,Melrose,286 East 156th Street,Occupied,"Bronxworks, Inc.",Community Center,10451.0,40.822022,-73.920289,1.0,17.0,67.0,2120133.0,2024130001.0,Melrose South-Mott Haven North                                             
273,Brooklyn,Brownsville,528 Mother Gaston Blvd.,Occupied,NYCHA,Senior Center,11212.0,40.665956,-73.905923,16.0,41.0,912.0,3325326.0,3035610001.0,Brownsville                                                                
274,Queens,International Towers,90-20 170th Street,Occupied,Jamaica Service Program for Older Adults (JSPOA),Senior Center,11432.0,40.708578,-73.790579,12.0,27.0,460.0,4209721.0,4098020041.0,Jamaica                                                                    
275,Brooklyn,Brevoort,258 Ralph Avenue,NYCHA HOLD,NYCHA,Vacant- health clinic,11233.0,40.68071,-73.922336,3.0,41.0,381.0,3325169.0,3016880001.0,Crown Heights North                                                        
276,Brooklyn,Low Houses,137 Belmont Avenue,Occupied,Fort Greene Senior Citizens Council,Senior Center,11212.0,40.669205,-73.905172,16.0,41.0,908.0,3327015.0,3037270001.0,Brownsville                                                                
277,Manhattan,Grant,1299 Amsterdam Avenue,Occupied,"East Harlem Block Nursery, Inc.",Child Care - Early Learn,10027.0,40.811919,-73.957318,9.0,7.0,20901.0,1084095.0,1019640001.0,Morningside Heights                                                        
278,Brooklyn,Armstrong,262 Lexington Avenue,Occupied,"Bedford Stuyvesant Early Childhood Development Ctr., Inc.",Child Care ,11216.0,40.687597,-73.951574,3.0,36.0,243.0,3050588.0,3018020051.0,Bedford                                                                    
279,Manhattan,Holmes Towers,1794 First Avenue,Occupied,SCAN Supportive Children's Advocacy Network,Child Care - Early Learn,10128.0,40.781201,-73.946206,8.0,5.0,152.0,1076333.0,1015730020.0,Yorkville                                                                  
280,Manhattan,Vladeck,367 Madison Street,Occupied,"Henry Street Settlement, Inc.",Other - Family/Youth Program,10002.0,40.713395,-73.982282,3.0,2.0,202.0,1083405.0,1002670024.0,Lower East Side                                                            
281,Manhattan,Smith,50 Madison Street,Occupied,"Hamilton-Madison House, Inc.",NORC,10038.0,40.711958,-73.997825,3.0,1.0,25.0,1077420.0,1001110100.0,Chinatown                                                                  
282,Manhattan,Dyckman,3754 Tenth Avenue,Occupied,New York Foundation For Senior Citizens,Senior Center,10034.0,40.860844,-73.921587,12.0,10.0,299.0,1080032.0,1022160001.0,Marble Hill-Inwood                                                         
283,Manhattan,East River,400 -402 East 105th Street,Occupied,Union Settlement Association,Other - Social Adult Day Care,10029.0,40.788908,-73.940486,11.0,8.0,162.0,1083941.0,1016960001.0,East Harlem South                                                          
284,Manhattan,King Towers,1 West 112th Street,Occupied,"East Calvary Day Care Center, Inc.",Child Care - Early Learn,10026.0,40.798159,-73.948363,10.0,9.0,186.0,1083309.0,1015960001.0,Central Harlem South                                                       
285,Bronx,Jackson,325 East 156th Street,Occupied,Presbyterian Senior Services,Senior Center,10451.0,40.821439,-73.917995,1.0,17.0,69.0,2091224.0,2024160001.0,Melrose South-Mott Haven North                                             
286,Brooklyn,Wyckoff Gardens,280 Wyckoff Street,Occupied,Spanish Speaking Elderly Council - RAICES,Senior Center,11217.0,40.683365,-73.983941,6.0,33.0,127.0,3336056.0,3003940001.0,DUMBO-Vinegar Hill-Downtown Brooklyn-Boerum Hill                           
287,Bronx,Monroe,816 Soundview Avenue,NYCHA HOLD + being looked at,NYCHA,Vacant- health clinic,10473.0,40.821583,-73.866325,9.0,18.0,42.0,2092750.0,2036370001.0,Soundview-Castle Hill-Clason Point-Harding Park                            
288,Manhattan,Tafts Rehab,146 St. Nicholas Avenue,Occupied,"Citizen's Care Committee, Inc",Other - Office Space,10026.0,40.804493,-73.952728,10.0,9.0,218.0,1084043.0,1019230029.0,Central Harlem South                                                       
289,Bronx,Bronx River,1619 East 174th Street,Occupied,Institute for the Puerto Rican/Hispanic Elderly,Senior Center,10472.0,40.83395,-73.876147,9.0,18.0,62.0,2092909.0,2038860002.0,West Farms-Bronx River                                                     
290,Staten Island,Todt Hill,184 Schmidts Lane,Occupied,"Staten Island Comm Servs Friendship Club, Inc.",Senior Center,10314.0,40.609058,-74.119053,2.0,49.0,173.0,5108960.0,5007060001.0,New Springville-Bloomfield-Travis                                          
291,Queens,Ravenswood,21-20 35th Avenue,Occupied,"Catholic Charities Neighborhood Services, Inc.",Child Care ,11106.0,40.761162,-73.934992,1.0,26.0,47.0,4430708.0,4003350002.0,Astoria                                                                    
292,Manhattan,Rangel,159-62 Harlem River Drive,Vacant ,NYCHA,Vacant,10039.0,40.833993,-73.935473,10.0,9.0,24302.0,1084186.0,1021060320.0,Central Harlem North-Polo Grounds                                          
293,Manhattan,Rangel,159-36 Harlem River Drive,Occupied,Church on the Hill,Senior Center,10039.0,40.833365,-73.935456,10.0,9.0,24302.0,1084184.0,1021060320.0,Central Harlem North-Polo Grounds                                          
294,Bronx,Sack-Wern,710 Noble Avenue,Occupied,Goodwill Industries of Greater New York,Unknown,10473.0,40.818861,-73.867208,9.0,18.0,20.0,2021985.0,2035940001.0,Soundview-Castle Hill-Clason Point-Harding Park                            
295,Manhattan,Drew Hamilton,220 West 143rd Street,Occupied,Research Foundation of the State University of New York,Other - ATTAIN LAB,10030.0,40.8208,-73.94113,10.0,9.0,232.0,1086084.0,1020280016.0,Central Harlem North-Polo Grounds                                          
296,Brooklyn,Haber,3024 West 24th Street,Occupied,Jewish Community Council of Coney Island,Senior Center,11224.0,40.573171,-73.990645,13.0,47.0,352.0,3322050.0,3070700001.0,Seagate-Coney Island                                                       
297,Manhattan,Jefferson,2095 Third Avenue ,Occupied,Union Settlement Association,Health Clinic (mental),10029.0,40.796967,-73.940721,11.0,8.0,180.0,1080705.0,1016620001.0,East Harlem North                                                          
298,Manhattan,Wagner,451 East 120th Street,NYCHA HOLD,NYCHA,Vacant,10035.0,40.797802,-73.931619,11.0,8.0,192.0,1081290.0,1018080001.0,East Harlem North                                                          
299,Bronx,Butler,1320 Webster Avenue,Occupied,"William Hodson Senior Center, Inc.",Senior Center,10456.0,40.834189,-73.90854,3.0,16.0,14701.0,2092074.0,2028940001.0,Claremont-Bathgate                                                         
300,Bronx,Mitchel,200 Alexander Avenue,Occupied,East Side House Settlement,Child Care - Early Learn,10454.0,40.808753,-73.926081,1.0,8.0,23.0,2091097.0,2022980040.0,Mott Haven-Port Morris                                                     
301,Brooklyn,Farragut,228 York Street,Occupied,Goodwill Industries of Greater New York,Community Center,11201.0,40.701304,-73.981762,2.0,35.0,23.0,3325909.0,3000710001.0,DUMBO-Vinegar Hill-Downtown Brooklyn-Boerum Hill                           
302,Manhattan,Wagner,435 East 120th Street,Occupied,NYCHA,Senior Center,10035.0,40.798041,-73.932186,11.0,8.0,192.0,1081287.0,1018080001.0,East Harlem North                                                          
303,Manhattan,Douglas I,885 Columbus Avenue,Occupied,"Children's Aid Society, Inc.",Community Center,10025.0,40.797762,-73.963944,7.0,7.0,189.0,1081301.0,1018360001.0,Upper West Side                                                            
304,Manhattan,Carver,1565 Madison Avenue,Occupied,Union Settlement Association,Child Care - Early Learn,10029.0,40.793315,-73.94971,11.0,8.0,168.0,1078840.0,1016100023.0,East Harlem South                                                          
305,Queens,Latimer Gardens,34-30 137th Street,Occupied,Child Center of New York,Community Center,11354.0,40.766044,-73.829935,7.0,20.0,88901.0,4443410.0,4049510008.0,Flushing                                                                   
306,Manhattan,Johnson,1833 Lexington Avenue,Occupied,SCAN Supportive Children's Advocacy Network,Community Center,10029.0,40.796894,-73.942874,11.0,8.0,182.0,1082335.0,1016400021.0,East Harlem North                                                          
307,Queens,Hammel,82-10 Rockaway Beach Boulevard,Occupied,"Atled, Inc.",Child Care ,11693.0,40.587883,-73.808542,14.0,31.0,94202.0,4436316.0,4161140002.0,Hammels-Arverne-Edgemere                                                   
308,Brooklyn,Bushwick II,422 Central Avenue,Occupied,Coalition for Hispanic Family Services,Community Center,11221.0,40.693173,-73.916541,4.0,34.0,417.0,3076595.0,3033500028.0,Bushwick South                                                             
309,Brooklyn,Williamsburg,222 Graham Avenue,Occupied,Colony South Brooklyn Houses,Child Care ,11206.0,40.709622,-73.943569,1.0,34.0,493.0,3344971.0,3030260001.0,Bushwick South                                                             
310,Queens,Queensbridge North,10-29 41st Avenue,Occupied,Floating Hospital,Health Clinic,11101.0,40.75545,-73.945248,1.0,26.0,25.0,4595582.0,4004700100.0,Queensbridge-Ravenswood-Long Island City                                   
311,Bronx,Bryant Ave - East 174th St,1705 Bryant Avenue,Vacant ,NYCHA,Vacant,10460.0,40.835634,-73.885627,3.0,17.0,161.0,2092192.0,2029970030.0,Crotona Park East                                                          
312,Manhattan,Wise Towers/WSURA,589 Amsterdam Avenue,Occupied,Goddard Riverside Outreach,Other - Case Management / Homeless Outreach ,10024.0,40.789261,-73.973851,7.0,6.0,173.0,1032284.0,1012190001.0,Upper West Side                                                            
313,Bronx,Mott Haven,375 East 143rd Street,Occupied,East Side House Settlement,Child Care - Early Learn,10454.0,40.812702,-73.921622,1.0,8.0,41.0,2091101.0,2023060009.0,Mott Haven-Port Morris                                                     
314,Brooklyn,Williamsburg,178 Leonard Street,Occupied,Bushwick United Housing Development Fund,Child Care - Early Learn,11206.0,40.710036,-73.946992,1.0,34.0,505.0,3327883.0,3030240001.0,East Williamsburg                                                          
315,Brooklyn,Bayview,5955 Shore Parkway,Occupied,Millennium Development Corp.,Community Center,11236.0,40.631986,-73.884617,18.0,46.0,1034.0,3391490.0,3083290225.0,Canarsie                                                                   
316,Bronx,Patterson,414 Morris Avenue,Occupied,East Side House Settlement,Child Care - Early Learn,10454.0,40.815528,-73.923923,1.0,8.0,51.0,2097853.0,2023240001.0,Mott Haven-Port Morris                                                     
317,Manhattan,Smith,50 Madison Street,Occupied,"Hamilton-Madison House, Inc.",Community Center,10038.0,40.711958,-73.997825,3.0,1.0,25.0,1077420.0,1001110100.0,Chinatown                                                                  
318,Brooklyn,Saratoga Village,940 Hancock Street,Occupied,Coalition for Hispanic Family Services,Community Center,11233.0,40.686249,-73.917678,16.0,41.0,373.0,3039983.0,3014920001.0,Ocean Hill                                                                 
319,Brooklyn,Bayview,5985 Shore Parkway,NYCHA HOLD,NYCHA,Vacant,11236.0,40.632639,-73.883788,18.0,46.0,1034.0,3331443.0,3083290225.0,Canarsie                                                                   
320,Manhattan,Lincoln,2110 Madison Avenue,Occupied,"Harlem Children's Zone, Inc.",Community Center,10037.0,40.810563,-73.937136,11.0,9.0,210.0,1081115.0,1017570001.0,East Harlem North                                                          
321,Brooklyn,Reid Apartments,720 E New York Avenue,Occupied,Fort Greene Senior Citizens Council,Senior Center,11203.0,40.662289,-73.938916,9.0,41.0,87401.0,3106612.0,3047950016.0,Prospect Lefferts Gardens-Wingate                                          
322,Brooklyn,Gowanus,420 Baltic Street,Occupied,Spanish Speaking Elderly Council - RAICES,Senior Center,11217.0,40.683646,-73.988783,6.0,33.0,71.0,3336072.0,3004040001.0,DUMBO-Vinegar Hill-Downtown Brooklyn-Boerum Hill                           
323,Manhattan,Two Bridges,286 South Street,Occupied,YMCA of Greater New York ,Community Center,10002.0,40.710478,-73.986571,3.0,1.0,201.0,1003142.0,1002450001.0,Lower East Side                                                            
324,Brooklyn,Roosevelt I,360 Pulaski Street,Occupied,Mary McLeod Bethune Day Care Center,Child Care ,11206.0,40.693836,-73.936392,3.0,36.0,289.0,3324973.0,3015980001.0,Stuyvesant Heights                                                         
325,Manhattan,Grant,1301 Amsterdam Avenue,Occupied,"Charles A. Walburg Multi-Service, Inc.",Senior Center,10027.0,40.811994,-73.957264,9.0,7.0,20901.0,1084095.0,1019640001.0,Morningside Heights                                                        
326,Staten Island,Stapleton,230 Broad St.,Occupied,Jewish Community Center of Staten Island,Community Center,10304.0,40.623756,-74.082216,1.0,49.0,29.0,5154565.0,5005450100.0,Stapleton-Rosebank                                                         
327,Brooklyn,Low Houses,232 Powell Street,Occupied,"Brooklyn Kindergarten Society, Inc.",Child Care - Early Learn,11212.0,40.668946,-73.903789,16.0,41.0,908.0,3084013.0,3037450001.0,Brownsville                                                                
328,Brooklyn,Stuyvesant Gardens I,214 Stuyvesant Avenue,Occupied,"Bedford Stuyvesant Early Childhood Development Ctr., Inc.",Child Care ,11221.0,40.687985,-73.933065,3.0,36.0,293.0,3044631.0,3016350041.0,Stuyvesant Heights                                                         
329,Brooklyn,Unity Plaza (sites 4-27),576 Blake Avenue,Occupied,Research Foundation of CUNY,Community Center,11207.0,40.66739,-73.897782,5.0,42.0,1134.0,3336125.0,3037850015.0,East New York (Pennsylvania Ave)                                           
330,Manhattan,Samuel (City),669 Lenox Avenue,Occupied,"Sheltering Arms Chidren and Family Services, Inc.",Child Care - Early Learn,10030.0,40.81939,-73.937012,10.0,9.0,232.0,1085366.0,1020120025.0,Central Harlem North-Polo Grounds                                          
331,Manhattan,King Towers,50 Lenox Avenue,Occupied,Presbyterian Senior Services,Senior Center,10026.0,40.799593,-73.951421,10.0,9.0,186.0,1083312.0,1015960001.0,Central Harlem South                                                       
332,Manhattan,White,237 East 104th Street,Occupied,Union Settlement Association,Child Care - Early Learn,10029.0,40.789687,-73.944267,11.0,8.0,170.0,1080671.0,1016540011.0,East Harlem South                                                          
333,Queens,Ravenswood,14-01 36 Avenue,Occupied,I Have A Dream Foundation-NY,Other - Education / IHAD Literacy,11106.0,40.760205,-73.937473,1.0,26.0,43.0,4430696.0,4003320002.0,Queensbridge-Ravenswood-Long Island City                                   
334,Bronx,Pelham Parkway,2280 Wallace Avenue,Occupied,"New York State Association for Retarted Children, Inc.",Child Care ,10469.0,40.85929,-73.864629,11.0,13.0,328.0,2093356.0,2043490001.0,Bronxdale                                                                  
335,Manhattan,Elliott,447 West 25th Street,NYCHA HOLD,NYCHA,Vacant,10001.0,40.748579,-74.002277,4.0,3.0,93.0,1083579.0,1007230001.0,Hudson Yards-Chelsea-Flatiron-Union Square                                 
336,Manhattan,White,2029 2nd Avenue,Occupied,Union Settlement Association,Senior Center,10029.0,40.789473,-73.943288,11.0,8.0,170.0,1080669.0,1016540011.0,East Harlem South                                                          
337,Bronx,Highbridge Rehab,125 West 166th Street,Reserved - application on file,NYCHA,Religious Services,10452.0,40.835377,-73.927103,4.0,16.0,199.0,2003279.0,2025140077.0,Highbridge                                                                 
338,Brooklyn,Bushwick,50 Humboldt Street,Occupied,"Grand Street Settlement, Inc.",Community Center,11206.0,40.703179,-73.940761,1.0,34.0,489.0,3338434.0,3031290001.0,Bushwick South                                                             
339,Brooklyn,Coney Island I (Sites 4 & 5),2947 West 28th Street,Vacant ,NYCHA,Vacant,11224.0,40.574453,-73.994089,13.0,47.0,342.0,3385303.0,3070530014.0,Seagate-Coney Island                                                       
340,Manhattan,Smith,10 Catherine Slip,Occupied,"Hamilton-Madison House, Inc.",Other - Training Center,10038.0,40.709867,-73.996425,3.0,1.0,25.0,1077411.0,1001110100.0,Chinatown                                                                  
341,Manhattan,Dyckman,175 Nagle Avenue,Occupied,Renaissance Health Care Network ,Health Clinic,10034.0,40.86164,-73.92459,12.0,10.0,299.0,1080027.0,1022160001.0,Marble Hill-Inwood                                                         
342,Brooklyn,Farragut,32 Navy Street,NYCHA HOLD,NYCHA,Vacant,11201.0,40.699325,-73.980493,2.0,35.0,23.0,3325919.0,3000900001.0,DUMBO-Vinegar Hill-Downtown Brooklyn-Boerum Hill                           
343,Manhattan,Rangel,159-44 Harlem River Drive,Occupied,"Prince Hall Service Fund, Inc.",Child Care ,10039.0,40.833741,-73.93547,10.0,9.0,24302.0,1084184.0,1021060320.0,Central Harlem North-Polo Grounds                                          
344,Staten Island,New Lane,70 New Lane,Occupied,"Community Agency for Senior Citizens, Inc.",Senior Center,10305.0,40.612811,-74.062256,1.0,49.0,6.0,5042254.0,5028320068.0,Stapleton-Rosebank                                                         
345,Bronx,Baychester,1220 East 229th Street,Occupied,Baychester Youth Council,Community Center,10466.0,40.884011,-73.842204,12.0,12.0,460.0,2093741.0,2049050360.0,Eastchester-Edenwald-Baychester                                            
346,Brooklyn,Brevoort,280 Ralph Avenue,Occupied,CAMBA,Community Center,11233.0,40.679794,-73.922153,3.0,41.0,381.0,3325173.0,3016880001.0,Crown Heights North                                                        
347,Manhattan,Riis,464 East 10th Street,Occupied,"Sheltering Arms Chidren and Family Services, Inc.",Child Care - Early Learn,10009.0,40.724601,-73.97454,3.0,2.0,24.0,1077538.0,1003620010.0,Lower East Side                                                            
348,Bronx,Betances Site IV,490 East 143rd Street,Occupied,"South Bronx Head Start Program, Inc.",Child Care - Early Learn,10454.0,40.811121,-73.917603,1.0,8.0,41.0,2000433.0,2022870135.0,Mott Haven-Port Morris                                                     
349,Brooklyn,Albany,164 Troy Avenue,Occupied,SCO Family of Services,Community Center,11213.0,40.673838,-73.936245,8.0,36.0,343.0,3324617.0,3013520080.0,Crown Heights North                                                        
350,Manhattan,Manhattanville,530 West 133rd Street,Occupied,NYCHA,Senior Center,10027.0,40.818127,-73.954478,9.0,7.0,219.0,1084130.0,1019840001.0,Manhattanville                                                             
351,Brooklyn,Armstrong,264 Lexington Avenue,Reserved - application on file,NYCHA,Child Care ,11216.0,40.687608,-73.951459,3.0,36.0,243.0,3050588.0,3018020051.0,Bedford                                                                    
352,Manhattan,Wald,34 Avenue D,Occupied,"Educational Alliance, Inc.",Child Care - Early Learn,10009.0,40.721351,-73.977723,3.0,2.0,20.0,1078048.0,1003560001.0,Lower East Side                                                            
353,Brooklyn,Pink,2702 Linden Boulevard,Occupied,Italian American Civil Rights League,Community Center,11208.0,40.669208,-73.864514,5.0,42.0,1214.0,3326995.0,3044880001.0,East New York                                                              
354,Bronx,Mitchel,210 Alexander Avenue,Occupied,East Side House Settlement,Community Center,10454.0,40.809172,-73.925777,1.0,8.0,23.0,2091097.0,2022980040.0,Mott Haven-Port Morris                                                     
355,Bronx,Bronx River,1619 East 174th Street,Occupied,"Children's Arts and Science Workshop, Inc.",Community Center,10472.0,40.83395,-73.876147,9.0,18.0,62.0,2092909.0,2038860002.0,West Farms-Bronx River                                                     
356,Brooklyn,Brevoort,250 Ralph Avenue,Occupied,"Brooklyn Kindergarten Society, Inc.",Child Care - Early Learn,11233.0,40.68104,-73.9224,3.0,41.0,381.0,3325169.0,3016880001.0,Crown Heights North                                                        
357,Staten Island,West Brighton,1085 Castleton Avenue,Occupied,NYCHA,Storage,10310.0,40.634376,-74.119353,1.0,49.0,13301.0,5095825.0,5001960001.0,West New Brighton-New Brighton-St. George                                  
358,Brooklyn,Red Hook East,120 West 9th Street,Reserved - temporarily relocated,Spanish Speaking Elderly Council - RAICES,Senior Center,11231.0,40.675925,-74.001961,6.0,38.0,85.0,3339412.0,3005380001.0,Carroll Gardens-Columbia Street-Red Hook                                   
359,Brooklyn,Howard Ave /Park Place,1767B Sterling Place,NYCHA HOLD,NYCHA,Vacant,11233.0,40.670896,-73.920148,16.0,41.0,363.0,3039386.0,3014660047.0,Ocean Hill                                                                 
360,Brooklyn,Sheepshead Bay,3677 Nostrand Ave,Occupied,"Catholic Charities Neighborhood Services, Inc.",NORC,11229.0,40.594203,-73.940674,15.0,46.0,572.0,3344548.0,3074051001.0,Sheepshead Bay-Gerritsen Beach-Manhattan Beach                             
361,Queens,Shelton,89-09 162nd Street,Occupied,Jamaica Service Program for Older Adults (JSPOA),Senior Center,11432.0,40.706571,-73.799061,12.0,24.0,44601.0,4208882.0,4097610036.0,Jamaica                                                                    
362,Manhattan,Polo Grounds Towers,2965 Eighth Avenue,Occupied,Research Foundation of the State University of New York,Other - ATTAIN LAB,10039.0,40.830242,-73.9365,10.0,9.0,24302.0,1084520.0,1021060003.0,Central Harlem North-Polo Grounds                                          
363,Manhattan,Saint Nicholas,2374 Eighth Avenue,Reserved - temporarily relocated,"Harlem Children's Zone, Inc.",Community Center,10027.0,40.811749,-73.950003,10.0,9.0,224.0,1081504.0,1019330001.0,Central Harlem North-Polo Grounds                                          
364,Bronx,Bronx River,1555 East 174th Street,Occupied,"Tremont Crotona Day Care Ctr., Inc.",Child Care - Early Learn,10472.0,40.834294,-73.87885,9.0,18.0,62.0,2092903.0,2038860002.0,West Farms-Bronx River                                                     
365,Bronx,Morissania Air Rights,3071 Park Avenue,Occupied,NYCHA,Storage,10451.0,40.8227,-73.919417,4.0,16.0,173.0,2102829.0,2024209020.0,East Concourse-Concourse Village                                           
366,Bronx,Morissania Air Rights,3135 Park Avenue ,Occupied,Presbyterian Senior Services,Senior Center,10451.0,40.82415,-73.917164,4.0,16.0,173.0,2100990.0,2024209078.0,East Concourse-Concourse Village                                           
367,Brooklyn,Sheepshead Bay,2953 Avenue X,Occupied,Beachbrook Nursery School,Child Care ,11235.0,40.593955,-73.939418,15.0,46.0,572.0,3344550.0,3074051001.0,Sheepshead Bay-Gerritsen Beach-Manhattan Beach                             
368,Brooklyn,Atlantic Terminal Site 4B,501 Carlton Avenue,Occupied,"University Settlement Society of New York, Inc.",Community Center,11238.0,40.682761,-73.97077,2.0,35.0,179.0,3057520.0,3020070001.0,Fort Greene                                                                
369,Brooklyn,Vernon Avenue,1060 Myrtle Avenue,Occupied,Research Foundation of the State University of New York,Other - ATTAIN LAB,11206.0,40.696506,-73.939325,3.0,36.0,283.0,3042881.0,3015850001.0,Stuyvesant Heights                                                         
370,Manhattan,Baruch Addition,72 Columbia Street,Occupied,"Grand Street Settlement, Inc.",NORC,10002.0,40.717007,-73.980268,3.0,2.0,1002.0,1078043.0,1003230001.0,Lower East Side                                                            
371,Queens,South Jamaica,159-07 108th Avenue,Vacant ,NYCHA,Vacant,11433.0,40.695221,-73.794562,12.0,28.0,254.0,4440739.0,4101250033.0,South Jamaica                                                              
372,Bronx,Highbridge Gardens,1155 University Avenue,Occupied,Catholic Charities Community Services Archdiocese of NY,Community Center,10452.0,40.837137,-73.928221,4.0,16.0,193.0,2095219.0,2025270032.0,Highbridge                                                                 
373,Brooklyn,Borinquen Plaza I,80 Seigel Street,Occupied,"Ridgewood-Bushwick Sr Citizens Council, Inc.",Senior Center,11206.0,40.704366,-73.943775,1.0,34.0,491.0,3071447.0,3030960030.0,East Williamsburg                                                          
374,Bronx,Butler,1450 Webster Avenue,Occupied,Claremont Neighborhood Center,Child Care ,10456.0,40.837646,-73.906504,3.0,16.0,14702.0,2092076.0,2028950001.0,Claremont-Bathgate                                                         
375,Brooklyn,Williamsburg,195 Graham Avenue,Occupied,St. Nicks Alliance,Community Center,11206.0,40.708876,-73.943465,1.0,34.0,505.0,3070826.0,3030250070.0,East Williamsburg                                                          
376,Brooklyn,Farragut,228 York Street,Occupied,Research Foundation of the State University of New York,Other - ATTAIN LAB,11201.0,40.701304,-73.981762,2.0,35.0,23.0,3325909.0,3000710001.0,DUMBO-Vinegar Hill-Downtown Brooklyn-Boerum Hill                           
377,Staten Island,West Brighton,230 Broadway,Occupied,United Activities Unlimited Inc,Community Center,10310.0,40.636486,-74.117523,1.0,49.0,13301.0,5095818.0,5001960001.0,West New Brighton-New Brighton-St. George                                  
378,Bronx,Bronx River,1625 East 174th Street,Occupied,NYCHA,Plasterer's Shop,10472.0,40.834024,-73.875601,9.0,18.0,62.0,2092902.0,2038860002.0,West Farms-Bronx River                                                     
379,Manhattan,Wald,18 Avenue D,Occupied,"Educational Alliance, Inc.",Child Care ,10009.0,40.720676,-73.978217,3.0,2.0,20.0,1078047.0,1003560001.0,Lower East Side                                                            
380,Brooklyn,Williams Plaza,333 Roebling Street,Occupied,Cumberland Hospital,Health Clinic,11211.0,40.707837,-73.961071,1.0,33.0,525.0,3341975.0,3021400026.0,North Side-South Side                                                      
381,Bronx,Adams,690 Westchester Avenue,Occupied,"Philip Michaels Child Care Center, Inc.",Child Care ,10456.0,40.816584,-73.907585,1.0,17.0,79.0,2091976.0,2026540002.0,Melrose South-Mott Haven North                                             
382,Manhattan,Drew Hamilton,2690 8th Avenue,Occupied,Nurse Family Partnership / Harlem Hospital Center,Health Clinic,10030.0,40.821558,-73.942838,10.0,9.0,232.0,1060431.0,1020290001.0,Central Harlem North-Polo Grounds                                          
383,Manhattan,Amsterdam Addition,250 West 65th Street,Occupied,"Lincoln Square Neighborhood Center, Inc.",NORC,10023.0,40.77501,-73.98689,7.0,6.0,151.0,1030340.0,1011560020.0,Lincoln Square                                                             
384,Bronx,Soundview,1680 Seward Avenue,Occupied,Phipps Community Development,Community Center,10473.0,40.818369,-73.86895,9.0,18.0,20.0,2092647.0,2035510001.0,Soundview-Castle Hill-Clason Point-Harding Park                            
385,Bronx,Middletown Plaza,3035 Middletown Road,Occupied,"Regional Aid For Interim Needs, Inc.",Senior Center,10461.0,40.844355,-73.828806,10.0,13.0,26602.0,2046141.0,2041710024.0,Pelham Bay-Country Club-City Island                                        
386,Manhattan,Metro North Plaza,345 East 101st Street,Occupied,Addie Mae Collins Comm. Serv.,Child Care - Early Learn,10029.0,40.787019,-73.943742,11.0,8.0,164.0,1079340.0,1016730006.0,East Harlem South                                                          
387,Manhattan,Audobon,1909 Amsterdam Avenue,Reserved - application on file,NYCHA,Community/Senior,10032.0,40.831308,-73.943159,9.0,7.0,23501.0,1061681.0,1020680046.0,Hamilton Heights                                                           
388,Bronx,Millbrook,201 St. Anns Avenue,Occupied,East Side House Settlement,Community Center,10454.0,40.805742,-73.918238,1.0,8.0,25.0,2090986.0,2022630019.0,Mott Haven-Port Morris                                                     
389,Manhattan,Saint Nicholas,210 West 131st Street,Occupied,Central Harlem Senior Center,Senior Center,10027.0,40.812977,-73.94614,10.0,9.0,224.0,1081515.0,1019330050.0,Central Harlem North-Polo Grounds                                          
390,Manhattan,Jefferson,2205 First Avenue,Occupied,Union Settlement Association,Senior Center,10029.0,40.794319,-73.93665,11.0,8.0,180.0,1081091.0,1016840001.0,East Harlem North                                                          
391,Bronx,Twin Parks East,2070 Clinton Avenue,Occupied,Neighborhood SHOPP,Senior Center,10457.0,40.847236,-73.888101,6.0,15.0,371.0,2012652.0,2030940014.0,East Tremont                                                               
392,Manhattan,Fulton,418 West 17th Street,Occupied,Hudson Guild,Other - Computer Lab,10011.0,40.743185,-74.004756,4.0,3.0,83.0,1078411.0,1007140031.0,Hudson Yards-Chelsea-Flatiron-Union Square                                 
393,Bronx,Gun Hill,3450 White Plains Road,Vacant ,NYCHA,Vacant- health clinic,10467.0,40.876214,-73.866978,12.0,12.0,374.0,2093518.0,2046290050.0,Williamsbridge-Olinville                                                   
394,Manhattan,335 East 111th St (managed by Jefferson),335 East 111th Street,Occupied,Research Foundation of CUNY (Hostos Community College),Other - Jobs Plus,10029.0,40.793173,-73.938558,11.0,8.0,180.0,1052877.0,1016830018.0,East Harlem North                                                          
395,Brooklyn,Borinquen Plaza I,125 Humboldt Street,Occupied,YMCA of Greater New York ,Community Center,11206.0,40.705694,-73.941231,1.0,34.0,493.0,3071353.0,3030800020.0,Bushwick South                                                             
396,Queens,Bland,133-36 Roosevelt Avenue,Reserved UPK 2015,School Construction Authority,Occupied,11354.0,40.758531,-73.833124,7.0,20.0,871.0,4443447.0,4050370008.0,Flushing                                                                   
397,Manhattan,Chelsea Addition,441 West 26th Street,Occupied,Hudson Guild,NORC,10001.0,40.749196,-74.001815,4.0,3.0,97.0,1012827.0,1007240010.0,Hudson Yards-Chelsea-Flatiron-Union Square                                 
398,Manhattan,Saint Nicholas,220 West 131st Street,NYCHA HOLD,NYCHA,Vacant,10027.0,40.813142,-73.946537,10.0,9.0,224.0,1081514.0,1019330050.0,Central Harlem North-Polo Grounds                                          
399,Manhattan,Johnson,1820 Lexington Avenue,Occupied,El Barrio Boxing,Other - Sports - Boxing Program,10029.0,40.796524,-73.943167,11.0,8.0,182.0,1079195.0,1016400001.0,East Harlem North                                                          
400,Manhattan,Corsi,307 East 116th Street,Occupied,Union Settlement Association,Senior Center,10029.0,40.796935,-73.93759,11.0,8.0,188.0,1079357.0,1016880045.0,East Harlem North                                                          
401,Queens,Woodside,49-11 Broadway,NYCHA HOLD,NYCHA,Vacant,11377.0,40.755464,-73.911514,1.0,26.0,163.0,4431000.0,4007380050.0,Astoria                                                                    
402,Manhattan,Grant,1301 Amsterdam Avenue,Occupied,New York City Mission Society,Community Center,10027.0,40.811994,-73.957264,9.0,7.0,20901.0,1084095.0,1019640001.0,Morningside Heights                                                        
403,Bronx,Melrose,731 Courtlandt Avenue,Vacant ,NYCHA,Vacant,10451.0,40.820832,-73.917638,1.0,17.0,67.0,2093919.0,2024130001.0,Melrose South-Mott Haven North                                             
404,Brooklyn,Vandalia,47 Vandalia Avenue,Occupied,Millennium Development Corp.,Senior Center,11239.0,40.649799,-73.88676,5.0,42.0,105804.0,3348859.0,3044310100.0,Starrett City                                                              
405,Manhattan,Amsterdam Addition,250 West 65th Street,Occupied,"Lincoln Square Neighborhood Center, Inc.",Senior Center,10023.0,40.77501,-73.98689,7.0,6.0,151.0,1030340.0,1011560020.0,Lincoln Square                                                             
406,Brooklyn,Independence Towers,114 Taylor Street,Occupied,Millennium Development Corp.,Senior Center,11211.0,40.705508,-73.963702,1.0,33.0,545.0,3059905.0,3021760001.0,Williamsburg                                                               
407,Brooklyn,Marlboro,2298 West 8th Street,Occupied,Federation of Italian American Organizations of Brooklyn,Community Center,11223.0,40.592081,-73.978468,13.0,47.0,382.0,3322179.0,3071400016.0,Gravesend                                                                  
408,Brooklyn,Pennsylvania Avenue-Wortman Avenue,895 Pennsylvania Avenue,Occupied,Millennium Development Corp.,Senior Center,11207.0,40.655966,-73.888652,5.0,42.0,1104.0,3324011.0,3043690001.0,East New York                                                              
409,Bronx,Marble Hill,5365 Broadway,Occupied,Mosholu Montefiore Community Center Inc.,Community Center,10463.0,40.876062,-73.907886,8.0,10.0,309.0,1082782.0,1022150623.0,Marble Hill-Inwood                                                         
410,Manhattan,Grant,3170 Broadway,Occupied,Renaissance Health Care Network ,Health Clinic,10027.0,40.814794,-73.958928,9.0,7.0,211.0,1084118.0,1019800001.0,Morningside Heights                                                        
411,Bronx,Boston Road Plaza,2424 Boston Road,Occupied,"Regional Aid For Interim Needs, Inc.",Senior Center,10467.0,40.861733,-73.866616,11.0,13.0,330.0,2093401.0,2044310001.0,Bronxdale                                                                  
412,Queens,Woodside,50-53 Newtown Road,Occupied,Elmhurst Hospital ,Health Clinic,11377.0,40.753164,-73.910752,1.0,26.0,163.0,4430994.0,4007360002.0,Astoria                                                                    
413,Brooklyn,Sumner,860 Park Avenue,Occupied,"Brooklyn Kindergarten Society, Inc.",Child Care - Early Learn,11206.0,40.698576,-73.940801,3.0,36.0,28502.0,3324728.0,3015800001.0,Stuyvesant Heights                                                         
414,Brooklyn,Kingsborough,129 Kingsborough 1st Walk,Occupied,Coalition for Hispanic Family Services,Community Center,11233.0,40.67591,-73.927147,8.0,41.0,307.0,3324601.0,3013440001.0,Crown Heights North                                                        
415,Brooklyn,Cooper Park,288 Frost Street,Occupied,Jewish Association Services For the Aged,Senior Center,11222.0,40.718837,-73.939856,1.0,34.0,449.0,3327829.0,3028670001.0,East Williamsburg                                                          
416,Brooklyn,Palmetto Gardens,85 Palmetto Street,Occupied,"Ridgewood-Bushwick Sr Citizens Council, Inc.",Senior Center,11221.0,40.691599,-73.91884,4.0,34.0,399.0,3076429.0,3033400020.0,Bushwick South                                                             
417,Queens,Queensbridge North,10-25 41st Avenue,Occupied,"Jacob A. Riis Neighborhood Settlement, Inc.",Other - Computer Room,11101.0,40.755488,-73.945328,1.0,26.0,25.0,4433386.0,4004700100.0,Queensbridge-Ravenswood-Long Island City                                   
418,Brooklyn,Pink,2700 Linden Boulevard,Occupied,Colony South Brooklyn Houses,Child Care ,11208.0,40.669187,-73.864673,5.0,42.0,1214.0,3326995.0,3044880001.0,East New York                                                              
419,Bronx,Bronx River Add,1350 Manor Avenue,Vacant ,NYCHA,Vacant,10472.0,40.833016,-73.877331,9.0,18.0,56.0,2027475.0,2038660031.0,West Farms-Bronx River                                                     
420,Brooklyn,Wyckoff Gardens,280 Wyckoff Street,Occupied,Goodwill Industries of Greater New York,Community Center,11217.0,40.683365,-73.983941,6.0,33.0,127.0,3336056.0,3003940001.0,DUMBO-Vinegar Hill-Downtown Brooklyn-Boerum Hill                           
421,Manhattan,Taft,1732 Madison Avenue,Occupied,"Children's Aid Society, Inc.",Community Center,10029.0,40.798844,-73.945696,11.0,9.0,184.0,1080505.0,1016180001.0,East Harlem North                                                          
422,Bronx,Millbrook,161 Saint Anns Avenue,Occupied,"Pamela C. Torres Day Care Center, Inc.",Child Care ,10454.0,40.805284,-73.918564,1.0,8.0,25.0,2090985.0,2022630019.0,Mott Haven-Port Morris                                                     
423,Manhattan,Taft,1365  5th Avenue,Occupied,NYCHA,Senior Center,10029.0,40.798815,-73.947799,11.0,9.0,184.0,1080501.0,1016180001.0,East Harlem North                                                          
424,Bronx,Boynton Avenue Rehab,1057 Boynton Avenue,Vacant + being looked at,NYCHA,Vacant,10472.0,40.825364,-73.877478,9.0,18.0,5001.0,2023475.0,2037140036.0,Soundview-Bruckner                                                         
425,Queens,Pomonok,67-09 Kissena Blvd,Occupied,"Queens Community House, Inc.",Community Center,11367.0,40.735033,-73.814726,8.0,24.0,122702.0,4455430.0,4067920030.0,Pomonok-Flushing Heights-Hillcrest                                         
426,Bronx,Morissania Air Rights,3204 Park Avenue ,NYCHA HOLD,NYCHA,Vacant,10451.0,40.825206,-73.916267,3.0,17.0,141.0,2098307.0,2024099059.0,Morrisania-Melrose                                                         
427,Bronx,Highbridge Gardens,1145 University Avenue,Occupied,NYCHA,Senior Center,10452.0,40.837077,-73.928282,4.0,16.0,193.0,2095219.0,2025270032.0,Highbridge                                                                 
428,Brooklyn,Sheepshead/Nostrand,3525 Nostrand Avenue,NYCHA HOLD,NYCHA,Vacant- health clinic,11229.0,40.597782,-73.941366,15.0,46.0,572.0,3337289.0,3073870001.0,Sheepshead Bay-Gerritsen Beach-Manhattan Beach                             
429,Manhattan,Gompers,80 Pitt Street,Occupied,"Grand Street Settlement, Inc.",Community Center,10002.0,40.718328,-73.98245,3.0,2.0,2201.0,1084357.0,1003380001.0,Lower East Side                                                            
430,Bronx,Sedgwick,1553 University Avenue,Occupied,NYCHA,Senior Center,10453.0,40.846111,-73.921662,5.0,16.0,20501.0,2092105.0,2028770001.0,University Heights-Morris Heights                                          
431,Bronx,Bronx River,1585 East 174th Street,NYCHA HOLD ,NYCHA,Vacant,10472.0,40.833784,-73.877351,9.0,18.0,62.0,2092907.0,2038860002.0,West Farms-Bronx River                                                     
432,Brooklyn,Pink,2702 Linden Boulevard,Occupied,Fort Greene Senior Citizens Council,Senior Center,11208.0,40.669208,-73.864514,5.0,42.0,1214.0,3326995.0,3044880001.0,East New York                                                              
433,Manhattan,Washington,1761 Third Avenue,Occupied,Union Settlement Association,Other - Community Center Annex,10029.0,40.786135,-73.948625,11.0,8.0,15602.0,1082344.0,1016470001.0,East Harlem South                                                          
434,Queens,Redfern,14-66 Beach Channel Dr,Occupied,"Bethel Mission Station Church, Inc.",Child Care ,11691.0,40.609989,-73.753586,14.0,31.0,103201.0,4449690.0,4155010002.0,Far Rockaway-Bayswater                                                     
435,Staten Island,Stapleton,195 Gordon Street,Occupied,Friends of Crown Heights,Child Care - UPK 2014,10304.0,40.622959,-74.082863,1.0,49.0,29.0,5108860.0,5005450100.0,Stapleton-Rosebank                                                         
436,Brooklyn,Kingsborough,447 Kingsborough 4th Walk,Occupied,Fort Greene Senior Citizens Council,Senior Center,11233.0,40.675242,-73.924931,8.0,41.0,307.0,3035751.0,3013440175.0,Crown Heights North                                                        
437,Manhattan,Jefferson,2089 Third Avenue,Occupied,Union Settlement Association,Health Clinic (mental),10029.0,40.796761,-73.940873,11.0,8.0,180.0,1080705.0,1016620001.0,East Harlem North                                                          
438,Brooklyn,Lafayette Gardens,433 Lafayette Avenue,Occupied,NYCHA,Storage,11228.0,40.689147,-73.957754,3.0,35.0,233.0,3321868.0,3019380001.0,Bedford                                                                    
439,Brooklyn,Breukelen,717 East 105th Street,Occupied,Recreation Rooms & Settlement,Child Care - Early Learn,11236.0,40.648672,-73.895937,18.0,42.0,982.0,3321523.0,3081930001.0,Canarsie                                                                   
440,Staten Island,Mariner's Harbor,166 Lockman Avenue,Occupied,"Staten Island Mental Health Society, Inc.",Child Care - Early Learn,10303.0,40.633097,-74.161677,1.0,49.0,31901.0,5110121.0,5012450001.0,Mariner's Harbor-Arlington-Port Ivory-Graniteville                         
441,Bronx,Highbridge Gardens,1165 University Avenue,Occupied,"Highbridge Advisory Council, Inc",Child Care - Early Learn,10452.0,40.837198,-73.928159,4.0,16.0,193.0,2095219.0,2025270032.0,Highbridge                                                                 
442,Manhattan,Manhattanville,530 West 133rd Street,Occupied,Graham Windham Services to Families & Children,Community Center,10027.0,40.818127,-73.954478,9.0,7.0,219.0,1084130.0,1019840001.0,Manhattanville                                                             
443,Manhattan,Wald,888 East 6th Street,Occupied,"Henry Street Settlement, Inc.",Community Center,10009.0,40.722175,-73.97615,3.0,2.0,20.0,1078051.0,1003560001.0,Lower East Side                                                            
444,Queens,Ocean Bay Apartments (Oceanside),338 Beach 56th Street,Occupied,"Bethel Mission Station Church, Inc.",Child Care ,11692.0,40.593503,-73.786115,14.0,31.0,97204.0,4436422.0,4158920001.0,Hammels-Arverne-Edgemere                                                   
445,Queens,Baisley Park,116-55 Guy Brewer Blvd,Occupied,"Clifford Glover Day Care Center, Inc.",Child Care - Early Learn,11433.0,40.685265,-73.783585,12.0,28.0,278.0,4435292.0,4123350044.0,Baisley Park                                                               
446,Manhattan,Saint Nicholas,236 West 129st Street,Occupied,Utopia Children's Center,Child Care - Early Learn,10027.0,40.811811,-73.947207,10.0,9.0,224.0,1081503.0,1019330001.0,Central Harlem North-Polo Grounds                                          
447,Manhattan,Polo Grounds Towers,2967 Eighth Avenue,Occupied,"Sheltering Arms Chidren and Family Services, Inc.",Child Care - Early Learn,10039.0,40.830283,-73.936467,10.0,9.0,24302.0,1084520.0,1021060003.0,Central Harlem North-Polo Grounds                                          
448,Manhattan,King Towers,2 West 115th Street,Occupied,SCAN Supportive Children's Advocacy Network,Community Center,10026.0,40.799987,-73.947057,10.0,9.0,186.0,1083316.0,1015960001.0,Central Harlem South                                                       
449,Manhattan,Samuel (City),669 Lenox Avenue,Occupied,Abyssinian Baptist Church,Community Center,10030.0,40.81939,-73.937012,10.0,9.0,232.0,1085366.0,1020120025.0,Central Harlem North-Polo Grounds                                          
450,Brooklyn,Howard,1592 East New York Avenue,Occupied,YWCA - New York City,Child Care - Early Learn,11212.0,40.672884,-73.909392,16.0,41.0,906.0,3339438.0,3034890001.0,Brownsville                                                                
451,Bronx,East 152nd Street-Courtlandt Avenue,372 E 152nd Street,Occupied,East Side House Settlement,Senior Center,10455.0,40.818516,-73.91793,1.0,17.0,67.0,2090413.0,2023980014.0,Melrose South-Mott Haven North                                             
452,Bronx,Gun Hill,3445 Holland Avenue,NYCHA HOLD,NYCHA,Vacant,10467.0,40.876118,-73.864761,12.0,12.0,374.0,2093517.0,2046290050.0,Williamsbridge-Olinville                                                   
453,Manhattan,Taft,1724-26 Madison Avenue,Occupied,"Children's Aid Society, Inc.",Child Care - Early Learn,10029.0,40.798496,-73.94595,11.0,9.0,184.0,1080504.0,1016180001.0,East Harlem North                                                          
454,Manhattan,Lehman Village,1641 Madison Avenue,Occupied,Carter Burden,Senior Center,10029.0,40.79584,-73.947866,11.0,8.0,17401.0,1078867.0,1016150023.0,East Harlem South                                                          
455,Manhattan,Dyckman,3782 Tenth Avenue,Occupied,Catholic Charities Community Services Archdiocese of NY,Community Center,10034.0,40.861366,-73.921207,12.0,10.0,299.0,1080033.0,1022160001.0,Marble Hill-Inwood                                                         
456,Manhattan,Douglas I,885 Columbus Avenue,Occupied,"Children's Aid Society, Inc.",Child Care - Early Learn,10025.0,40.797762,-73.963944,7.0,7.0,189.0,1081301.0,1018360001.0,Upper West Side                                                            
457,Staten Island,Mariner's Harbor,22 Roxbury Street,NYCHA HOLD,NYCHA,Vacant,10303.0,40.633482,-74.162903,1.0,49.0,31901.0,5109114.0,5012450001.0,Mariner's Harbor-Arlington-Port Ivory-Graniteville                         
458,Brooklyn,Hope Gardens,195 Linden Street,Occupied,"Ridgewood-Bushwick Sr Citizens Council, Inc.",Senior Center,11221.0,40.69537,-73.917486,4.0,37.0,417.0,3076116.0,3033240019.0,Bushwick South                                                             
459,Bronx,Eastchester Gardens,1246 Burke Avenue,Occupied,"Regional Aid For Interim Needs, Inc.",Senior Center,10469.0,40.871144,-73.851046,11.0,12.0,348.0,2093500.0,2045810001.0,Allerton-Pelham Gardens                                                    
460,Staten Island,Richmond Terrace,71 Jersey Street,Occupied,Jewish Community Center of Staten Island,Community Center,10301.0,40.645957,-74.08824,1.0,49.0,7.0,5108499.0,5000510030.0,West New Brighton-New Brighton-St. George                                  
461,Manhattan,Isaacs,415 East 93rd Street,Occupied,Stanley M. Isaacs Neighborhood Center,NORC,10128.0,40.780904,-73.945112,8.0,5.0,152.0,1082367.0,1015730001.0,Yorkville                                                                  
462,Bronx,Ft Independence,3350 Bailey Avenue,Occupied,Provider Name Unknown,Senior Center,10463.0,40.880093,-73.900742,8.0,14.0,277.0,2086835.0,2032610102.0,Van Cortlandt Village                                                      
463,Bronx,Boston Secor,3540 Bivona Street,Occupied,"Regional Aid For Interim Needs, Inc.",Senior Center,10475.0,40.883026,-73.833227,12.0,12.0,46202.0,2093879.0,2052630070.0,Co-op City                                                                 
464,Brooklyn,Howard,90 Watkins Street,Occupied,"Police Athletic League, Inc.",Community Center,11212.0,40.670843,-73.90818,16.0,41.0,906.0,3348343.0,3034890001.0,Brownsville                                                                
465,Brooklyn,Marlboro,49 Avenue W,Occupied,Friends of Crown Heights,Child Care - Early Learn,11223.0,40.591395,-73.982238,13.0,47.0,382.0,3322146.0,3071370001.0,Gravesend                                                                  
466,Manhattan,Wald,12 Avenue D,Occupied,Felix Milan Little League,Other - Sports Program,10009.0,40.720462,-73.978369,3.0,2.0,20.0,1078045.0,1003560001.0,Lower East Side                                                            
467,Manhattan,Jefferson,2211 First Avenue,Occupied,Dawning Village,Child Care ,10029.0,40.794511,-73.936509,11.0,8.0,180.0,1081091.0,1016840001.0,East Harlem North                                                          
468,Bronx,Edenwald,1135 229th Dr South,NYCHA HOLD,NYCHA,Vacant,10466.0,40.885849,-73.845823,12.0,12.0,458.0,2094157.0,2049050001.0,Eastchester-Edenwald-Baychester                                            
469,Manhattan,Amsterdam Addition,250 West 65th Street,Occupied,"Lincoln Square Neighborhood Center, Inc.",Community Center,10023.0,40.77501,-73.98689,7.0,6.0,151.0,1030340.0,1011560020.0,Lincoln Square                                                             
470,Bronx,Betances VI,465 St. Anns Avenue,Occupied,"Bronxworks, Inc.",Community Center,10455.0,40.812488,-73.914357,1.0,8.0,43.0,2093910.0,2022720119.0,Mott Haven-Port Morris                                                     
471,Manhattan,Carver,1445 Madison Avenue,Vacant ,NYCHA,Vacant,10029.0,40.789378,-73.952576,11.0,8.0,168.0,1082312.0,1016050024.0,East Harlem South                                                          
472,Manhattan,Chelsea Addition,441 West 26th Street,Occupied,Hudson Guild,Community Center,10001.0,40.749196,-74.001815,4.0,3.0,97.0,1012827.0,1007240010.0,Hudson Yards-Chelsea-Flatiron-Union Square                                 
473,Manhattan,Chelsea Addition,441 West 26th Street,Occupied,Hudson Guild,Child Care ,10001.0,40.749196,-74.001815,4.0,3.0,97.0,1012827.0,1007240010.0,Hudson Yards-Chelsea-Flatiron-Union Square                                 
474,Manhattan,Drew Hamilton,220 West 143rd Street,Occupied,New York City Mission Society,Community Center,10030.0,40.8208,-73.94113,10.0,9.0,232.0,1086084.0,1020280016.0,Central Harlem North-Polo Grounds                                          
475,Bronx,Hunts Point Avenue Rehab,875 Irvine Street,Reserved - application on file,NYCHA,Child Care ,10474.0,40.818859,-73.888578,2.0,17.0,11502.0,2006319.0,2027610003.0,Hunts Point                                                                
476,Brooklyn,Low Houses,137 Belmont Avenue,Occupied,Research Foundation of CUNY,Community Center,11212.0,40.669205,-73.905172,16.0,41.0,908.0,3327015.0,3037270001.0,Brownsville                                                                
477,Brooklyn,Williamsburg,202 Graham Avenue,Occupied,Jewish Association Services For the Aged,Senior Center,11206.0,40.708879,-73.943443,1.0,34.0,493.0,3344974.0,3030260001.0,Bushwick South                                                             
478,Manhattan,Washington,1775 Third Avenue,Occupied,Union Settlement Association,Community Center,10029.0,40.786574,-73.948303,11.0,8.0,15602.0,1079203.0,1016470001.0,East Harlem South                                                          
479,Bronx,Edenwald,1140 East 229th Street,Occupied,Northeast Bronx Day Care Center,Child Care - Early Learn,10466.0,40.88629,-73.845378,12.0,12.0,458.0,2094178.0,2049050001.0,Eastchester-Edenwald-Baychester                                            
480,Brooklyn,Hope Gardens,331 Central Avenue,Occupied,Bushwick United Housing Development Fund,Child Care - Early Learn,11221.0,40.694817,-73.919402,4.0,37.0,419.0,3075906.0,3033150001.0,Bushwick South                                                             
481,Manhattan,Saint Nicholas,281 West 127th Street,Occupied,Renaissance Health Care Network ,Health Clinic,10027.0,40.811288,-73.949747,10.0,9.0,224.0,1081504.0,1019330001.0,Central Harlem North-Polo Grounds                                          
482,Bronx,Claremont Parkway-Franklin Avenue,1315 Franklin Avenue,Occupied,Institute for the Puerto Rican/Hispanic Elderly,Senior Center,10456.0,40.832062,-73.901641,3.0,16.0,149.0,2009713.0,2029310086.0,Morrisania-Melrose                                                         
483,Manhattan,Dyckman,3732 Tenth Avenue,Occupied,Friends of Crown Heights,Child Care - Early Learn,10034.0,40.859898,-73.922264,12.0,10.0,299.0,1080030.0,1022160001.0,Marble Hill-Inwood                                                         
484,Bronx,Ft Independence,3350 Bailey Avenue,Occupied,Mosholu Montefiore Community Center Inc.,Community Center,10463.0,40.880093,-73.900742,8.0,14.0,277.0,2086835.0,2032610102.0,Van Cortlandt Village                                                      
485,Bronx,Randall Avenue-Balcom Avenue,2705 Schley Avenue,Occupied,Jewish Association Services For the Aged,Senior Center,10465.0,40.821662,-73.827061,10.0,13.0,144.0,2080423.0,2055680050.0,Schuylerville-Throgs Neck-Edgewater Park                                   
486,Queens,South Jamaica,107-60 159th Street,Vacant ,NYCHA,Vacant,11433.0,40.695479,-73.794139,12.0,28.0,254.0,4440737.0,4101250033.0,South Jamaica                                                              
487,Brooklyn,Sheepshead Bay,3643 Nostrand Avenue,Occupied,"Catholic Charities Neighborhood Services, Inc.",Senior Center,11229.0,40.594966,-73.940825,15.0,46.0,572.0,3344554.0,3074051001.0,Sheepshead Bay-Gerritsen Beach-Manhattan Beach                             
488,Manhattan,Holmes Towers,1792 First Avenue,Occupied,Stanley M. Isaacs Neighborhood Center,Community Center,10128.0,40.781149,-73.946242,8.0,5.0,152.0,1076333.0,1015730020.0,Yorkville                                                                  
489,Manhattan,Baruch,294 Delancey Street,Occupied,"Grand Street Settlement, Inc.",Child Care - Early Learn,10002.0,40.715824,-73.979547,3.0,2.0,1002.0,1078038.0,1003230001.0,Lower East Side                                                            
490,Brooklyn,Marcy,494 Marcy Avenue,Occupied,"Sheltering Arms Chidren and Family Services, Inc.",Child Care - Early Learn,11206.0,40.698084,-73.949756,3.0,36.0,255.0,3325586.0,3017190001.0,Bedford                                                                    
491,Manhattan,Taft,1385  5th Avenue,Occupied,NYCHA,Performing Arts - Youth Chorus,10029.0,40.799355,-73.947404,11.0,9.0,184.0,1080508.0,1016180001.0,East Harlem North                                                          
492,Manhattan,Hernandez,189 Allen Street,Occupied,"University Settlement Society of New York, Inc.",Senior Center,10002.0,40.722133,-73.988964,3.0,1.0,3601.0,1005537.0,1004170001.0,Chinatown                                                                  
493,Bronx,Edenwald,1150 East 229th Street,Occupied,Mosholu Montefiore Community Center Inc.,Community Center,10466.0,40.886175,-73.845107,12.0,12.0,458.0,2094178.0,2049050001.0,Eastchester-Edenwald-Baychester                                            
494,Manhattan,East River,414 East 105th Street,Occupied,SCAN Supportive Children's Advocacy Network,Child Care - Early Learn,10029.0,40.788689,-73.939959,11.0,8.0,162.0,1083946.0,1016960001.0,East Harlem South                                                          
495,Queens,Ravenswood,35-32 21st Street,Occupied,Queens Borough Public Library,Child Care - UPK 2015,11106.0,40.760934,-73.935801,1.0,26.0,43.0,4430693.0,4003320002.0,Queensbridge-Ravenswood-Long Island City                                   
496,Bronx,Forest,1005 Tinton Avenue,NYCHA HOLD,NYCHA,Vacant- health clinic,10456.0,40.824078,-73.902585,3.0,16.0,133.0,2091962.0,2026390001.0,Morrisania-Melrose                                                         
497,Bronx,Justice Sonia Sotomayor Houses,1000 Rosedale Avenue,Occupied,Phipps Community Development,Community Center,10472.0,40.825259,-73.867705,9.0,18.0,44.0,2123862.0,2037250001.0,Soundview-Bruckner                                                         
498,Bronx,Sotomayor Houses,1818 Watson Avenue,RES HOLD,NYCHA,Vacant,10472.0,40.82788,-73.864773,9.0,18.0,44.0,2102921.0,2037300001.0,Soundview-Bruckner                                                         
499,Brooklyn,Hughes Apartments,301 Sutter Avenue,Occupied,NYCHA,Senior Center,11212.0,40.667312,-73.909072,16.0,41.0,906.0,3348344.0,3035260021.0,Brownsville                                                                
500,Brooklyn,Woodson,460 Dumont Avenue,Occupied,"Wayside Out-Reach Development Corporation, Inc.",Senior Center,11212.0,40.66514,-73.902222,16.0,42.0,910.0,3328133.0,3037970001.0,Brownsville                                                                
501,Bronx,Marble Hill,5480 Broadway,Occupied,Reach One To Teach One,Child Care - UPK 2014,10463.0,40.876558,-73.906949,8.0,10.0,309.0,1082781.0,1022150116.0,Marble Hill-Inwood                                                         
502,Brooklyn,Boulevard,2150 Linden Blvd,Occupied,"Boulevard Nursery School, Inc.",Child Care ,11207.0,40.661593,-73.883597,5.0,42.0,1110.0,3324285.0,3043550001.0,East New York                                                              
503,Queens,Astoria,2-08 Astoria Blvd.,Occupied,Cleveland Education Services,Child Care - UPK 2014,11102.0,40.77367,-73.936088,1.0,22.0,87.0,4430795.0,4004900101.0,Old Astoria                                                                
504,Manhattan,Rangel,159-30 Harlem River Drive,Occupied,"Prince Hall Service Fund, Inc.",Child Care ,10039.0,40.833115,-73.935445,10.0,9.0,24302.0,1084184.0,1021060320.0,Central Harlem North-Polo Grounds                                          
505,Staten Island,Cassidy/Lafayette,125 Cassidy Pl,Occupied,"Community Agency for Senior Citizens, Inc.",Senior Center,10301.0,40.641888,-74.096489,1.0,49.0,81.0,5001762.0,5000710011.0,West New Brighton-New Brighton-St. George                                  
506,Bronx,Boston Secor,3540 Bivona Street,Occupied,NYC Department of Education,Other - Education/ School,10475.0,40.883026,-73.833227,12.0,12.0,46202.0,2093879.0,2052630070.0,Co-op City                                                                 
507,Queens,FOREST HILLS COOP (108TH STREET-62ND DRIVE),62-27 108th Street,Occupied,"Queens Community House, Inc.",Other - Storage,11375.0,40.736351,-73.851347,6.0,29.0,745.0,4432109.0,4021590002.0,Forest Hills                                                               
508,Brooklyn,Independence Towers,110 Taylor Street,Occupied,"Sheltering Arms Chidren and Family Services, Inc.",Child Care - Early Learn,11211.0,40.705423,-73.963835,1.0,33.0,545.0,3341989.0,3021760001.0,Williamsburg                                                               
509,Bronx,Bronx River,1619 East 174th Street,Occupied,Infinity Bible Church,Other - Religious Center,10472.0,40.83395,-73.876147,9.0,18.0,62.0,2092909.0,2038860002.0,West Farms-Bronx River                                                     
510,Manhattan,Bracetti Plaza,296 East 4th Street,Occupied,Butterfly Child Care Center Inc.,Child Care - UPK 2015,10009.0,40.72242,-73.980515,3.0,2.0,2601.0,1004617.0,1003860033.0,Lower East Side                                                            
511,Manhattan,East River,416 East 105th Street,Occupied,East River Children's Center Committee Inc.,Child Care ,10029.0,40.788669,-73.939912,11.0,8.0,162.0,1083946.0,1016960001.0,East Harlem South                                                          
512,Bronx,Eastchester Gardens,3016 Yates Avenue,Occupied,Neighborhood Initiatives Development Corporation,Community Center,10469.0,40.870125,-73.854588,11.0,12.0,348.0,2093503.0,2045810001.0,Allerton-Pelham Gardens                                                    
513,Brooklyn,Lafayette Gardens,333 Classon Avenue,Occupied,Billy Martin Child Dev Center,Child Care ,11205.0,40.689768,-73.960169,3.0,35.0,233.0,3321871.0,3019380001.0,Bedford                                                                    
514,Queens,Hammel,81-14 Rockaway Beach Boulevard,Occupied,"Action Center for Education and Community Development, Inc.",Community Center,11693.0,40.587969,-73.807684,14.0,31.0,94202.0,4436315.0,4161140002.0,Hammels-Arverne-Edgemere                                                   
515,Manhattan,Campos Plaza II,611 East 13th Street,Occupied,"University Settlement Society of New York, Inc.",Community Center,10009.0,40.728579,-73.978114,3.0,2.0,28.0,1077502.0,1003960010.0,Lower East Side                                                            
516,Manhattan,Thomas Apartments,102 West 91 Street,Occupied,NYCHA,Senior Program,10024.0,40.789779,-73.970124,7.0,6.0,177.0,1077231.0,1012210038.0,Upper West Side                                                            
517,Bronx,Marble Hill,5365 Broadway,Occupied,Mosholu Montefiore Community Center Inc.,Senior Center,10463.0,40.876062,-73.907886,8.0,10.0,309.0,1082782.0,1022150623.0,Marble Hill-Inwood                                                         
518,Bronx,West Tremont,228 West Tremont Avenue,Vacant ,NYCHA,Vacant,10453.0,40.85294,-73.918169,5.0,14.0,20502.0,2008963.0,2028770497.0,University Heights-Morris Heights                                          
519,Brooklyn,Independence Towers,114 Taylor Street,Occupied,El Puente De Williamsburg,Community Center,11211.0,40.705508,-73.963702,1.0,33.0,545.0,3059905.0,3021760001.0,Williamsburg                                                               
520,Manhattan,Robinson,110 East 129th Street,Occupied,Addie Mae Collins Comm. Serv.,Child Care - Early Learn,10035.0,40.807387,-73.936695,11.0,9.0,242.0,1054505.0,1017770005.0,East Harlem North                                                          
521,Manhattan,Bethune,1949 Amsterdam Avenue,Vacant ,NYCHA,Vacant,10032.0,40.832646,-73.942182,12.0,7.0,239.0,1062490.0,1021070059.0,Washington Heights South                                                   
522,Bronx,Butler,1368 Webster Avenue,Occupied,"Directions For Our Youth, Inc.",Community Center,10456.0,40.835492,-73.907805,3.0,16.0,14701.0,2092072.0,2028940001.0,Claremont-Bathgate                                                         
523,Brooklyn,Tilden,630 Mother Gaston Blvd.,Occupied,Research Foundation of CUNY,Community Center,11212.0,40.663471,-73.905278,16.0,41.0,912.0,3326549.0,3035760001.0,Brownsville                                                                
524,Brooklyn,Whitman,105 North Portland Avenue,Occupied,Fort Greene Senior Citizens Council,Senior Center,11205.0,40.694782,-73.976116,2.0,35.0,18501.0,3335258.0,3020410001.0,Fort Greene                                                                
525,Queens,Latimer Gardens,34-30 137th Street,Occupied,"Self Help Community Services, Inc",Senior Center,11354.0,40.766044,-73.829935,7.0,20.0,88901.0,4443410.0,4049510008.0,Flushing                                                                   
526,Bronx,Saint Mary's Park,595 Trinity Avenue,Occupied,"Bronxworks, Inc.",Community Center,10455.0,40.81487,-73.909517,1.0,17.0,73.0,2091317.0,2026230135.0,Melrose South-Mott Haven North                                             
527,Manhattan,Saint Nicholas,236 West 131st Street,Occupied,Utopia Children's Center,Child Care - Early Learn,10027.0,40.813265,-73.946826,10.0,9.0,224.0,1081514.0,1019330050.0,Central Harlem North-Polo Grounds                                          
528,Bronx,Baychester,1220 East 229th Street,Occupied,Jewish Association Services For the Aged,Senior Center,10466.0,40.884011,-73.842204,12.0,12.0,460.0,2093741.0,2049050360.0,Eastchester-Edenwald-Baychester                                            
529,Manhattan,Washington Hts Rehab (Groups I and II),2340-46 Amsterdam Avenue,Occupied,"Dominican Women's Development Center, Inc.",Child Care ,10033.0,40.844971,-73.9332,12.0,10.0,261.0,1063193.0,1021320047.0,Washington Heights South                                                   
530,Manhattan,Wise Towers/WSURA,114 West 91st Street,Occupied,Goddard Riverside Outreach,Child Care - Early Learn,10024.0,40.789999,-73.970644,7.0,6.0,177.0,1077128.0,1012210007.0,Upper West Side                                                            
531,Staten Island,Stapleton,189 Gordon Street,Occupied,Jewish Community Center of Staten Island,Senior Center,10304.0,40.623124,-74.082838,1.0,49.0,29.0,5108860.0,5005450100.0,Stapleton-Rosebank                                                         
532,Queens,Baisley Park,116-40 Guy Brewer Blvd,NYCHA HOLD,NYCHA,Vacant,11434.0,40.685658,-73.783843,12.0,28.0,278.0,4435280.0,4122350022.0,Baisley Park                                                               
533,Bronx,Justice Sonia Sotomayor Houses,1065 Beach Avenue,Occupied,Bronxdale Tenant's League DayCare Ctr.,Child Care - Early Learn,10472.0,40.827038,-73.865255,9.0,18.0,44.0,2092801.0,2037250001.0,Soundview-Bruckner                                                         
534,Brooklyn,Van Dyke I,382 Sutter Avenue,Reserved - application on file,NYCHA,Construction Training,11212.0,40.667904,-73.90499,16.0,41.0,910.0,3328030.0,3037600001.0,Brownsville                                                                
535,Queens,Astoria,4-05 Astoria Blvd,Occupied,Hellenic American Neighborhood Action Committee (HANAC),Community Center,11102.0,40.772947,-73.933467,1.0,22.0,87.0,4430787.0,4004900101.0,Old Astoria                                                                
